{"version": 0.6, "generator": "Overpass API 0.7.62.5 1bd436f1", "osm3s": {"timestamp_osm_base": "2025-03-27T00:01:26Z", "copyright": "The data included in this document is from www.openstreetmap.org. The data is made available under ODbL."}, "elements": [{"type": "node", "id": 627183101, "lat": 49.2759456, "lon": -123.1302393}, {"type": "node", "id": 627183105, "lat": 49.2762758, "lon": -123.1301654}, {"type": "node", "id": 627183107, "lat": 49.2762946, "lon": -123.130249}, {"type": "node", "id": 627183111, "lat": 49.2761719, "lon": -123.1304431}, {"type": "node", "id": 627183113, "lat": 49.2760388, "lon": -123.130392}, {"type": "node", "id": 638748345, "lat": 49.2805221, "lon": -123.116967, "tags": {"addr:city": "Vancouver", "addr:housenumber": "788", "addr:postcode": "V6B 3A4", "addr:province": "BC", "addr:street": "Richards Street", "internet_access": "wlan", "internet_access:fee": "no", "name": "L' Hermitage", "phone": "+1-778-327-4100", "tourism": "hotel", "website": "https://www.lhermitagevancouver.com/"}}, {"type": "node", "id": 638750749, "lat": 49.2788858, "lon": -123.11296, "tags": {"addr:city": "Vancouver", "addr:housenumber": "180", "addr:postcode": "V6B 4P4", "addr:street": "West Georgia Street", "name": "Sandman Hotel Vancouver City Centre", "phone": "+1-604-681-2211", "tourism": "hotel", "website": "http://www.sandmanhotels.ca/hotels/vancouver-city-centre/"}}, {"type": "node", "id": 638750750, "lat": 49.2783539, "lon": -123.1130745, "tags": {"addr:city": "Vancouver", "addr:housenumber": "733", "addr:street": "Beatty Street", "email": "hotel@ywcavan.org", "internet_access": "wlan", "internet_access:fee": "no", "name": "YWCA Hotel / Residence", "phone": "+1-604-895-5830", "tourism": "hotel", "website": "https://www.ywcavan.org/hotel", "wheelchair": "yes"}}, {"type": "node", "id": 638750751, "lat": 49.2780805, "lon": -123.113659, "tags": {"addr:city": "Vancouver", "addr:housenumber": "773", "addr:province": "BC", "addr:street": "Beatty Street", "internet_access": "wlan", "internet_access:fee": "no", "name": "Georgian Court Hotel", "phone": "+1-604-682-5555", "tourism": "hotel", "website": "https://georgiancourthotelvancouver.com/", "wheelchair": "yes"}}, {"type": "node", "id": 638751995, "lat": 49.277907, "lon": -123.113987, "tags": {"addr:city": "Vancouver", "addr:housenumber": "111", "addr:province": "BC", "addr:street": "Robson Street", "alt_name": "Hampton Inn", "brand": "Hampton", "brand:wikidata": "Q5646230", "brand:wikipedia": "en:Hampton by Hilton", "internet_access": "wlan", "internet_access:fee": "no", "name": "Hampton Inn & Suites by Hilton Vancouver-Downtown", "official_name": "Hampton by Hilton", "operator": "Hilton", "phone": "+1-604-602-1008", "tourism": "hotel", "website": "https://www.hilton.com/en/hotels/yvrhshx-hampton-suites-vancouver-downtown/"}}, {"type": "node", "id": 638771016, "lat": 49.2784828, "lon": -123.1256597, "tags": {"addr:city": "Vancouver", "addr:housenumber": "1110", "addr:postcode": "V6Z 1R2", "addr:province": "BC", "addr:street": "Howe Street", "brand": "Holiday Inn", "brand:wikidata": "Q2717882", "brand:wikipedia": "en:Holiday Inn", "internet_access": "wlan", "internet_access:fee": "no", "name": "Holiday Inn and Suites Downtown", "phone": "+1-604-684-2151", "tourism": "hotel", "website": "https://www.holidayinnvancouverdowntown.com/", "wheelchair": "yes"}}, {"type": "node", "id": 652956533, "lat": 49.2783489, "lon": -123.116222, "tags": {"addr:city": "Vancouver", "addr:housenumber": "838", "addr:postcode": "V6B 6A2", "addr:province": "BC", "addr:street": "Hamilton Street", "email": "reservations@rosedaleonrobson.com", "internet_access": "wlan", "internet_access:fee": "no", "name": "Rosedale on Robson Suite Hotel", "phone": "+1-800-661-8870", "tourism": "hotel", "website": "https://www.rosedaleonrobson.com/"}}, {"type": "node", "id": 652992171, "lat": 49.2808331, "lon": -123.1270521, "tags": {"addr:city": "Vancouver", "addr:housenumber": "1015", "addr:postcode": "V6Z 1Y5", "addr:province": "BC", "addr:street": "Burrard Street", "email": "reserve@century-plaza.com", "internet_access": "wlan", "internet_access:fee": "no", "name": "Century Plaza Hotel and Spa", "phone": "+1-604-687-0575", "toilets:wheelchair": "yes", "tourism": "hotel", "website": "https://www.century-plaza.com/", "wheelchair": "yes"}}, {"type": "node", "id": 652994289, "lat": 49.282958, "lon": -123.124276, "tags": {"addr:city": "Vancouver", "addr:housenumber": "845", "addr:province": "BC", "addr:street": "Burrard Street", "internet_access": "wlan", "internet_access:fee": "no", "name": "The Sutton Place Hotel", "phone": "+1-866-378-8866", "tourism": "hotel", "website": "https://www.suttonplace.com/hotels/sutton-place-hotel-vancouver-van", "wheelchair": "yes", "wikidata": "Q14874771"}}, {"type": "node", "id": 736729135, "lat": 49.2872256, "lon": -123.1291922, "tags": {"addr:housenumber": "1300", "addr:street": "Robson Street", "check_date": "2024-09-18", "email": "reservations@thelistelhotel.com", "internet_access": "wlan", "internet_access:fee": "no", "name": "The Listel Hotel", "phone": "+1-604-684-8461", "tourism": "hotel", "website": "https://www.thelistelhotel.com/", "wheelchair": "yes", "wikidata": "Q17118059"}}, {"type": "node", "id": 883378920, "lat": 49.2864636, "lon": -123.127255, "tags": {"addr:city": "Vancouver", "addr:housenumber": "1225", "addr:province": "BC", "addr:street": "Robson Street", "check_date": "2024-01-27", "email": "info@bluehorizonhotel.com", "internet_access": "wlan", "internet_access:fee": "no", "name": "Blue Horizon Hotel", "phone": "+1-604-688-1411", "stars": "3", "tourism": "hotel", "website": "https://bluehorizonhotel.com/", "wheelchair": "yes"}}, {"type": "node", "id": 905400402, "lat": 49.2801083, "lon": -123.1273266}, {"type": "node", "id": 910187940, "lat": 49.2880994, "lon": -123.116883, "tags": {"addr:city": "Vancouver", "addr:housenumber": "1038", "addr:postcode": "V6C 0B9", "addr:province": "BC", "addr:street": "Canada Place", "brand": "Fairmont", "brand:wikidata": "Q1393345", "check_date": "2023-01-25", "internet_access": "wlan", "name": "Fairmont Pacific Rim", "phone": "+1-604-695-5300", "stars": "5", "tourism": "hotel", "website": "https://www.fairmont.com/pacificrim", "wheelchair": "yes", "wikidata": "Q2411231"}}, {"type": "node", "id": 911592824, "lat": 49.2872705, "lon": -123.113634, "tags": {"addr:city": "Vancouver", "addr:housenumber": "900", "addr:street": "Canada Place", "brand": "Fairmont", "brand:wikidata": "Q1393345", "internet_access": "yes", "name": "Fairmont Waterfront", "phone": "+1-604-691-1991", "tourism": "hotel", "website": "https://www.fairmont.com/waterfront", "wikidata": "Q111231417"}}, {"type": "node", "id": 912958393, "lat": 49.2878972, "lon": -123.113048, "tags": {"addr:city": "Vancouver", "addr:housenumber": "999", "addr:street": "Canada Place", "addr:unit": "300", "brand": "Pan Pacific", "brand:wikidata": "Q4272131", "check_date": "2023-01-23", "internet_access": "wlan", "name": "Pan Pacific Vancouver", "phone": "+1-604-662-8111", "stars": "5", "tourism": "hotel", "website": "https://www.panpacific.com/en/hotels-and-resorts/pp-vancouver.html", "wikidata": "Q17111664", "wikipedia": "en:Pan Pacific Vancouver Hotel"}}, {"type": "node", "id": 1068758270, "lat": 49.286, "lon": -123.1238923}, {"type": "node", "id": 1068758292, "lat": 49.2857842, "lon": -123.1239758}, {"type": "node", "id": 1068758314, "lat": 49.2859819, "lon": -123.1238639}, {"type": "node", "id": 1068758339, "lat": 49.2858886, "lon": -123.1238924}, {"type": "node", "id": 1068758341, "lat": 49.2800374, "lon": -123.1259254}, {"type": "node", "id": 1068758396, "lat": 49.2857154, "lon": -123.1241587}, {"type": "node", "id": 1068758456, "lat": 49.2856968, "lon": -123.1233937}, {"type": "node", "id": 1068758524, "lat": 49.2858866, "lon": -123.1239201}, {"type": "node", "id": 1068758556, "lat": 49.2854947, "lon": -123.1238123}, {"type": "node", "id": 1068758586, "lat": 49.2857881, "lon": -123.1239186}, {"type": "node", "id": 1068758606, "lat": 49.2859895, "lon": -123.1238525}, {"type": "node", "id": 1068758682, "lat": 49.2857402, "lon": -123.1241269}, {"type": "node", "id": 1068758697, "lat": 49.2802224, "lon": -123.1256471}, {"type": "node", "id": 1068758784, "lat": 49.2854606, "lon": -123.1237647}, {"type": "node", "id": 1187566965, "lat": 49.27458, "lon": -123.122482, "tags": {"addr:city": "Vancouver", "addr:housenumber": "322", "addr:province": "BC", "addr:street": "Davie Street", "email": "info@opushotel.com", "internet_access": "wlan", "internet_access:fee": "no", "name": "Opus", "phone": "+1-866-642-6787", "tourism": "hotel", "website": "https://vancouver.opushotel.com/en-us", "wikidata": "Q111231447"}}, {"type": "node", "id": 1209780009, "lat": 49.2778683, "lon": -123.1249353}, {"type": "node", "id": 1209780010, "lat": 49.2778169, "lon": -123.1242872}, {"type": "node", "id": 1209780013, "lat": 49.277869, "lon": -123.1249008}, {"type": "node", "id": 1209780015, "lat": 49.2775736, "lon": -123.1247296}, {"type": "node", "id": 1209780016, "lat": 49.2778828, "lon": -123.1248796}, {"type": "node", "id": 1209780017, "lat": 49.2777903, "lon": -123.1250559}, {"type": "node", "id": 1209780019, "lat": 49.2778865, "lon": -123.1243128}, {"type": "node", "id": 1209780020, "lat": 49.2777522, "lon": -123.1243665}, {"type": "node", "id": 1209780023, "lat": 49.2778764, "lon": -123.1242902}, {"type": "node", "id": 1331318652, "lat": 49.2693999, "lon": -123.1313628}, {"type": "node", "id": 1331318673, "lat": 49.2695736, "lon": -123.1313736}, {"type": "node", "id": 1331318675, "lat": 49.2696463, "lon": -123.1308045}, {"type": "node", "id": 1331318681, "lat": 49.269619, "lon": -123.1312602}, {"type": "node", "id": 1331318682, "lat": 49.2696823, "lon": -123.1307845}, {"type": "node", "id": 1331318683, "lat": 49.2698015, "lon": -123.130935}, {"type": "node", "id": 1331318684, "lat": 49.2695767, "lon": -123.1312575}, {"type": "node", "id": 1331318687, "lat": 49.2695831, "lon": -123.1309516}, {"type": "node", "id": 1346046164, "lat": 49.2691798, "lon": -123.1311031}, {"type": "node", "id": 1346046165, "lat": 49.269381, "lon": -123.130939}, {"type": "node", "id": 1346046174, "lat": 49.2692531, "lon": -123.1314556}, {"type": "node", "id": 1346046176, "lat": 49.2691914, "lon": -123.130668}, {"type": "node", "id": 1346046178, "lat": 49.2693434, "lon": -123.1314612}, {"type": "node", "id": 1346046180, "lat": 49.2692235, "lon": -123.1311739}, {"type": "node", "id": 1346046182, "lat": 49.2693879, "lon": -123.1306803}, {"type": "node", "id": 1346046185, "lat": 49.2693489, "lon": -123.1312565}, {"type": "node", "id": 1346046186, "lat": 49.2692721, "lon": -123.1311846}, {"type": "node", "id": 1346046187, "lat": 49.2692404, "lon": -123.1311495}, {"type": "node", "id": 1416010040, "lat": 49.2799728, "lon": -123.132406}, {"type": "node", "id": 1416010042, "lat": 49.2800781, "lon": -123.1325697}, {"type": "node", "id": 1416010054, "lat": 49.2800934, "lon": -123.1322672}, {"type": "node", "id": 1416010068, "lat": 49.2801884, "lon": -123.1324111}, {"type": "node", "id": 1520230746, "lat": 49.2827842, "lon": -123.115912}, {"type": "node", "id": 1520230752, "lat": 49.282853, "lon": -123.1160199}, {"type": "node", "id": 1520230755, "lat": 49.2828915, "lon": -123.1160809}, {"type": "node", "id": 1520230762, "lat": 49.2829659, "lon": -123.1161991}, {"type": "node", "id": 1520230764, "lat": 49.2829826, "lon": -123.115615}, {"type": "node", "id": 1520230773, "lat": 49.2830681, "lon": -123.1160478}, {"type": "node", "id": 1520230785, "lat": 49.2831076, "lon": -123.1161106}, {"type": "node", "id": 1520230816, "lat": 49.2832067, "lon": -123.115964}, {"type": "node", "id": 1522522328, "lat": 49.2838119, "lon": -123.119003}, {"type": "node", "id": 1522522330, "lat": 49.2835124, "lon": -123.1194321}, {"type": "node", "id": 1522522353, "lat": 49.2832884, "lon": -123.1190855}, {"type": "node", "id": 1529901574, "lat": 49.2833114, "lon": -123.1211326}, {"type": "node", "id": 1529901577, "lat": 49.2833759, "lon": -123.1208888}, {"type": "node", "id": 1529901578, "lat": 49.283379, "lon": -123.1212444}, {"type": "node", "id": 1529901579, "lat": 49.2834224, "lon": -123.1209659}, {"type": "node", "id": 1529901583, "lat": 49.2835649, "lon": -123.1216323}, {"type": "node", "id": 1529901584, "lat": 49.2835948, "lon": -123.1215884}, {"type": "node", "id": 1529901589, "lat": 49.2837191, "lon": -123.1218793}, {"type": "node", "id": 1529901590, "lat": 49.2837432, "lon": -123.1203392}, {"type": "node", "id": 1529901591, "lat": 49.2837277, "lon": -123.1216537}, {"type": "node", "id": 1529901592, "lat": 49.2837971, "lon": -123.1217648}, {"type": "node", "id": 1529901593, "lat": 49.2837961, "lon": -123.1215534}, {"type": "node", "id": 1529901596, "lat": 49.2838604, "lon": -123.1216563}, {"type": "node", "id": 1529901607, "lat": 49.2842319, "lon": -123.1211112}, {"type": "node", "id": 1572442569, "lat": 49.2838148, "lon": -123.1183058}, {"type": "node", "id": 1572442571, "lat": 49.2840051, "lon": -123.1180228}, {"type": "node", "id": 1572442572, "lat": 49.284016, "lon": -123.1186238}, {"type": "node", "id": 1572442578, "lat": 49.2842064, "lon": -123.1183407}, {"type": "node", "id": 1572442617, "lat": 49.2851234, "lon": -123.1182497}, {"type": "node", "id": 1572442654, "lat": 49.2857299, "lon": -123.1162995}, {"type": "node", "id": 1572442656, "lat": 49.2858443, "lon": -123.1164736}, {"type": "node", "id": 1572442678, "lat": 49.2861519, "lon": -123.1169599}, {"type": "node", "id": 1572442687, "lat": 49.2863861, "lon": -123.1165952}, {"type": "node", "id": 1572449487, "lat": 49.2864534, "lon": -123.1168336}, {"type": "node", "id": 1572449547, "lat": 49.2868734, "lon": -123.1138203}, {"type": "node", "id": 1572449553, "lat": 49.2869494, "lon": -123.1137019}, {"type": "node", "id": 1572449557, "lat": 49.2869599, "lon": -123.1139325}, {"type": "node", "id": 1572449565, "lat": 49.2870255, "lon": -123.1135832}, {"type": "node", "id": 1572449568, "lat": 49.2870357, "lon": -123.1136152}, {"type": "node", "id": 1572449573, "lat": 49.287175, "lon": -123.1135214}, {"type": "node", "id": 1572449578, "lat": 49.2872685, "lon": -123.114676}, {"type": "node", "id": 1572449586, "lat": 49.2873333, "lon": -123.113532}, {"type": "node", "id": 1572449587, "lat": 49.287362, "lon": -123.1145264}, {"type": "node", "id": 1572449589, "lat": 49.2873822, "lon": -123.1145994}, {"type": "node", "id": 1572449590, "lat": 49.2873859, "lon": -123.1144305}, {"type": "node", "id": 1572449592, "lat": 49.2874044, "lon": -123.1144998}, {"type": "node", "id": 1572449593, "lat": 49.2874142, "lon": -123.1143321}, {"type": "node", "id": 1572449594, "lat": 49.287422, "lon": -123.1136436}, {"type": "node", "id": 1572449595, "lat": 49.2874325, "lon": -123.1144006}, {"type": "node", "id": 1572449596, "lat": 49.2874387, "lon": -123.1135929}, {"type": "node", "id": 1572449597, "lat": 49.2874569, "lon": -123.1142978}, {"type": "node", "id": 1572449598, "lat": 49.2874671, "lon": -123.1136815}, {"type": "node", "id": 1572449599, "lat": 49.2875036, "lon": -123.1142301}, {"type": "node", "id": 1572449600, "lat": 49.2875177, "lon": -123.1137692}, {"type": "node", "id": 1572449601, "lat": 49.2875443, "lon": -123.1141305}, {"type": "node", "id": 1572449602, "lat": 49.287551, "lon": -123.1138835}, {"type": "node", "id": 1572449603, "lat": 49.2875595, "lon": -123.1140101}, {"type": "node", "id": 1782907725, "lat": 49.2921331, "lon": -123.129135, "tags": {"addr:city": "Vancouver", "addr:housenumber": "1601", "addr:postcode": "V6G 2V4", "addr:province": "BC", "addr:street": "Bayshore Drive", "brand": "Westin", "brand:wikidata": "Q1969162", "brand:wikipedia": "en:Westin Hotels & Resorts", "internet_access": "wlan", "internet_access:fee": "no", "name": "Westin Bayshore", "phone": "+1-604-682-3377", "tourism": "hotel", "website": "https://www.marriott.com/hotels/travel/yvrwi-the-westin-bayshore-vancouver/", "wikidata": "Q14874772"}}, {"type": "node", "id": 1917811146, "lat": 49.2887895, "lon": -123.1209967}, {"type": "node", "id": 1917811149, "lat": 49.2884527, "lon": -123.121225}, {"type": "node", "id": 1917811151, "lat": 49.2882423, "lon": -123.1204578}, {"type": "node", "id": 1917811152, "lat": 49.2885432, "lon": -123.1202468}, {"type": "node", "id": 2078134663, "lat": 49.2823609, "lon": -123.1225356}, {"type": "node", "id": 2320271307, "lat": 49.2882547, "lon": -123.1213533}, {"type": "node", "id": 2320271313, "lat": 49.2878035, "lon": -123.1202248}, {"type": "node", "id": 2320271323, "lat": 49.2880176, "lon": -123.1205622}, {"type": "node", "id": 2320271324, "lat": 49.2879896, "lon": -123.1206132}, {"type": "node", "id": 2320271331, "lat": 49.2878976, "lon": -123.1201061}, {"type": "node", "id": 2320271333, "lat": 49.2877354, "lon": -123.1203531}, {"type": "node", "id": 2320271335, "lat": 49.2877462, "lon": -123.1207158}, {"type": "node", "id": 2320271337, "lat": 49.287857, "lon": -123.1201438}, {"type": "node", "id": 2320271338, "lat": 49.2877223, "lon": -123.1203833}, {"type": "node", "id": 2320271339, "lat": 49.2877177, "lon": -123.1206329}, {"type": "node", "id": 2320271340, "lat": 49.2880223, "lon": -123.1204633}, {"type": "node", "id": 2320271341, "lat": 49.2877298, "lon": -123.1207266}, {"type": "node", "id": 2320271343, "lat": 49.2877239, "lon": -123.1203376}, {"type": "node", "id": 2320271345, "lat": 49.2876788, "lon": -123.1205361}, {"type": "node", "id": 2320271351, "lat": 49.2879259, "lon": -123.1201348}, {"type": "node", "id": 2320271361, "lat": 49.287974, "lon": -123.1215446}, {"type": "node", "id": 2320271362, "lat": 49.28784, "lon": -123.1211013}, {"type": "node", "id": 2320271476, "lat": 49.2884372, "lon": -123.1218421}, {"type": "node", "id": 2320271480, "lat": 49.2885787, "lon": -123.1223312}, {"type": "node", "id": 2320271481, "lat": 49.2881294, "lon": -123.122048}, {"type": "node", "id": 2320271484, "lat": 49.2882719, "lon": -123.1225428}, {"type": "node", "id": 2328936624, "lat": 49.2815104, "lon": -123.1070202}, {"type": "node", "id": 2328936625, "lat": 49.2814815, "lon": -123.10685}, {"type": "node", "id": 2328936627, "lat": 49.2817985, "lon": -123.1067241}, {"type": "node", "id": 2328936639, "lat": 49.2818277, "lon": -123.1068838}, {"type": "node", "id": 2465835887, "lat": 49.2802956, "lon": -123.1270446}, {"type": "node", "id": 2465835891, "lat": 49.2796376, "lon": -123.1265318}, {"type": "node", "id": 2465886157, "lat": 49.2795501, "lon": -123.1274851}, {"type": "node", "id": 2465886183, "lat": 49.2796421, "lon": -123.1274814}, {"type": "node", "id": 2465886201, "lat": 49.2797391, "lon": -123.1271966}, {"type": "node", "id": 2465886203, "lat": 49.27974, "lon": -123.127332}, {"type": "node", "id": 2465886207, "lat": 49.2797759, "lon": -123.1276873}, {"type": "node", "id": 2465886212, "lat": 49.2797833, "lon": -123.127844}, {"type": "node", "id": 2465886222, "lat": 49.2798738, "lon": -123.1275379}, {"type": "node", "id": 2465886254, "lat": 49.2799723, "lon": -123.1275556}, {"type": "node", "id": 2485918687, "lat": 49.2810881, "lon": -123.1324899}, {"type": "node", "id": 2485918688, "lat": 49.2808538, "lon": -123.1328316}, {"type": "node", "id": 2485918692, "lat": 49.2809674, "lon": -123.1330163}, {"type": "node", "id": 2485918694, "lat": 49.2812045, "lon": -123.1326683}, {"type": "node", "id": 2485922708, "lat": 49.2799674, "lon": -123.132471}, {"type": "node", "id": 2485922709, "lat": 49.2800953, "lon": -123.1325958}, {"type": "node", "id": 2485922710, "lat": 49.2801458, "lon": -123.1324771}, {"type": "node", "id": 2485922711, "lat": 49.2801589, "lon": -123.1324971}, {"type": "node", "id": 2485922712, "lat": 49.2800157, "lon": -123.1325442, "tags": {"entrance": "main"}}, {"type": "node", "id": 2485922713, "lat": 49.2800545, "lon": -123.1323275}, {"type": "node", "id": 2485922714, "lat": 49.2799913, "lon": -123.132434}, {"type": "node", "id": 2485922715, "lat": 49.2800388, "lon": -123.1323038}, {"type": "node", "id": 2485922716, "lat": 49.2800556, "lon": -123.1326046}, {"type": "node", "id": 2490635042, "lat": 49.2789109, "lon": -123.122843, "tags": {"addr:city": "Vancouver", "addr:housenumber": "654", "addr:province": "BC", "addr:street": "Nelson Street", "brand": "Comfort Inn", "brand:wikidata": "Q1075788", "brand:wikipedia": "en:Choice Hotels", "email": "stay@hotelbelmont.ca", "internet_access": "wlan", "internet_access:fee": "no", "name": "Hotel Belmont Vancouver", "phone": "+1-604-605-4333", "tourism": "hotel", "website": "https://www.hotelbelmont.ca/"}}, {"type": "node", "id": 2490635280, "lat": 49.2808682, "lon": -123.1176207}, {"type": "node", "id": 2776264964, "lat": 49.2871005, "lon": -123.1135441}, {"type": "node", "id": 2776264968, "lat": 49.2872577, "lon": -123.1135165}, {"type": "node", "id": 2776264975, "lat": 49.2874046, "lon": -123.1135687}, {"type": "node", "id": 2862381376, "lat": 49.2857066, "lon": -123.124856, "tags": {"addr:city": "Vancouver", "addr:housenumber": "1128", "addr:postcode": "V6E 4H6", "addr:province": "BC", "addr:street": "Alberni Street", "internet_access": "wlan", "internet_access:fee": "no", "name": "Carmana Plaza", "phone": "+1-604-683-1399", "smoking": "outside", "tourism": "hotel", "website": "https://www.carmanaplaza.com/"}}, {"type": "node", "id": 3035924549, "lat": 49.2822713, "lon": -123.1025783}, {"type": "node", "id": 3035924550, "lat": 49.281928, "lon": -123.1025975}, {"type": "node", "id": 3035924551, "lat": 49.2822648, "lon": -123.1023675}, {"type": "node", "id": 3035924552, "lat": 49.2819216, "lon": -123.1023923}, {"type": "node", "id": 3060015859, "lat": 49.2825032, "lon": -123.1121387}, {"type": "node", "id": 3060015862, "lat": 49.2824619, "lon": -123.1120751}, {"type": "node", "id": 3060015868, "lat": 49.2824278, "lon": -123.1120221}, {"type": "node", "id": 3060015869, "lat": 49.2824071, "lon": -123.1119904}, {"type": "node", "id": 3060015870, "lat": 49.2823085, "lon": -123.1121328}, {"type": "node", "id": 3060414883, "lat": 49.2809421, "lon": -123.1175089}, {"type": "node", "id": 3060414884, "lat": 49.2807648, "lon": -123.1170811}, {"type": "node", "id": 3060414885, "lat": 49.2806411, "lon": -123.1172681}, {"type": "node", "id": 3098027125, "lat": 49.277074, "lon": -123.1265651}, {"type": "node", "id": 3098027126, "lat": 49.2772481, "lon": -123.1268341}, {"type": "node", "id": 3098028631, "lat": 49.2769287, "lon": -123.1267847}, {"type": "node", "id": 3098028632, "lat": 49.2771543, "lon": -123.1271305}, {"type": "node", "id": 3098028633, "lat": 49.2772976, "lon": -123.126911}, {"type": "node", "id": 3098034843, "lat": 49.2769162, "lon": -123.1263345}, {"type": "node", "id": 3098034845, "lat": 49.2766789, "lon": -123.1259616}, {"type": "node", "id": 3098034846, "lat": 49.276582, "lon": -123.1261092}, {"type": "node", "id": 3098034847, "lat": 49.2768242, "lon": -123.126486}, {"type": "node", "id": 3098034848, "lat": 49.2767098, "lon": -123.1260595}, {"type": "node", "id": 3098034849, "lat": 49.2767253, "lon": -123.1260343}, {"type": "node", "id": 3098034850, "lat": 49.276834, "lon": -123.1262553}, {"type": "node", "id": 3098034851, "lat": 49.276852, "lon": -123.1262318}, {"type": "node", "id": 3098034852, "lat": 49.2767572, "lon": -123.1263798}, {"type": "node", "id": 3098034853, "lat": 49.2767701, "lon": -123.1263586}, {"type": "node", "id": 3098034854, "lat": 49.2766433, "lon": -123.1261601}, {"type": "node", "id": 3098034855, "lat": 49.2766267, "lon": -123.1261856}, {"type": "node", "id": 3099851101, "lat": 49.2777999, "lon": -123.1288899}, {"type": "node", "id": 3099851102, "lat": 49.2776391, "lon": -123.1286387}, {"type": "node", "id": 3099851104, "lat": 49.278068, "lon": -123.1284843}, {"type": "node", "id": 3099851105, "lat": 49.2778561, "lon": -123.1281557}, {"type": "node", "id": 3099851106, "lat": 49.277588, "lon": -123.128559}, {"type": "node", "id": 3099851107, "lat": 49.2782809, "lon": -123.1281608}, {"type": "node", "id": 3099851108, "lat": 49.278081, "lon": -123.1278516}, {"type": "node", "id": 3099851109, "lat": 49.277868, "lon": -123.1281752}, {"type": "node", "id": 3099854534, "lat": 49.2821745, "lon": -123.1227094}, {"type": "node", "id": 3099854535, "lat": 49.2824013, "lon": -123.1230628}, {"type": "node", "id": 3099854536, "lat": 49.282538, "lon": -123.122815}, {"type": "node", "id": 3160542109, "lat": 49.2873759, "lon": -123.1294098}, {"type": "node", "id": 3160542110, "lat": 49.2873223, "lon": -123.1294923}, {"type": "node", "id": 3160542111, "lat": 49.2873416, "lon": -123.1295218}, {"type": "node", "id": 3160542112, "lat": 49.2872385, "lon": -123.1296806}, {"type": "node", "id": 3160542113, "lat": 49.2872192, "lon": -123.1296513}, {"type": "node", "id": 3160542114, "lat": 49.2871579, "lon": -123.1297458}, {"type": "node", "id": 3160542115, "lat": 49.2872831, "lon": -123.1299369}, {"type": "node", "id": 3160542116, "lat": 49.2873453, "lon": -123.129841}, {"type": "node", "id": 3160542117, "lat": 49.2873268, "lon": -123.1298128}, {"type": "node", "id": 3160542118, "lat": 49.2874292, "lon": -123.1296552}, {"type": "node", "id": 3160542119, "lat": 49.2874476, "lon": -123.1296833}, {"type": "node", "id": 3160542120, "lat": 49.2875011, "lon": -123.1296009}, {"type": "node", "id": 3167930748, "lat": 49.2871152, "lon": -123.1410498}, {"type": "node", "id": 3167930749, "lat": 49.2870528, "lon": -123.1411435}, {"type": "node", "id": 3167930750, "lat": 49.2870377, "lon": -123.1411199}, {"type": "node", "id": 3167930751, "lat": 49.2869854, "lon": -123.1411985}, {"type": "node", "id": 3167930752, "lat": 49.286654, "lon": -123.1406797}, {"type": "node", "id": 3167930753, "lat": 49.2867041, "lon": -123.1406046}, {"type": "node", "id": 3167930754, "lat": 49.2866904, "lon": -123.1405832}, {"type": "node", "id": 3167930755, "lat": 49.2867202, "lon": -123.1405384}, {"type": "node", "id": 3167930756, "lat": 49.2867309, "lon": -123.1405553}, {"type": "node", "id": 3167930757, "lat": 49.2867658, "lon": -123.1405029}, {"type": "node", "id": 3172554376, "lat": 49.2880696, "lon": -123.1291843}, {"type": "node", "id": 3172554377, "lat": 49.2878237, "lon": -123.1295541}, {"type": "node", "id": 3172554378, "lat": 49.2879418, "lon": -123.1297387}, {"type": "node", "id": 3172554379, "lat": 49.2881877, "lon": -123.1293689}, {"type": "node", "id": 3173184833, "lat": 49.2932989, "lon": -123.1352806}, {"type": "node", "id": 3173184834, "lat": 49.2931811, "lon": -123.1351005}, {"type": "node", "id": 3173184835, "lat": 49.2931463, "lon": -123.1351541}, {"type": "node", "id": 3173184836, "lat": 49.2931275, "lon": -123.1351254}, {"type": "node", "id": 3173184837, "lat": 49.292984, "lon": -123.1353461}, {"type": "node", "id": 3173184838, "lat": 49.293027, "lon": -123.1354118}, {"type": "node", "id": 3173184839, "lat": 49.2930005, "lon": -123.1354526}, {"type": "node", "id": 3173184840, "lat": 49.2930537, "lon": -123.135534}, {"type": "node", "id": 3173184841, "lat": 49.2930769, "lon": -123.1354983}, {"type": "node", "id": 3173184842, "lat": 49.293119, "lon": -123.1355628}, {"type": "node", "id": 3173184843, "lat": 49.2931491, "lon": -123.1355165}, {"type": "node", "id": 3173184844, "lat": 49.2932655, "lon": -123.1353319}, {"type": "node", "id": 3173184845, "lat": 49.2931587, "lon": -123.1355313}, {"type": "node", "id": 3173184846, "lat": 49.293277, "lon": -123.1353494}, {"type": "node", "id": 3185713925, "lat": 49.2875766, "lon": -123.1411507}, {"type": "node", "id": 3185713926, "lat": 49.2874719, "lon": -123.1409939}, {"type": "node", "id": 3185713927, "lat": 49.2877275, "lon": -123.1405989}, {"type": "node", "id": 3185713928, "lat": 49.2878334, "lon": -123.1407659}, {"type": "node", "id": 3224055961, "lat": 49.2692506, "lon": -123.1311499}, {"type": "node", "id": 3224055962, "lat": 49.2694026, "lon": -123.1312599}, {"type": "node", "id": 3225400861, "lat": 49.2892635, "lon": -123.139653}, {"type": "node", "id": 3225400862, "lat": 49.2892134, "lon": -123.1395767}, {"type": "node", "id": 3225400863, "lat": 49.2891026, "lon": -123.1396536}, {"type": "node", "id": 3225400864, "lat": 49.2890399, "lon": -123.1397506}, {"type": "node", "id": 3225400865, "lat": 49.2889883, "lon": -123.139924}, {"type": "node", "id": 3225400866, "lat": 49.2890384, "lon": -123.1400003}, {"type": "node", "id": 3225400867, "lat": 49.2891518, "lon": -123.1399204}, {"type": "node", "id": 3225400868, "lat": 49.2892144, "lon": -123.1398235}, {"type": "node", "id": 3225400960, "lat": 49.2887385, "lon": -123.1421558}, {"type": "node", "id": 3225401061, "lat": 49.2884824, "lon": -123.1425498}, {"type": "node", "id": 3225401062, "lat": 49.2886002, "lon": -123.1427276}, {"type": "node", "id": 3225401063, "lat": 49.2888547, "lon": -123.1423313}, {"type": "node", "id": 3225401074, "lat": 49.2885172, "lon": -123.1424955}, {"type": "node", "id": 3225401075, "lat": 49.2887041, "lon": -123.1422092}, {"type": "node", "id": 3232167727, "lat": 49.2862758, "lon": -123.117109}, {"type": "node", "id": 3232167730, "lat": 49.2864982, "lon": -123.1167643}, {"type": "node", "id": 3232167731, "lat": 49.2862533, "lon": -123.1171437}, {"type": "node", "id": 3232167732, "lat": 49.2861425, "lon": -123.1169745}, {"type": "node", "id": 3315764421, "lat": 49.2502091, "lon": -123.1282771}, {"type": "node", "id": 3315764422, "lat": 49.2501111, "lon": -123.1282797}, {"type": "node", "id": 3315764423, "lat": 49.2501093, "lon": -123.1282516}, {"type": "node", "id": 3315764424, "lat": 49.2500375, "lon": -123.1282489}, {"type": "node", "id": 3315764425, "lat": 49.2500305, "lon": -123.1277916}, {"type": "node", "id": 3315764426, "lat": 49.2500629, "lon": -123.1277916}, {"type": "node", "id": 3315764427, "lat": 49.2500638, "lon": -123.127746}, {"type": "node", "id": 3315764428, "lat": 49.2502792, "lon": -123.1277352}, {"type": "node", "id": 3315764429, "lat": 49.25028, "lon": -123.1277715}, {"type": "node", "id": 3315764430, "lat": 49.2503002, "lon": -123.1277715}, {"type": "node", "id": 3315764431, "lat": 49.2503028, "lon": -123.1279512}, {"type": "node", "id": 3315764432, "lat": 49.2501452, "lon": -123.1279579}, {"type": "node", "id": 3315764433, "lat": 49.2501479, "lon": -123.1280665}, {"type": "node", "id": 3315764434, "lat": 49.2502074, "lon": -123.1280652}, {"type": "node", "id": 3487930121, "lat": 49.2781605, "lon": -123.114459, "tags": {"addr:city": "Vancouver", "addr:housenumber": "177", "addr:province": "BC", "addr:street": "Robson Street", "email": "info@hotelbluvancouver.com", "internet_access": "yes", "internet_access:fee": "no", "name": "Blu Hotel", "phone": "+1-604-620-6200", "tourism": "hotel", "website": "https://hotelbluvancouver.com/"}}, {"type": "node", "id": 3630519990, "lat": 49.2358393, "lon": -123.0397434}, {"type": "node", "id": 3630519992, "lat": 49.2358538, "lon": -123.0398581}, {"type": "node", "id": 3630519993, "lat": 49.2358795, "lon": -123.0398371}, {"type": "node", "id": 3630519995, "lat": 49.235882, "lon": -123.0394458}, {"type": "node", "id": 3630519996, "lat": 49.2359043, "lon": -123.0399766}, {"type": "node", "id": 3630519997, "lat": 49.235899, "lon": -123.0396828}, {"type": "node", "id": 3630519999, "lat": 49.2359189, "lon": -123.0395336}, {"type": "node", "id": 3630520005, "lat": 49.2360541, "lon": -123.0392773}, {"type": "node", "id": 3630520008, "lat": 49.23611, "lon": -123.0397783}, {"type": "node", "id": 3630520010, "lat": 49.2361395, "lon": -123.039847}, {"type": "node", "id": 3630520027, "lat": 49.2362392, "lon": -123.039714}, {"type": "node", "id": 3645269520, "lat": 49.2836235, "lon": -123.1192634}, {"type": "node", "id": 3649800330, "lat": 49.2838715, "lon": -123.1205339}, {"type": "node", "id": 3649800333, "lat": 49.2841108, "lon": -123.1209172}, {"type": "node", "id": 3653295724, "lat": 49.2835799, "lon": -123.118658}, {"type": "node", "id": 3653296828, "lat": 49.2837177, "lon": -123.1188621}, {"type": "node", "id": 3654792899, "lat": 49.2855905, "lon": -123.1239345}, {"type": "node", "id": 3654792900, "lat": 49.2855996, "lon": -123.1239182}, {"type": "node", "id": 3654792901, "lat": 49.2855168, "lon": -123.1237784}, {"type": "node", "id": 3654792903, "lat": 49.2857336, "lon": -123.1241574}, {"type": "node", "id": 3654792904, "lat": 49.2857506, "lon": -123.1241403}, {"type": "node", "id": 3654792906, "lat": 49.2855721, "lon": -123.1239093}, {"type": "node", "id": 3654792907, "lat": 49.2857284, "lon": -123.1234433}, {"type": "node", "id": 3654792908, "lat": 49.285572, "lon": -123.1238722}, {"type": "node", "id": 3654792909, "lat": 49.2857628, "lon": -123.1234972}, {"type": "node", "id": 3654792923, "lat": 49.2855224, "lon": -123.1237879}, {"type": "node", "id": 3659616138, "lat": 49.2868916, "lon": -123.114063}, {"type": "node", "id": 3659616139, "lat": 49.2870615, "lon": -123.114336}, {"type": "node", "id": 3659616140, "lat": 49.2872013, "lon": -123.1146424}, {"type": "node", "id": 3659655079, "lat": 49.2886637, "lon": -123.1205521}, {"type": "node", "id": 3659655089, "lat": 49.2887043, "lon": -123.1210531}, {"type": "node", "id": 3659655090, "lat": 49.2884859, "lon": -123.1212032}, {"type": "node", "id": 3661033002, "lat": 49.2834584, "lon": -123.1207653}, {"type": "node", "id": 3661033003, "lat": 49.2836699, "lon": -123.1204488}, {"type": "node", "id": 3661033005, "lat": 49.2836402, "lon": -123.1204934}, {"type": "node", "id": 3661033008, "lat": 49.2834877, "lon": -123.1207214}, {"type": "node", "id": 3661033010, "lat": 49.28395, "lon": -123.1215248}, {"type": "node", "id": 3661033011, "lat": 49.2841661, "lon": -123.1212078}, {"type": "node", "id": 3661033013, "lat": 49.2839761, "lon": -123.1214865}, {"type": "node", "id": 3661033016, "lat": 49.2841433, "lon": -123.1212412}, {"type": "node", "id": 3661889586, "lat": 49.2813793, "lon": -123.0452068, "tags": {"addr:city": "Vancouver", "addr:housenumber": "2889", "addr:postcode": "V5K 2A1", "addr:province": "BC", "addr:street": "East Hastings Street", "brand": "Independent", "email": "reservations@atriumhotelvancouver.com", "fax": "+1 604 253 1234", "internet_access": "wlan", "internet_access:fee": "no", "name": "Atrium Hotel Vancouver", "phone": "+1 604 254 1000", "smoking": "no", "tourism": "hotel", "website": "https://www.atriumhotelvancouver.com/"}}, {"type": "node", "id": 3670796914, "lat": 49.2863804, "lon": -123.1169472}, {"type": "node", "id": 3678187505, "lat": 49.2874945, "lon": -123.1137195}, {"type": "node", "id": 3678187506, "lat": 49.287538, "lon": -123.113825}, {"type": "node", "id": 3678187507, "lat": 49.2875575, "lon": -123.1139444}, {"type": "node", "id": 3678187508, "lat": 49.2875543, "lon": -123.1140718}, {"type": "node", "id": 3678187509, "lat": 49.287527, "lon": -123.1141823}, {"type": "node", "id": 3678187510, "lat": 49.2874809, "lon": -123.114267}, {"type": "node", "id": 3678187511, "lat": 49.2874445, "lon": -123.1136597}, {"type": "node", "id": 3678187512, "lat": 49.2874341, "lon": -123.1143167}, {"type": "node", "id": 3678187513, "lat": 49.2869902, "lon": -123.1136544}, {"type": "node", "id": 3678187514, "lat": 49.2869097, "lon": -123.113757}, {"type": "node", "id": 3678187515, "lat": 49.2871336, "lon": -123.114479}, {"type": "node", "id": 3678187516, "lat": 49.2869683, "lon": -123.1141735}, {"type": "node", "id": 3678187517, "lat": 49.2870603, "lon": -123.1135629}, {"type": "node", "id": 3678187518, "lat": 49.2871378, "lon": -123.113531}, {"type": "node", "id": 3678187519, "lat": 49.2872198, "lon": -123.1135156}, {"type": "node", "id": 3678187520, "lat": 49.2872974, "lon": -123.1135214}, {"type": "node", "id": 3678187521, "lat": 49.2873661, "lon": -123.1135455}, {"type": "node", "id": 3679470789, "lat": 49.2809212, "lon": -123.1329412}, {"type": "node", "id": 3679470790, "lat": 49.2809044, "lon": -123.1329143}, {"type": "node", "id": 3679470791, "lat": 49.2808999, "lon": -123.1329723}, {"type": "node", "id": 3679470792, "lat": 49.2808832, "lon": -123.132946}, {"type": "node", "id": 3679470808, "lat": 49.28115, "lon": -123.1325847}, {"type": "node", "id": 3679470811, "lat": 49.2811349, "lon": -123.1325615}, {"type": "node", "id": 3679470812, "lat": 49.2810287, "lon": -123.1329264}, {"type": "node", "id": 3679470815, "lat": 49.2811741, "lon": -123.1327128}, {"type": "node", "id": 3679470822, "lat": 49.281047, "lon": -123.1325498}, {"type": "node", "id": 3679470823, "lat": 49.2810112, "lon": -123.132602}, {"type": "node", "id": 3679490326, "lat": 49.2809564, "lon": -123.1326821}, {"type": "node", "id": 3703503799, "lat": 49.2877656, "lon": -123.1292409, "tags": {"addr:city": "Vancouver", "addr:housenumber": "1361", "addr:postcode": "V6E 1C6", "addr:province": "BC", "addr:street": "Robson Street", "name": "Tropicana Suite Hotel", "phone": "+1-604-687-6631", "tourism": "hotel", "website": "https://www.tropicanavancouver.com/", "wheelchair": "yes"}}, {"type": "node", "id": 3707239292, "lat": 49.278899, "lon": -123.125222, "tags": {"addr:city": "Vancouver", "addr:housenumber": "1080", "addr:province": "BC", "addr:street": "Howe Street", "name": "Executive Hotels & Real Estate", "phone": "+1-604-642-5250", "tourism": "hotel", "website": "https://www.executivehotels.net/"}}, {"type": "node", "id": 3720061725, "lat": 49.2830366, "lon": -123.1156998, "tags": {"entrance": "yes"}}, {"type": "node", "id": 3733886692, "lat": 49.2917164, "lon": -123.1355903, "tags": {"addr:city": "Vancouver", "addr:housenumber": "1821", "addr:province": "BC", "addr:street": "Robson Street", "internet_access": "yes", "internet_access:fee": "yes", "name": "Times Square Suites Hotel", "phone": "+1-604-684-2223", "smoking": "isolated", "stars": "5", "tourism": "hotel", "website": "https://www.timessquaresuites.com/"}}, {"type": "node", "id": 3734934563, "lat": 49.2794963, "lon": -123.120444, "tags": {"addr:city": "Vancouver", "addr:housenumber": "900", "addr:province": "BC", "addr:street": "Seymour Street", "email": "info@modahotel.ca", "internet_access": "wlan", "internet_access:fee": "no", "name": "Moda Hotel", "phone": "+1-604-683-4251", "tourism": "hotel", "website": "http://www.modahotel.ca/", "wheelchair": "yes"}}, {"type": "node", "id": 3743637091, "lat": 49.2781552, "lon": -123.122394, "tags": {"addr:city": "Vancouver", "addr:housenumber": "1022", "addr:province": "BC", "addr:street": "Seymour Street", "name": "Level", "tourism": "hotel", "website": "https://stayinglevel.com/destinations/vancouver/seymour/"}}, {"type": "node", "id": 3763294348, "lat": 49.2824058, "lon": -123.1122841}, {"type": "node", "id": 3789313502, "lat": 49.2814894, "lon": -123.074332, "tags": {"addr:city": "Vancouver", "addr:housenumber": "1489", "addr:province": "BC", "addr:street": "East Hastings Street", "email": "info@hotelatthewaldorf.ca", "internet_access": "wlan", "name": "Hotel At The Waldorf", "phone": "+1-604-253-7141", "tourism": "hotel", "website": "https://www.hotelatthewaldorf.ca/", "wikidata": "Q7773258", "wikipedia": "en:Hotel at the Waldorf"}}, {"type": "node", "id": 3789914158, "lat": 49.2860607, "lon": -123.1161431}, {"type": "node", "id": 3897533448, "lat": 49.283245, "lon": -123.1094244, "tags": {"addr:city": "Vancouver", "addr:housenumber": "317", "addr:province": "BC", "addr:street": "Cambie Street", "name": "Danny's Inn", "tourism": "hotel"}}, {"type": "node", "id": 3929462297, "lat": 49.2886848, "lon": -123.1422395}, {"type": "node", "id": 3945299557, "lat": 49.2797517, "lon": -123.12574, "tags": {"addr:city": "Vancouver", "addr:housenumber": "1080", "addr:province": "BC", "addr:street": "Hornby Street", "name": "WorldMark Vancouver - The Canadian", "tourism": "hotel"}}, {"type": "node", "id": 3945332254, "lat": 49.2841587, "lon": -123.1128944}, {"type": "node", "id": 3945332255, "lat": 49.2843449, "lon": -123.1126097}, {"type": "node", "id": 3945333257, "lat": 49.2841107, "lon": -123.1129668}, {"type": "node", "id": 3945400384, "lat": 49.2823271, "lon": -123.1224822}, {"type": "node", "id": 3949443670, "lat": 49.2767086, "lon": -123.1262623}, {"type": "node", "id": 3957674340, "lat": 49.2777517, "lon": -123.1244568}, {"type": "node", "id": 4001334821, "lat": 49.2046067, "lon": -123.1309444}, {"type": "node", "id": 4001334822, "lat": 49.2046077, "lon": -123.1310284}, {"type": "node", "id": 4001334823, "lat": 49.2046274, "lon": -123.1309134}, {"type": "node", "id": 4001334824, "lat": 49.2046278, "lon": -123.1309444}, {"type": "node", "id": 4001334825, "lat": 49.204642, "lon": -123.1308174}, {"type": "node", "id": 4001334826, "lat": 49.2046431, "lon": -123.1309124}, {"type": "node", "id": 4001334827, "lat": 49.2046445, "lon": -123.1310274}, {"type": "node", "id": 4001334832, "lat": 49.2047487, "lon": -123.1306304}, {"type": "node", "id": 4001334833, "lat": 49.2047509, "lon": -123.1308144}, {"type": "node", "id": 4001334834, "lat": 49.2047534, "lon": -123.1310244}, {"type": "node", "id": 4001334835, "lat": 49.2048663, "lon": -123.1306124}, {"type": "node", "id": 4001334836, "lat": 49.2048664, "lon": -123.1306274}, {"type": "node", "id": 4001334837, "lat": 49.2049291, "lon": -123.1310204}, {"type": "node", "id": 4001334838, "lat": 49.2049324, "lon": -123.1305914}, {"type": "node", "id": 4001334839, "lat": 49.2049327, "lon": -123.1306104}, {"type": "node", "id": 4001334840, "lat": 49.2049483, "lon": -123.1305594}, {"type": "node", "id": 4001334841, "lat": 49.2049486, "lon": -123.1305904}, {"type": "node", "id": 4001334842, "lat": 49.2049537, "lon": -123.1310194}, {"type": "node", "id": 4001334845, "lat": 49.2050129, "lon": -123.1305574}, {"type": "node", "id": 4001334846, "lat": 49.2050184, "lon": -123.1310174}, {"type": "node", "id": 4281289326, "lat": 49.2851852, "lon": -123.120638, "tags": {"addr:city": "Vancouver", "addr:housenumber": "655", "addr:postcode": "V6C 2R7", "addr:province": "BC", "addr:street": "Burrard Street", "brand": "Hyatt Regency", "brand:wikidata": "Q115794868", "brand:wikipedia": "en:Hyatt", "check_date": "2024-01-27", "check_date:internet_access": "2023-10-21", "height": "110", "internet_access": "wlan", "internet_access:fee": "no", "name": "Hyatt Regency Vancouver", "operator": "Hyatt", "phone": "+1-604-683-1234", "tourism": "hotel", "website": "https://vancouver.regency.hyatt.com/", "wikidata": "Q14874629"}}, {"type": "node", "id": 4842653286, "lat": 49.2762529, "lon": -123.1303282}, {"type": "node", "id": 4842653287, "lat": 49.2762398, "lon": -123.1303711}, {"type": "node", "id": 4842653288, "lat": 49.2762193, "lon": -123.1303959}, {"type": "node", "id": 4842653289, "lat": 49.276193, "lon": -123.1304127}, {"type": "node", "id": 4842653294, "lat": 49.2761193, "lon": -123.1299832}, {"type": "node", "id": 4842653295, "lat": 49.2761412, "lon": -123.130014}, {"type": "node", "id": 4842653296, "lat": 49.2762565, "lon": -123.1301879}, {"type": "node", "id": 4842653297, "lat": 49.2762697, "lon": -123.1301641}, {"type": "node", "id": 4842653298, "lat": 49.2763003, "lon": -123.1301174}, {"type": "node", "id": 5090968771, "lat": 49.2837268, "lon": -123.10482, "tags": {"addr:city": "Vancouver", "addr:housenumber": "21", "addr:province": "BC", "addr:street": "Water Street", "name": "The Packing House", "tourism": "hotel"}}, {"type": "node", "id": 5304513656, "lat": 49.2753903, "lon": -123.112766, "tags": {"addr:city": "Vancouver", "addr:housenumber": "39", "addr:province": "BC", "addr:street": "Smithe Street", "brand": "JW Marriott", "brand:wikidata": "Q1067636", "internet_access": "wlan", "internet_access:fee": "no", "name": "JW Marriott parq Vancouver", "phone": "+1-604-676-0888", "tourism": "hotel", "website": "https://www.marriott.com/hotels/travel/yvrjw-jw-marriott-parq-vancouver/"}}, {"type": "node", "id": 5304513657, "lat": 49.2757138, "lon": -123.1139417, "tags": {"addr:city": "Vancouver", "addr:housenumber": "45", "addr:province": "BC", "addr:street": "Smithe Street", "internet_access": "wlan", "internet_access:fee": "no", "name": "The Douglas, Autograph Collection", "phone": "+1-604-676-0889", "tourism": "hotel", "website": "https://www.marriott.com/hotels/travel/yvrps-the-douglas-autograph-collection/"}}, {"type": "node", "id": 5700722229, "lat": 49.2761867, "lon": -123.1299414}, {"type": "node", "id": 5837059818, "lat": 49.2875093, "lon": -123.1233646}, {"type": "node", "id": 5837059819, "lat": 49.2876546, "lon": -123.122965}, {"type": "node", "id": 5837059821, "lat": 49.287714, "lon": -123.1230582}, {"type": "node", "id": 5837059824, "lat": 49.28745, "lon": -123.1232714}, {"type": "node", "id": 6409958860, "lat": 49.2800767, "lon": -123.116901}, {"type": "node", "id": 6410173968, "lat": 49.2881585, "lon": -123.1221491}, {"type": "node", "id": 6410174715, "lat": 49.2882201, "lon": -123.1223631}, {"type": "node", "id": 6410202813, "lat": 49.2779303, "lon": -123.1282692}, {"type": "node", "id": 6410202851, "lat": 49.278028, "lon": -123.1284182}, {"type": "node", "id": 6471727597, "lat": 49.2692598, "lon": -123.1312025}, {"type": "node", "id": 6471727598, "lat": 49.2692716, "lon": -123.1312032}, {"type": "node", "id": 6471727599, "lat": 49.2693213, "lon": -123.1306761}, {"type": "node", "id": 6471727600, "lat": 49.269292, "lon": -123.1306484}, {"type": "node", "id": 6471727601, "lat": 49.2692596, "lon": -123.1306723}, {"type": "node", "id": 6471727602, "lat": 49.2695997, "lon": -123.1309211}, {"type": "node", "id": 6471727603, "lat": 49.2696611, "lon": -123.1308233}, {"type": "node", "id": 6471727604, "lat": 49.2695897, "lon": -123.1309084}, {"type": "node", "id": 6471727605, "lat": 49.2697117, "lon": -123.1308222}, {"type": "node", "id": 6471727606, "lat": 49.2697226, "lon": -123.1308022}, {"type": "node", "id": 6471727607, "lat": 49.2697861, "lon": -123.1308834}, {"type": "node", "id": 6471727608, "lat": 49.2697758, "lon": -123.1309022}, {"type": "node", "id": 6471727609, "lat": 49.2697551, "lon": -123.1310202}, {"type": "node", "id": 6471727610, "lat": 49.2697638, "lon": -123.1310315}, {"type": "node", "id": 6471727611, "lat": 49.2696603, "lon": -123.1312215}, {"type": "node", "id": 6471727612, "lat": 49.2696484, "lon": -123.1312062}, {"type": "node", "id": 6525271311, "lat": 49.2798464, "lon": -123.1172504}, {"type": "node", "id": 6525271312, "lat": 49.279653, "lon": -123.116951}, {"type": "node", "id": 6525271313, "lat": 49.2798834, "lon": -123.1166016}, {"type": "node", "id": 6639163095, "lat": 49.2859516, "lon": -123.1159663}, {"type": "node", "id": 6854671693, "lat": 49.2799221, "lon": -123.1270359}, {"type": "node", "id": 7132464452, "lat": 49.2865686, "lon": -123.115258, "tags": {"addr:city": "Vancouver", "addr:housenumber": "837", "addr:province": "BC", "addr:street": "West Hastings Street", "internet_access": "wlan", "internet_access:fee": "no", "name": "Auberge Hotel Vancouver", "phone": "+1-604-678-8899", "tourism": "hotel", "website": "https://www.aubergevancouver.com/"}}, {"type": "node", "id": 7132474094, "lat": 49.286925, "lon": -123.1240507, "tags": {"addr:city": "Vancouver", "addr:housenumber": "1161", "addr:postcode": "V6E 0C6", "addr:province": "BC", "addr:street": "West Georgia Street", "brand": "Paradox Hotel Vancouver", "email": "hello@paradoxhotels.com", "internet_access": "yes", "name": "Paradox Main Entrance", "phone": "+1-236-900-6001", "rooms": "147", "tourism": "hotel", "website": "https://www.paradoxhotels.com/vancouver"}}, {"type": "node", "id": 7132483329, "lat": 49.2856155, "lon": -123.115708, "tags": {"addr:city": "Vancouver", "addr:housenumber": "475", "addr:province": "BC", "addr:street": "Howe Street", "internet_access": "wlan", "internet_access:fee": "no", "name": "Exchange Hotel Vancouver", "phone": "+1-604-563-4693", "tourism": "hotel", "website": "https://www.exchangehotelvan.com/", "wikidata": "Q111392007"}}, {"type": "node", "id": 7140612025, "lat": 49.2805081, "lon": -123.125404, "tags": {"addr:city": "Vancouver", "addr:housenumber": "1001", "addr:province": "BC", "addr:street": "Hornby Street", "addr:unit": "2951", "air_conditioning": "yes", "internet_access": "wlan", "name": "Embarc Vancouver", "phone": "+1-604-893-7444", "tourism": "hotel", "website": "https://www.diamondresorts.com/destinations/property/Embarc-Vancouver", "wheelchair": "yes"}}, {"type": "node", "id": 7140625973, "lat": 49.2884061, "lon": -123.130403, "tags": {"addr:city": "Vancouver", "addr:housenumber": "1431", "addr:province": "BC", "addr:street": "Robson Street", "internet_access": "wlan", "internet_access:fee": "no", "name": "Divya Sutra Suites on Robson Downtown Vancouver", "phone": "+1-604-685-1301", "tourism": "hotel", "wheelchair": "yes"}}, {"type": "node", "id": 7140634033, "lat": 49.2761123, "lon": -123.1283603, "tags": {"addr:city": "Vancouver", "addr:housenumber": "718", "addr:province": "BC", "addr:street": "Drake Street", "email": "info@gecgranvillesuites.ca", "internet_access": "wlan", "internet_access:fee": "no", "name": "GEC Granville Suites", "phone": "+1-604-669-9888", "tourism": "hotel", "website": "https://www.gecgranvillesuites.ca/"}}, {"type": "node", "id": 7141210836, "lat": 49.2809751, "lon": -123.106143, "tags": {"addr:city": "Vancouver", "addr:housenumber": "31", "addr:province": "BC", "addr:street": "West Pender Street", "alt_name": "Skwachays Lodge", "email": "info@skwachays.com", "internet_access": "wlan", "internet_access:fee": "no", "name": "Skwach\u00e0ys Lodge", "phone": "+1-604-687-3589", "tourism": "hotel", "website": "https://skwachays.com/"}}, {"type": "node", "id": 7141251865, "lat": 49.2635214, "lon": -123.120439, "tags": {"addr:housenumber": "711", "addr:street": "West Broadway", "brand": "Holiday Inn", "brand:wikidata": "Q2717882", "brand:wikipedia": "en:Holiday Inn", "email": "info@hivancouver.com", "internet_access": "wlan", "internet_access:fee": "no", "name": "Holiday Inn Vancouver-Centre (Broadway)", "phone": "+1-604-879-0511", "tourism": "hotel", "website": "https://www.ihg.com/holidayinn/hotels/us/en/vancouver/yvrbw/hoteldetail"}}, {"type": "node", "id": 7141325848, "lat": 49.2814701, "lon": -123.0951511, "tags": {"addr:housenumber": "403", "addr:street": "East Hastings Street", "check_date": "2024-06-02", "email": "info@patriciahotel.ca", "internet_access": "wlan", "internet_access:fee": "no", "name": "Patricia Hotel", "phone": "+1-604-255-4301", "tourism": "hotel", "website": "https://www.patriciahotel.ca/"}}, {"type": "node", "id": 7141465280, "lat": 49.2921694, "lon": -123.141371, "tags": {"addr:city": "Vancouver", "addr:housenumber": "2030", "addr:province": "BC", "addr:street": "Barclay Street", "email": "info@rosellensuites.com", "internet_access": "wlan", "internet_access:fee": "no", "name": "Rosellen Suites at Stanley Park", "phone": "+1-604-689-4807", "tourism": "hotel", "website": "https://www.rosellensuites.com/", "wheelchair": "no"}}, {"type": "node", "id": 8861596414, "lat": 49.2361975, "lon": -123.0397568}, {"type": "node", "id": 8861596415, "lat": 49.2362089, "lon": -123.0397825}, {"type": "node", "id": 9127936007, "lat": 49.2840573, "lon": -123.1126793}, {"type": "node", "id": 9127936008, "lat": 49.2840211, "lon": -123.1126193}, {"type": "node", "id": 9127936009, "lat": 49.2839754, "lon": -123.1126873}, {"type": "node", "id": 9127936010, "lat": 49.2839498, "lon": -123.1127253}, {"type": "node", "id": 9127936011, "lat": 49.2841468, "lon": -123.1125489}, {"type": "node", "id": 9127936012, "lat": 49.2841069, "lon": -123.1124888}, {"type": "node", "id": 9127936013, "lat": 49.2841863, "lon": -123.1123692}, {"type": "node", "id": 9361073363, "lat": 49.2801538, "lon": -123.1324894}, {"type": "node", "id": 10050111210, "lat": 49.2825547, "lon": -123.1228413}, {"type": "node", "id": 10050111211, "lat": 49.282372, "lon": -123.1225531}, {"type": "node", "id": 10050111212, "lat": 49.2822206, "lon": -123.1227806}, {"type": "node", "id": 10050111213, "lat": 49.2823566, "lon": -123.1229943}, {"type": "node", "id": 10050111214, "lat": 49.2825078, "lon": -123.1227673}, {"type": "node", "id": 10050111215, "lat": 49.2823215, "lon": -123.1229406}, {"type": "node", "id": 10050120518, "lat": 49.2822032, "lon": -123.122753}, {"type": "node", "id": 10052618250, "lat": 49.2809285, "lon": -123.1174877}, {"type": "node", "id": 10052618251, "lat": 49.2809782, "lon": -123.1174125}, {"type": "node", "id": 10052618252, "lat": 49.2807167, "lon": -123.1171537}, {"type": "node", "id": 10085059381, "lat": 49.2880264, "lon": -123.1205115}, {"type": "node", "id": 10085059382, "lat": 49.2881101, "lon": -123.1208471}, {"type": "node", "id": 10085059383, "lat": 49.2879855, "lon": -123.1209406}, {"type": "node", "id": 10085059384, "lat": 49.2879501, "lon": -123.1207665}, {"type": "node", "id": 10085059385, "lat": 49.2879606, "lon": -123.1208572}, {"type": "node", "id": 10085059386, "lat": 49.287961, "lon": -123.120683}, {"type": "node", "id": 10085059387, "lat": 49.2876638, "lon": -123.1204836}, {"type": "node", "id": 10085059388, "lat": 49.2876723, "lon": -123.1204213}, {"type": "node", "id": 10085059389, "lat": 49.2876941, "lon": -123.1203918}, {"type": "node", "id": 10085059390, "lat": 49.2877028, "lon": -123.1205586}, {"type": "node", "id": 10085059391, "lat": 49.2877246, "lon": -123.1206212}, {"type": "node", "id": 10085649297, "lat": 49.285347, "lon": -123.1185999}, {"type": "node", "id": 10085649298, "lat": 49.2854928, "lon": -123.1183801}, {"type": "node", "id": 10085649299, "lat": 49.2852687, "lon": -123.1180308}, {"type": "node", "id": 10085649301, "lat": 49.2851992, "lon": -123.1183687}, {"type": "node", "id": 10090138571, "lat": 49.2887365, "lon": -123.1210325}, {"type": "node", "id": 10090138576, "lat": 49.2885086, "lon": -123.1202703}, {"type": "node", "id": 10090138577, "lat": 49.2883447, "lon": -123.1203857}, {"type": "node", "id": 10090138580, "lat": 49.2883386, "lon": -123.120391}, {"type": "node", "id": 10090138581, "lat": 49.2883083, "lon": -123.1204121}, {"type": "node", "id": 10138211205, "lat": 49.2876042, "lon": -123.1407886}, {"type": "node", "id": 10155383861, "lat": 49.2878104, "lon": -123.1407995, "tags": {"entrance": "main"}}, {"type": "node", "id": 11112623492, "lat": 49.2853935, "lon": -123.1182249}, {"type": "node", "id": 11342321739, "lat": 49.2884423, "lon": -123.138761, "tags": {"addr:city": "Vancouver", "addr:housenumber": "1771", "addr:province": "BC", "addr:street": "Comox Street", "air_conditioning": "yes", "brand": "Sonder", "brand:wikidata": "Q96419376", "internet_access": "wlan", "internet_access:fee": "no", "name": "Sonder at Revival", "phone": "+1-438-795-6650", "tourism": "hotel", "website": "https://www.sonder.com/en-ca/destinations/vancouver/VAN-COMO1771-329/c31094?sleeps=1"}}, {"type": "node", "id": 11383004743, "lat": 49.2047077, "lon": -123.1308156}, {"type": "node", "id": 11383004744, "lat": 49.2047121, "lon": -123.1310255}, {"type": "node", "id": 12104693488, "lat": 49.2830039, "lon": -123.1041, "tags": {"addr:city": "Vancouver", "addr:housenumber": "204", "addr:province": "BC", "addr:street": "Carrall Street", "name": "Glory Hotel", "tourism": "hotel"}}, {"type": "node", "id": 12624178265, "lat": 49.2810061, "lon": -123.1259751}, {"type": "node", "id": 12624178266, "lat": 49.2805145, "lon": -123.1252076}, {"type": "node", "id": 12624178267, "lat": 49.2796166, "lon": -123.1265585}, {"type": "node", "id": 12677088624, "lat": 49.2842012, "lon": -123.1128295}, {"type": "way", "id": 49381360, "nodes": [627183101, 4842653294, 4842653295, 5700722229, 4842653298, 627183105, 4842653297, 4842653296, 627183107, 4842653286, 4842653287, 4842653288, 4842653289, 627183111, 627183113, 627183101], "tags": {"addr:city": "Vancouver", "addr:housenumber": "1379", "addr:postcode": "V6Z 2R5", "addr:province": "BC", "addr:street": "Howe Street", "building": "yes", "internet_access": "wlan", "internet_access:fee": "no", "name": "The Parker Hotel Vancouver", "phone": "+1-604-688-7678", "roof:colour": "#7a7879", "tourism": "hotel", "website": "https://www.executivehotels.net/vancouver-downtown-boutique-hotel/"}}, {"type": "way", "id": 91998136, "nodes": [1068758270, 1068758339, 1068758524, 1068758586, 1068758292, 3654792904, 1068758682, 3654792903, 1068758396, 3654792899, 3654792900, 3654792906, 3654792908, 3654792923, 3654792901, 1068758556, 1068758784, 1068758456, 3654792907, 3654792909, 1068758606, 1068758314, 1068758270], "tags": {"addr:city": "Vancouver", "addr:housenumber": "1228", "addr:province": "BC", "addr:street": "West Georgia Street", "building": "yes", "building:levels": "62", "email": "slv@shangri-la.com", "height": "201", "internet_access": "wlan", "internet_access:fee": "no", "name": "Shangri-La Vancouver", "operator": "Shangri-La", "phone": "+1-604-689-1120", "tourism": "hotel", "website": "https://www.shangri-la.com/vancouver/shangrila/", "wikidata": "Q111231428"}}, {"type": "way", "id": 104912350, "nodes": [1209780015, 3957674340, 1209780020, 1209780010, 1209780023, 1209780019, 1209780016, 1209780013, 1209780009, 1209780017, 1209780015], "tags": {"addr:city": "Vancouver", "addr:housenumber": "1100", "addr:province": "BC", "addr:street": "Granville Street", "brand": "Best Western Premier", "brand:wikidata": "Q830334", "building": "hotel", "building:levels": "2", "internet_access": "wlan", "internet_access:fee": "no", "name": "Best Western Premier Chateau Granville Hotel & Suites & Conference Centre", "operator": "Best Western", "phone": "+1-604-669-7070", "roof:colour": "#a9a29b", "roof:levels": "0", "tourism": "hotel", "website": "https://www.bestwestern.com/en_US/book/hotels-in-vancouver/best-western-premier-chateau-granville-hotel-suites-conf-centre/propertyCode.62046.html", "wheelchair": "yes"}}, {"type": "way", "id": 119943680, "nodes": [1331318652, 1331318673, 1331318684, 1331318681, 6471727612, 6471727611, 6471727610, 6471727609, 1331318683, 6471727608, 6471727607, 6471727606, 6471727605, 1331318682, 6471727603, 1331318675, 6471727604, 6471727602, 1331318687, 1346046165, 1346046182, 6471727599, 6471727600, 6471727601, 1346046176, 1346046164, 1346046180, 1346046187, 3224055961, 1346046186, 6471727598, 6471727597, 1346046174, 1346046178, 1346046185, 3224055962, 1331318652], "tags": {"addr:city": "Vancouver", "addr:housenumber": "1253", "addr:postcode": "V6H 3R9", "addr:province": "BC", "addr:street": "Johnston Street", "building": "hotel", "building:levels": "3", "name": "Granville Island Hotel", "phone": "+1-604-683-7373", "start_date": "1983", "tourism": "hotel", "website": "https://www.granvilleislandhotel.com/", "wikidata": "Q16910475"}}, {"type": "way", "id": 128059890, "nodes": [1416010068, 1416010054, 2485922713, 2485922715, 1416010040, 2485922714, 2485922708, 2485922712, 2485922716, 1416010042, 2485922709, 2485922711, 9361073363, 2485922710, 1416010068], "tags": {"addr:city": "Vancouver", "addr:housenumber": "1111", "addr:postcode": "V6E 1P4", "addr:province": "BC", "addr:street": "Burnaby Street", "building": "yes", "internet_access": "wlan", "internet_access:fee": "no", "name": "Sunset Inn & Suites", "phone": "+1-604-688-2474", "roof:colour": "#a9a8a4", "tourism": "hotel", "website": "https://www.sunsetinn.com/"}}, {"type": "way", "id": 138641345, "nodes": [1520230816, 1520230785, 1520230773, 1520230762, 1520230755, 1520230752, 1520230746, 1520230764, 3720061725, 1520230816], "tags": {"addr:city": "Vancouver", "addr:housenumber": "602", "addr:province": "BC", "addr:street": "Dunsmuir Street", "alt_name": "Saint Regis", "brand": "St. Regis", "brand:wikidata": "Q30715430", "brand:wikipedia": "en:St. Regis Hotels & Resorts", "building": "yes", "building:levels": "6", "internet_access": "yes", "internet_access:fee": "no", "name": "St. Regis Hotel", "phone": "+1-604-681-1135", "roof:colour": "#8a7770", "tourism": "hotel", "website": "https://www.stregishotel.com/"}}, {"type": "way", "id": 138867328, "nodes": [1522522330, 3645269520, 1522522328, 3653296828, 3653295724, 1522522353, 1522522330], "tags": {"addr:housenumber": "801", "addr:street": "West Georgia Street", "brand": "Rosewood", "brand:wikidata": "Q7368777", "building": "yes", "internet_access": "wlan", "internet_access:fee": "no", "name": "Rosewood Hotel Georgia", "official_name": "Rosewood Hotels & Resorts", "phone": "+1-604-682-5566", "toilets:wheelchair": "yes", "tourism": "hotel", "website": "https://www.rosewoodhotels.com/en/hotel-georgia-vancouver", "wheelchair": "yes", "wikidata": "Q111231429"}}, {"type": "way", "id": 139571554, "nodes": [1529901607, 3661033011, 3661033016, 3661033013, 3661033010, 1529901596, 1529901593, 1529901591, 1529901592, 1529901589, 1529901583, 1529901584, 1529901578, 1529901574, 1529901579, 1529901577, 3661033002, 3661033008, 3661033005, 3661033003, 1529901590, 3649800330, 3649800333, 1529901607], "tags": {"addr:city": "Vancouver", "addr:housenumber": "900", "addr:province": "BC", "addr:street": "West Georgia Street", "brand": "Fairmont", "brand:wikidata": "Q1393345", "brand:wikipedia": "en:Fairmont Hotels and Resorts", "building": "yes", "check_date": "2024-09-18", "email": "hvc.concierge@fairmont.com", "height": "15", "internet_access": "wlan", "material": "stone", "name": "Fairmont Hotel Vancouver", "operator": "The Fairmont", "phone": "+1-604-684-3131", "roof:colour": "#99968d", "tourism": "hotel", "website": "https://www.fairmont.com/hotel-vancouver/", "wheelchair": "yes", "wikidata": "Q930702", "wikipedia": "en:Hotel Vancouver"}}, {"type": "way", "id": 143682581, "nodes": [1572442572, 1572442578, 1572442571, 1572442569, 1572442572], "tags": {"addr:city": "Vancouver", "addr:housenumber": "645", "addr:street": "Howe Street", "building": "yes", "building:levels": "17", "internet_access": "yes", "internet_access:fee": "no", "name": "Metropolitan Hotel Vancouver", "phone": "+1-604-687-1122", "source": "Bing", "tourism": "hotel", "website": "https://www.marriott.com/hotels/travel/yvrbr-metropolitan-hotel-vancouver/", "wikidata": "Q14874690", "wikipedia": "en:Metropolitan Vancouver Hotel"}}, {"type": "way", "id": 181355203, "nodes": [1917811149, 1917811151, 10090138581, 10090138580, 10090138577, 10090138576, 1917811152, 3659655079, 1917811146, 10090138571, 3659655089, 3659655090, 1917811149], "tags": {"addr:city": "Vancouver", "addr:housenumber": "1133", "addr:postcode": "V6E 3T3", "addr:province": "BC", "addr:street": "West Hastings Street", "alt_name": "p2b Bistro & Bar", "building": "yes", "building:levels": "18", "internet_access": "wlan", "internet_access:fee": "no", "name": "Pinnacle Hotel Harbourfront", "phone": "+1-604-689-9211", "roof:colour": "#a29283", "tourism": "hotel", "website": "https://www.pinnacleharbourfronthotel.com/", "wheelchair": "yes"}}, {"type": "way", "id": 223089077, "nodes": [2320271361, 2320271362, 2320271341, 2320271335, 2320271339, 10085059391, 10085059390, 2320271345, 10085059387, 10085059388, 10085059389, 2320271338, 2320271333, 2320271343, 2320271313, 2320271337, 2320271331, 2320271351, 2320271340, 10085059381, 2320271323, 2320271324, 10085059386, 10085059384, 10085059385, 10085059383, 10085059382, 2320271307, 2320271361], "tags": {"addr:city": "Vancouver", "addr:housenumber": "1128", "addr:province": "BC", "addr:street": "West Hastings Street", "brand": "Marriott", "brand:wikidata": "Q3918608", "brand:wikipedia": "en:Marriott International", "building": "yes", "building:levels": "4", "internet_access": "wlan", "internet_access:fee": "no", "name": "Marriott Pinnacle Downtown", "phone": "+1-604-684-1128", "roof:colour": "#7b746e", "roof:shape": "flat", "source": "bing;survey", "tourism": "hotel", "website": "https://www.marriott.com/hotels/travel/yvrdt-vancouver-marriott-pinnacle-downtown-hotel/", "wheelchair": "yes", "wikidata": "Q14874782"}}, {"type": "way", "id": 223089121, "nodes": [2320271481, 6410173968, 6410174715, 2320271484, 2320271480, 2320271476, 2320271481], "tags": {"addr:city": "Vancouver", "addr:housenumber": "1180", "addr:postcode": "V6E 4R5", "addr:street": "West Hastings Street", "building": "yes", "name": "Coast Coal Harbour Hotel by APA", "phone": "+1-604-697-0202", "roof:colour": "#99968f", "toilets:wheelchair": "yes", "tourism": "hotel", "website": "https://www.coasthotels.com/hotels/bc/vancouver/coast-coal-harbour-hotel/", "wheelchair": "yes", "wheelchair:description": "Fully wheelchair accessible hotel room, toilet and shower."}}, {"type": "way", "id": 238793197, "nodes": [2465886222, 2465886203, 2465886183, 2465886207, 2465886222]}, {"type": "way", "id": 238793198, "nodes": [2465886212, 2465886254, 2465886201, 2465886157, 2465886212]}, {"type": "way", "id": 240895668, "nodes": [2485918692, 3679470812, 3679470815, 2485918694, 3679470808, 3679470811, 2485918687, 3679470822, 3679470823, 3679490326, 2485918688, 3679470790, 3679470792, 3679470791, 3679470789, 2485918692], "tags": {"addr:city": "Vancouver", "addr:housenumber": "1160", "addr:postcode": "V6E 1N1", "addr:province": "BC", "addr:street": "Davie Street", "building": "yes", "building:levels": "24", "name": "Sandman Suites Vancouver on Davie", "phone": "+1-604-681-7263", "source": "local_knowledge", "toilets:wheelchair": "yes", "tourism": "hotel", "website": "http://www.sandmanhotels.ca/hotels/vancouver-davie-street/", "wheelchair": "yes"}}, {"type": "way", "id": 299585390, "nodes": [3035924549, 3035924551, 3035924552, 3035924550, 3035924549], "tags": {"addr:city": "Vancouver", "addr:housenumber": "303", "addr:province": "BC", "addr:street": "Columbia Street", "building": "yes", "name": "Columbia Hotel", "start_date": "1900", "tourism": "hotel"}}, {"type": "way", "id": 301874786, "nodes": [2490635280, 3060414883, 10052618250, 10052618251, 3060414884, 10052618252, 3060414885, 2490635280], "tags": {"addr:city": "Vancouver", "addr:housenumber": "757", "addr:province": "BC", "addr:street": "Richards Street", "building": "yes", "email": "reservations@kingstonhotelvancouver.com", "internet_access": "wlan", "internet_access:fee": "no", "name": "Kingston Hotel", "phone": "+1-604-684-9024", "roof:colour": "#716c69", "tourism": "hotel", "website": "https://www.kingstonhotelvancouver.com/"}}, {"type": "way", "id": 305206587, "nodes": [3098027125, 3098028631, 3098028632, 3098028633, 3098027126, 3098027125], "tags": {"addr:city": "Vancouver", "addr:housenumber": "1221", "addr:province": "BC", "addr:street": "Granville Street", "air_conditioning": "yes", "brand": "Quality Inn & Suites", "brand:wikidata": "Q113152195", "building": "hotel", "email": "info@qualityvancouver.com", "internet_access": "wlan", "internet_access:fee": "no", "name": "Quality Inn & Suites Downtown Vancouver", "phone": "+1-778-907-2918", "roof:colour": "#a3a09b", "tourism": "hotel", "website": "https://www.qualityinndowntownvancouver.com/"}}, {"type": "way", "id": 305206773, "nodes": [3098034843, 3098034851, 3098034850, 3098034848, 3098034849, 3098034845, 3098034846, 3098034855, 3098034854, 3949443670, 3098034853, 3098034852, 3098034847, 3098034843], "tags": {"addr:city": "Vancouver", "addr:housenumber": "1212", "addr:province": "BC", "addr:street": "Granville Street", "building": "hotel", "building:levels": "3", "email": "frontdesk@hotelambassador.ca", "internet_access": "wlan", "internet_access:fee": "no", "name": "Ambassador Hotel", "phone": "+1-604-687-8294", "roof:colour": "#808082", "tourism": "hotel", "website": "http://hotelambassador.ca/"}}, {"type": "way", "id": 305364815, "nodes": [3099851101, 3099851104, 6410202851, 6410202813, 3099851109, 3099851105, 3099851106, 3099851102, 3099851101], "tags": {"addr:city": "Vancouver", "addr:housenumber": "1234", "addr:postcode": "V6Z 1W2", "addr:province": "BC", "addr:street": "Hornby Street", "air_conditioning": "yes", "brand": "Residence Inn", "brand:wikidata": "Q7315394", "brand:wikipedia": "en:Residence Inn by Marriott", "building": "yes", "name": "Residence Inn Vancouver Downtown", "official_name": "Residence Inn by Marriott", "operator": "Marriott International, Inc.", "phone": "+1-604-688-1234", "roof:colour": "#807d73", "tourism": "hotel", "website": "https://www.marriott.com/hotels/travel/yvrdr-residence-inn-vancouver-downtown/", "wheelchair": "yes"}}, {"type": "way", "id": 305364816, "nodes": [3099851107, 3099851108, 3099851109, 6410202813, 6410202851, 3099851104, 3099851107], "tags": {"addr:city": "Vancouver", "addr:housenumber": "1200", "addr:postcode": "V6Z 1W2", "addr:province": "BC", "addr:street": "Hornby Street", "building": "apartments", "building:levels": "15", "name": "The Landis Hotel & Suites", "phone": "+1-604-681-3555", "roof:colour": "#958e88", "tourism": "hotel", "website": "https://www.landissuitesvancouver.com/"}}, {"type": "way", "id": 305365217, "nodes": [3945400384, 3099854534, 10050120518, 10050111212, 10050111215, 10050111213, 3099854535, 10050111210, 3099854536, 10050111214, 10050111211, 2078134663, 3945400384], "tags": {"addr:city": "Vancouver", "addr:housenumber": "845", "addr:province": "BC", "addr:street": "Hornby Street", "building": "yes", "building:levels": "1", "email": "info@wedgewoodhotel.com", "internet_access": "wlan", "internet_access:fee": "no", "name": "Wedgewood Hotel & Spa", "phone": "+1-604-689-7777", "roof:colour": "#b9b3a7", "tourism": "hotel", "website": "https://www.wedgewoodhotel.com/", "wikidata": "Q111231438"}}, {"type": "way", "id": 310614125, "nodes": [3160542109, 3160542110, 3160542111, 3160542112, 3160542113, 3160542114, 3160542115, 3160542116, 3160542117, 3160542118, 3160542119, 3160542120, 3160542109], "tags": {"addr:city": "Vancouver", "addr:housenumber": "1348", "addr:province": "BC", "addr:street": "Robson Street", "building": "yes", "building:levels": "3", "check_date": "2024-09-18", "internet_access": "wlan", "internet_access:fee": "no", "name": "Barclay Hotel", "phone": "+1-604-688-8850", "roof:colour": "#76777c", "roof:shape": "flat", "tourism": "hotel", "wheelchair": "yes"}}, {"type": "way", "id": 311210094, "nodes": [3167930748, 3167930749, 3167930750, 3167930751, 3167930752, 3167930753, 3167930754, 3167930755, 3167930756, 3167930757, 3167930748], "tags": {"addr:city": "Vancouver", "addr:housenumber": "1755", "addr:postcode": "V6G 1W5", "addr:province": "BC", "addr:street": "Davie Street", "brand": "Best Western Plus", "brand:wikidata": "Q38623383", "building": "yes", "building:levels": "6", "internet_access": "wlan", "internet_access:fee": "no", "name": "Best Western Plus Sands", "operator": "Best Western", "phone": "+1-604-682-1831", "roof:colour": "#8c8b87", "tourism": "hotel", "website": "https://www.bestwestern.com/en_US/book/vancouver/hotel-rooms/best-western-plus-sands/propertyCode.62025.html"}}, {"type": "way", "id": 311569754, "nodes": [3172554376, 3172554377, 3172554378, 3172554379, 3172554376], "tags": {"addr:city": "Vancouver", "addr:housenumber": "1393", "addr:province": "BC", "addr:street": "Robson Street", "building": "yes", "building:levels": "3", "check_date": "2024-09-18", "email": "info@greenbrierhotel.com", "internet_access": "wlan", "internet_access:fee": "no", "name": "Greenbrier Hotel", "phone": "+1-604-683-4558", "roof:colour": "#86837e", "tourism": "hotel", "website": "https://www.greenbrierhotel.com/", "wheelchair": "no"}}, {"type": "way", "id": 311624707, "nodes": [3173184833, 3173184834, 3173184835, 3173184836, 3173184837, 3173184838, 3173184839, 3173184840, 3173184841, 3173184842, 3173184843, 3173184845, 3173184846, 3173184844, 3173184833], "tags": {"addr:city": "Vancouver", "addr:housenumber": "1889", "addr:province": "BC", "addr:street": "Alberni Street", "building": "yes", "building:levels": "15", "name": "Lord Stanley Suites On The Park", "roof:colour": "#928f8a", "tourism": "hotel"}}, {"type": "way", "id": 312692187, "nodes": [3185713925, 3185713926, 10138211205, 3185713927, 3185713928, 10155383861, 3185713925], "tags": {"addr:city": "Vancouver", "addr:housenumber": "1150", "addr:postcode": "V6G 2N1", "addr:province": "BC", "addr:street": "Denman Street", "building": "yes", "building:levels": "5", "email": "info@englishbayhotel.com", "internet_access": "wlan", "internet_access:fee": "no", "name": "English Bay Hotel", "phone": "+1-604-685-2231", "roof:colour": "#95918e", "roof:shape": "flat", "tourism": "hotel", "website": "https://englishbayhotel.com/", "wheelchair": "yes"}}, {"type": "way", "id": 316424785, "nodes": [3225400861, 3225400862, 3225400863, 3225400864, 3225400865, 3225400866, 3225400867, 3225400868, 3225400861], "tags": {"addr:city": "Vancouver", "addr:housenumber": "1825", "addr:province": "BC", "addr:street": "Comox Street", "building": "yes", "building:levels": "3", "name": "Shato Inn", "roof:colour": "#B6B3AE", "tourism": "hotel"}}, {"type": "way", "id": 316424818, "nodes": [3225400960, 3225401075, 3929462297, 3225401074, 3225401061, 3225401062, 3225401063, 3225400960], "tags": {"addr:city": "Vancouver", "addr:housenumber": "1154", "addr:postcode": "V6G 2P6", "addr:province": "BC", "addr:street": "Gilford Street", "building": "yes", "haunted": "yes", "name": "Sylvia Hotel", "phone": "+1-604-681-9321", "roof:colour": "#838287", "tourism": "hotel", "website": "https://sylviahotel.com/", "wikidata": "Q7660934"}}, {"type": "way", "id": 317010758, "nodes": [3232167730, 1572449487, 3670796914, 3232167727, 3232167731, 3232167732, 1572442678, 1572442687, 3232167730], "tags": {"addr:city": "Vancouver", "addr:housenumber": "921", "addr:province": "BC", "addr:street": "West Pender Street", "branch": "Downtown", "brand": "Days Inn", "brand:wikidata": "Q1047239", "building": "yes", "email": "reservations@daysinnvancouver.com", "internet_access": "wlan", "internet_access:fee": "no", "name": "Days Inn", "official_name": "Days Inn by Wyndham", "phone": "+1-604-681-4335", "tourism": "hotel", "website": "https://www.daysinnvancouver.com/"}}, {"type": "way", "id": 324900227, "nodes": [3315764421, 3315764422, 3315764423, 3315764424, 3315764425, 3315764426, 3315764427, 3315764428, 3315764429, 3315764430, 3315764431, 3315764432, 3315764433, 3315764434, 3315764421], "tags": {"building": "hotel", "building:levels": "3", "tourism": "hotel"}}, {"type": "way", "id": 357996612, "nodes": [3630520027, 3630520005, 3630519995, 3630519999, 3630519997, 3630519990, 3630519993, 3630519992, 3630519996, 3630520008, 3630520010, 8861596415, 8861596414, 3630520027], "tags": {"addr:city": "Vancouver", "addr:housenumber": "3075", "addr:postcode": "V5R 5J8", "addr:street": "Kingsway", "building": "hotel", "building:colour": "beige", "building:levels": "3", "name": "Cassandra Hotel", "phone": "+1-604-430-3441", "tourism": "hotel", "website": "https://www.cassandrahotel.ca/"}}, {"type": "way", "id": 363651936, "nodes": [1572449594, 3678187511, 1572449598, 3678187505, 1572449600, 3678187506, 1572449602, 3678187507, 1572449603, 3678187508, 1572449601, 3678187509, 1572449599, 3678187510, 1572449597, 3678187512, 1572449593, 1572449595, 1572449590, 1572449592, 1572449587, 1572449589, 1572449578, 3659616140, 3678187515, 3659616139, 3678187516, 3659616138, 1572449557, 1572449547, 3678187514, 1572449553, 3678187513, 1572449568, 1572449565, 3678187517, 2776264964, 3678187518, 1572449573, 3678187519, 2776264968, 3678187520, 1572449586, 3678187521, 2776264975, 1572449596, 1572449594], "tags": {"addr:city": "Vancouver", "addr:province": "BC", "building": "yes", "landuse": "leisure", "tourism": "hotel"}}, {"type": "way", "id": 372781912, "nodes": [3060015859, 3763294348, 3060015870, 3060015869, 3060015868, 3060015862, 3060015859], "tags": {"addr:city": "Vancouver", "addr:housenumber": "514", "addr:province": "BC", "addr:street": "Homer Street", "building": "yes", "building:levels": "3", "internet_access": "wlan", "internet_access:fee": "no", "name": "Victorian Hotel", "phone": "+1-604-681-6369", "roof:colour": "#b4b2b3", "tourism": "hotel", "website": "https://victorianhotel.ca/"}}, {"type": "way", "id": 390908516, "nodes": [2328936627, 2328936639, 2328936624, 2328936625, 2328936627], "tags": {"addr:city": "Vancouver", "addr:housenumber": "74", "addr:province": "BC", "addr:street": "West Hastings Street", "building": "yes", "building:levels": "3", "name": "Grand Union Hotel", "roof:colour": "#7B7A7F", "tourism": "hotel"}}, {"type": "way", "id": 391330819, "nodes": [3945332255, 9127936013, 9127936012, 9127936011, 9127936007, 9127936008, 9127936009, 9127936010, 3945333257, 3945332254, 12677088624, 3945332255], "tags": {"addr:city": "Vancouver", "addr:housenumber": "550", "addr:province": "BC", "addr:street": "West Hastings Street", "brand": "Delta Hotels", "brand:wikidata": "Q5254663", "brand:wikipedia": "en:Delta Hotels", "building": "hotel", "building:levels": "22", "internet_access": "wlan", "internet_access:fee": "no", "name": "Delta Hotels Vancouver Downtown Suites", "operator": "Delta", "phone": "+1-604-689-8188", "roof:colour": "#807d78", "tourism": "hotel", "website": "https://www.marriott.com/hotels/travel/yvrdv-delta-hotels-vancouver-downtown-suites/"}}, {"type": "way", "id": 397338520, "nodes": [4001334823, 4001334824, 4001334821, 4001334822, 4001334827, 11383004744, 4001334834, 4001334837, 4001334842, 4001334846, 4001334845, 4001334840, 4001334841, 4001334838, 4001334839, 4001334835, 4001334836, 4001334832, 4001334833, 11383004743, 4001334825, 4001334826, 4001334823], "tags": {"addr:city": "Vancouver", "addr:housenumber": "1041", "addr:province": "BC", "addr:street": "Southwest Marine Drive", "brand": "Best Western Plus", "brand:wikidata": "Q830334", "building": "yes", "name": "Best Western Plus Vancouver Airport Hotel", "phone": "+1-604-263-1555", "tourism": "hotel"}}, {"type": "way", "id": 617484484, "nodes": [5837059819, 5837059824, 5837059818, 5837059821, 5837059819], "tags": {"addr:city": "Vancouver", "addr:housenumber": "1177", "addr:province": "BC", "addr:street": "Melville Street", "building": "yes", "email": "reservations@theloden.com", "internet_access": "wlan", "internet_access:fee": "no", "name": "Loden Hotel", "phone": "+1-877-225-6336", "roof:colour": "#948d85", "tourism": "hotel", "website": "https://theloden.com/", "wikidata": "Q111231425"}}, {"type": "way", "id": 694792930, "nodes": [6409958860, 6525271311, 6525271312, 6525271313, 6409958860], "tags": {"addr:city": "Vancouver", "addr:housenumber": "433", "addr:postcode": "V6B 6L9", "addr:province": "BC", "addr:street": "Robson Street", "brand": "Hilton", "brand:wikidata": "Q598884", "brand:wikipedia": "en:Hilton Hotels & Resorts", "building": "yes", "check_date:internet_access": "2023-10-27", "internet_access": "wlan", "internet_access:fee": "no", "material": "concrete;glass", "name": "Hilton Vancouver Downtown", "phone": "+1-604-602-1999", "roof:colour": "#b9b3a5", "rooms": "207", "tourism": "hotel", "website": "https://www.hilton.com/en/hotels/yvrwghh-hilton-vancouver-downtown/", "wheelchair": "yes"}}, {"type": "way", "id": 706528898, "nodes": [3789914158, 6639163095, 1572442654, 1572442656, 3789914158], "tags": {"addr:city": "Vancouver", "addr:housenumber": "833", "addr:province": "BC", "addr:street": "West Pender Street", "building": "yes", "name": "Azur Legacy Collection Hotel", "roof:shape": "#b6a18c", "tourism": "hotel"}}, {"type": "way", "id": 1102208404, "nodes": [10085649297, 10085649298, 11112623492, 10085649299, 1572442617, 10085649301, 10085649297], "tags": {"addr:city": "Vancouver", "addr:housenumber": "567", "addr:province": "BC", "addr:street": "Hornby Street", "building": "yes", "email": "reservations@hotellesoleil.com", "internet_access": "wlan", "name": "Le Soleil Hotel and Suites", "phone": "+1-604-632-3000", "roof:colour": "#a4a089", "tourism": "hotel", "website": "https://www.hotellesoleil.com/vancouver/home/", "wheelchair": "yes", "wikidata": "Q16896009"}}, {"type": "way", "id": 1363418927, "nodes": [905400402, 2465835887, 12624178265, 12624178266, 1068758697, 1068758341, 2465835891, 12624178267, 6854671693, 905400402], "tags": {"addr:city": "Vancouver", "addr:housenumber": "1088", "addr:postcode": "V6Z 2R9", "addr:province": "BC", "addr:street": "Burrard Street", "air_conditioning": "yes", "brand": "Sheraton", "brand:wikidata": "Q634831", "brand:wikipedia": "en:Sheraton Hotels and Resorts", "internet_access": "wlan", "name": "Sheraton Vancouver Wall Centre Hotel", "note": "Most of this site is dedicated to hotel use, including parts of each tower and underground.", "operator": "Sheraton", "phone": "+1-604-331-1000", "rooms": "733", "stars": "4", "toilets:wheelchair": "yes", "tourism": "hotel", "website": "https://www.marriott.com/en-us/hotels/yvrws-sheraton-vancouver-wall-centre/overview/", "website:map": "https://www.marriott.com/marriottassets/marriott/YVRWS/PDF/2019_Sheraton_Vancouver_Wall_Centre_Floor_Plans_-_Booklet-FINAL.pdf", "wheelchair": "yes"}}, {"type": "relation", "id": 3219248, "members": [{"type": "way", "ref": 238793198, "role": "outer"}, {"type": "way", "ref": 238793197, "role": "inner"}], "tags": {"addr:city": "Vancouver", "addr:housenumber": "1100", "addr:province": "BC", "addr:street": "Burrard Street", "building": "yes", "email": "info@TheBurrard.com", "height": "12", "internet_access": "wlan", "internet_access:fee": "no", "name": "The Burrard", "phone": "+1-604-681-2331", "roof:colour": "#747275", "tourism": "hotel", "type": "multipolygon", "website": "https://www.theburrard.com/"}}]}