{"version": 0.6, "generator": "Overpass API 0.7.62.5 1bd436f1", "osm3s": {"timestamp_osm_base": "2025-03-29T21:11:29Z", "copyright": "The data included in this document is from www.openstreetmap.org. The data is made available under ODbL."}, "elements": [{"type": "node", "id": 796619434, "lat": 49.3961635, "lon": -123.2045266}, {"type": "node", "id": 896431984, "lat": 49.3755104, "lon": -123.1847872}, {"type": "node", "id": 896432054, "lat": 49.3754706, "lon": -123.1845911}, {"type": "node", "id": 896432117, "lat": 49.3756707, "lon": -123.1847248}, {"type": "node", "id": 896432184, "lat": 49.3756265, "lon": -123.1848032}, {"type": "node", "id": 896432234, "lat": 49.3754757, "lon": -123.1847365}, {"type": "node", "id": 896432354, "lat": 49.3755129, "lon": -123.1845159}, {"type": "node", "id": 896432510, "lat": 49.3755546, "lon": -123.1847154}, {"type": "node", "id": 896432614, "lat": 49.3755267, "lon": -123.1846617}, {"type": "node", "id": 988406534, "lat": 49.3960509, "lon": -123.2049025}, {"type": "node", "id": 988406539, "lat": 49.3756069, "lon": -123.1845934}, {"type": "node", "id": 988406597, "lat": 49.3963013, "lon": -123.204806}, {"type": "node", "id": 988406602, "lat": 49.3755906, "lon": -123.1846195}, {"type": "node", "id": 988406627, "lat": 49.3958929, "lon": -123.2046763}, {"type": "node", "id": 988406652, "lat": 49.3963211, "lon": -123.2048327}, {"type": "node", "id": 988406677, "lat": 49.3958301, "lon": -123.204078}, {"type": "node", "id": 988406695, "lat": 49.3958218, "lon": -123.204801}, {"type": "node", "id": 988406703, "lat": 49.375619, "lon": -123.1846561}, {"type": "node", "id": 988406718, "lat": 49.3961616, "lon": -123.2050513}, {"type": "node", "id": 988406728, "lat": 49.3963515, "lon": -123.2047794}, {"type": "node", "id": 988406741, "lat": 49.3956644, "lon": -123.2043689}, {"type": "node", "id": 988406762, "lat": 49.3959842, "lon": -123.2050195}, {"type": "node", "id": 988406765, "lat": 49.3756322, "lon": -123.1846279}, {"type": "node", "id": 1033797015, "lat": 49.2893974, "lon": -123.1180797}, {"type": "node", "id": 1033797021, "lat": 49.2899888, "lon": -123.1177256}, {"type": "node", "id": 1033797028, "lat": 49.2895934, "lon": -123.118431}, {"type": "node", "id": 1033797033, "lat": 49.2893828, "lon": -123.1181315}, {"type": "node", "id": 1033797056, "lat": 49.2893537, "lon": -123.1180341}, {"type": "node", "id": 1033797058, "lat": 49.2893747, "lon": -123.1179858}, {"type": "node", "id": 1188607019, "lat": 49.326303, "lon": -123.1437092}, {"type": "node", "id": 1188607054, "lat": 49.3264444, "lon": -123.1439735}, {"type": "node", "id": 1188607200, "lat": 49.3262934, "lon": -123.1441775}, {"type": "node", "id": 1188607223, "lat": 49.3264441, "lon": -123.144058}, {"type": "node", "id": 1188607279, "lat": 49.326333, "lon": -123.1442062}, {"type": "node", "id": 1188607320, "lat": 49.3263108, "lon": -123.1441637}, {"type": "node", "id": 1188607443, "lat": 49.3261392, "lon": -123.1439148}, {"type": "node", "id": 1336892557, "lat": 49.3250682, "lon": -123.0717829}, {"type": "node", "id": 1336892558, "lat": 49.3251269, "lon": -123.0717796}, {"type": "node", "id": 1336892559, "lat": 49.3249639, "lon": -123.0717801}, {"type": "node", "id": 1336892560, "lat": 49.3249674, "lon": -123.0720724}, {"type": "node", "id": 1336892561, "lat": 49.3251326, "lon": -123.0720657}, {"type": "node", "id": 1336892562, "lat": 49.3250138, "lon": -123.0717593}, {"type": "node", "id": 1336892563, "lat": 49.3250613, "lon": -123.0717601}, {"type": "node", "id": 1336892564, "lat": 49.325012, "lon": -123.0717787}, {"type": "node", "id": 1413902322, "lat": 49.3739709, "lon": -123.2744351, "tags": {"addr:housenumber": "6640", "addr:street": "Royal Avenue", "amenity": "restaurant", "cuisine": "seafood", "name": "C Lovers", "opening_hours": "Sa-Th 11:00-20:00; Fr 11:00-21:00", "phone": "+1-604-913-0994", "website": "https://c-lovers.com/"}}, {"type": "node", "id": 1413902323, "lat": 49.3744327, "lon": -123.2744359, "tags": {"amenity": "restaurant", "indoor_seating": "yes", "name": "Troll's", "outdoor_seating": "no"}}, {"type": "node", "id": 1414053505, "lat": 49.3347926, "lon": -123.1829344, "tags": {"addr:city": "West Vancouver", "addr:housenumber": "2508", "addr:province": "BC", "addr:street": "Marine Drive", "amenity": "restaurant", "indoor_seating": "yes", "name": "Vina Vietnamese Restaurant", "outdoor_seating": "yes", "smoking": "no"}}, {"type": "node", "id": 1415184544, "lat": 49.333308, "lon": -123.1820128}, {"type": "node", "id": 1415184545, "lat": 49.3333159, "lon": -123.1820692}, {"type": "node", "id": 1415184549, "lat": 49.3331769, "lon": -123.1820343}, {"type": "node", "id": 1415184551, "lat": 49.3331813, "lon": -123.1820598}, {"type": "node", "id": 1415184555, "lat": 49.3331843, "lon": -123.1823282, "tags": {"amenity": "restaurant", "indoor_seating": "yes", "name": "Beach House Restaurant", "outdoor_seating": "yes", "smoking": "no"}}, {"type": "node", "id": 1415184556, "lat": 49.3331096, "lon": -123.1820584}, {"type": "node", "id": 1415184557, "lat": 49.3333438, "lon": -123.182273}, {"type": "node", "id": 1415184559, "lat": 49.3331502, "lon": -123.1823282}, {"type": "node", "id": 1744768164, "lat": 49.3217244, "lon": -123.072586, "tags": {"amenity": "restaurant", "cuisine": "ramen", "internet_access": "wlan", "name": "Danbo"}}, {"type": "node", "id": 1768129139, "lat": 49.3175133, "lon": -123.0731691}, {"type": "node", "id": 1768129166, "lat": 49.3175933, "lon": -123.073089}, {"type": "node", "id": 1768129173, "lat": 49.3176605, "lon": -123.0732028}, {"type": "node", "id": 1768129183, "lat": 49.3177254, "lon": -123.0731365}, {"type": "node", "id": 1768129184, "lat": 49.3176332, "lon": -123.0731828}, {"type": "node", "id": 1768129210, "lat": 49.3175876, "lon": -123.0733437}, {"type": "node", "id": 1768129217, "lat": 49.3176463, "lon": -123.0731701}, {"type": "node", "id": 1768129230, "lat": 49.3176707, "lon": -123.0730106}, {"type": "node", "id": 1768129238, "lat": 49.3175656, "lon": -123.0732505}, {"type": "node", "id": 1768129240, "lat": 49.3176, "lon": -123.0733314}, {"type": "node", "id": 1768296684, "lat": 49.3297785, "lon": -123.0726807}, {"type": "node", "id": 1768296687, "lat": 49.3295562, "lon": -123.0723731}, {"type": "node", "id": 1768296805, "lat": 49.329776, "lon": -123.0723724}, {"type": "node", "id": 1768296821, "lat": 49.3295574, "lon": -123.0726804}, {"type": "node", "id": 1768311295, "lat": 49.3142851, "lon": -123.0782283}, {"type": "node", "id": 1768311308, "lat": 49.3141539, "lon": -123.0783598}, {"type": "node", "id": 1768311325, "lat": 49.3140771, "lon": -123.0781811}, {"type": "node", "id": 1768311339, "lat": 49.3142514, "lon": -123.0780046}, {"type": "node", "id": 1768311344, "lat": 49.3141592, "lon": -123.0780997}, {"type": "node", "id": 1768311353, "lat": 49.3141746, "lon": -123.0783388}, {"type": "node", "id": 1768311356, "lat": 49.3143284, "lon": -123.0781874}, {"type": "node", "id": 1777523444, "lat": 49.321953, "lon": -123.0728213, "tags": {"addr:city": "North Vancouver", "addr:housenumber": "115", "addr:street": "West 15th Street", "amenity": "restaurant", "cuisine": "pizza", "delivery": "no", "name": "Alberello Pizzeria", "opening_hours": "11:30-22:30", "phone": "+1-604-770-4484", "takeaway": "yes"}}, {"type": "node", "id": 1970223981, "lat": 49.2872474, "lon": -123.118925, "tags": {"addr:city": "Vancouver", "addr:housenumber": "1033", "addr:postcode": "V6E 2M6", "addr:province": "BC", "addr:street": "West Pender Street", "amenity": "restaurant", "cuisine": "sandwich", "name": "Meat & Bread", "opening_hours": "Mo-Fr 11:00-15:00", "website": "http://meatandbread.ca"}}, {"type": "node", "id": 2061050826, "lat": 49.3211676, "lon": -123.0730131, "tags": {"amenity": "restaurant", "name": "Eighties Restaurant", "wheelchair": "no"}}, {"type": "node", "id": 2061050827, "lat": 49.322223, "lon": -123.073174, "tags": {"addr:city": "North Vancouver", "addr:housenumber": "114", "addr:province": "BC", "addr:street": "West 15th Street", "amenity": "restaurant", "name": "Tehran Nights Restaurant"}}, {"type": "node", "id": 2089384614, "lat": 49.3222679, "lon": -123.0714, "tags": {"addr:city": "North Vancouver", "addr:housenumber": "116", "addr:street": "East 15th Street", "amenity": "restaurant", "name": "Palki Indian", "phone": "+1-604-986-7555", "website": "https://www.palkirestaurant.com/"}}, {"type": "node", "id": 2089392908, "lat": 49.3260968, "lon": -123.0724768, "tags": {"amenity": "restaurant", "cuisine": "sushi", "name": "Sushi Katsu"}}, {"type": "node", "id": 2281477671, "lat": 49.2937515, "lon": -123.1296662}, {"type": "node", "id": 2281477672, "lat": 49.2936233, "lon": -123.1298688}, {"type": "node", "id": 2281477673, "lat": 49.2935212, "lon": -123.1297125}, {"type": "node", "id": 2281477675, "lat": 49.2936043, "lon": -123.1295843}, {"type": "node", "id": 2325120316, "lat": 49.2899725, "lon": -123.1177547}, {"type": "node", "id": 2325120326, "lat": 49.2899457, "lon": -123.1178025}, {"type": "node", "id": 2325120327, "lat": 49.2897161, "lon": -123.1182121}, {"type": "node", "id": 2325120330, "lat": 49.2898398, "lon": -123.1179914}, {"type": "node", "id": 2325120332, "lat": 49.2896095, "lon": -123.1184023}, {"type": "node", "id": 2327355747, "lat": 49.3012245, "lon": -123.157071, "tags": {"amenity": "restaurant", "cuisine": "seafood;brunch", "diet:gluten_free": "yes", "diet:organic": "yes", "diet:vegetarian": "yes", "name": "The Teahouse", "phone": "+1-604-669-3281", "source": "survey", "start_date": "1978", "website": "https://www.vancouverdine.com/teahouse/"}}, {"type": "node", "id": 2328932260, "lat": 49.2874308, "lon": -123.114904, "tags": {"addr:city": "Vancouver", "addr:housenumber": "909", "addr:province": "BC", "addr:street": "West Cordova Street", "amenity": "restaurant", "cuisine": "japanese", "name": "Hapa Izakaya", "source": "survey"}}, {"type": "node", "id": 2339312509, "lat": 49.2879174, "lon": -123.1237682, "tags": {"addr:city": "Vancouver", "addr:housenumber": "570", "addr:postcode": "V6E 4T7", "addr:province": "BC", "addr:street": "Bute Street", "amenity": "restaurant", "capacity": "30", "cuisine": "sushi", "name": "SushiGo", "opening_hours": "Mo-Fr 11:00-19:00", "smoking": "no", "source": "survey", "takeaway": "yes"}}, {"type": "node", "id": 2441693951, "lat": 49.288481, "lon": -123.139744, "tags": {"addr:city": "Vancouver", "addr:housenumber": "1072", "addr:postcode": "V6G 2M8", "addr:province": "BC", "addr:street": "Denman Street", "amenity": "restaurant", "indoor_seating": "yes", "name": "Gillaneh Restaurant", "opening_hours": "Mo-Th 11:30-22:30; Fr-Su 11:30-00:00", "outdoor_seating": "yes", "smoking": "no", "wheelchair": "yes"}}, {"type": "node", "id": 2489839605, "lat": 49.3230668, "lon": -123.102002, "tags": {"addr:city": "North Vancouver", "addr:housenumber": "1600", "addr:province": "BC", "addr:street": "MacKay Road", "amenity": "restaurant", "contact:website": "https://ortoartisanpasta.com/", "name": "Orto Artisan Pasta", "opening_hours": "Tu-Fr 11:00-14:30,17:00-20:00; Sa 10:00-14:30,17:00-20:30"}}, {"type": "node", "id": 2500684808, "lat": 49.2866651, "lon": -123.11834, "tags": {"addr:city": "Vancouver", "addr:housenumber": "507", "addr:province": "BC", "addr:street": "Burrard Street", "amenity": "restaurant", "branch": "Bentall One", "brand": "Joey", "brand:wikidata": "Q24191943", "cuisine": "regional", "diet:vegetarian": "yes", "indoor_seating": "yes", "name": "Joey", "opening_hours": "Mo-Th 11:00-24:00; Fr 11:00-01:00; Sa 11:30-01:00; Su 11:30-24:00", "outdoor_seating": "yes", "smoking": "no", "source": "OpenstreetBugs / Bing", "website": "https://joeyrestaurants.com/"}}, {"type": "node", "id": 2598929154, "lat": 49.3800114, "lon": -123.331357}, {"type": "node", "id": 2598929157, "lat": 49.380046, "lon": -123.3312906}, {"type": "node", "id": 2598929158, "lat": 49.3800578, "lon": -123.331414}, {"type": "node", "id": 2598929160, "lat": 49.3800924, "lon": -123.3313476}, {"type": "node", "id": 2598929164, "lat": 49.3801479, "lon": -123.3311655}, {"type": "node", "id": 2598929167, "lat": 49.3801809, "lon": -123.3312404}, {"type": "node", "id": 2598929168, "lat": 49.3801899, "lon": -123.3311219}, {"type": "node", "id": 2598929170, "lat": 49.3802229, "lon": -123.3311968}, {"type": "node", "id": 2598946985, "lat": 49.3794405, "lon": -123.3342385}, {"type": "node", "id": 2598946989, "lat": 49.3794667, "lon": -123.3340973}, {"type": "node", "id": 2598947004, "lat": 49.3795503, "lon": -123.3342866}, {"type": "node", "id": 2601983075, "lat": 49.3310032, "lon": -123.1722987, "tags": {"addr:housenumber": "2232", "addr:street": "Marine Drive", "amenity": "restaurant", "cuisine": "japanese", "drive_in": "no", "indoor_seating": "yes", "name": "Zen Japanese Restaurant", "outdoor_seating": "yes", "phone": "+1-604-925-0667", "smoking": "no", "website": "www.zensushi.ca"}}, {"type": "node", "id": 2656817516, "lat": 49.2878057, "lon": -123.1153441, "tags": {"addr:city": "Vancouver", "addr:housenumber": "200", "addr:postcode": "V6C 3L6", "addr:province": "BC", "addr:street": "Burrard Street", "amenity": "restaurant", "indoor_seating": "yes", "name": "Riley's Fish & Steak", "outdoor_seating": "yes", "payment:credit_cards": "yes", "payment:debit_cards": "yes"}}, {"type": "node", "id": 2791792756, "lat": 49.3242115, "lon": -123.1039789, "tags": {"amenity": "restaurant", "brand": "Boston Pizza", "brand:wikidata": "Q894578", "brand:wikipedia": "en:Boston Pizza", "cuisine": "pizza", "name": "Boston Pizza"}}, {"type": "node", "id": 2907481401, "lat": 49.3742756, "lon": -123.273828, "tags": {"addr:city": "West Vancouver", "addr:housenumber": "6382", "addr:postcode": "V7W 2G9", "addr:province": "British Columbia", "addr:street": "Bay Street", "amenity": "restaurant", "cuisine": "pizza;bubble_tea;breakfast", "diet:halal": "no", "diet:vegetarian": "yes", "fax": "+1-778-279-4390", "name": "Fresh Bay Pizza", "not:brand:wikidata": "Q5503082", "opening_hours": "Mo-Th 10:30-20:30; Fr 10:30-21:30; Sa-Su 10:30-20:30", "outdoor_seating": "yes", "phone": "+1-778-279-4360", "website": "https://freshbaypizza.org"}}, {"type": "node", "id": 2907484126, "lat": 49.3745957, "lon": -123.2747995, "tags": {"addr:housenumber": "6418", "addr:street": "Bay Street", "amenity": "restaurant", "check_date": "2024-06-05", "name": "Olive & Anchor"}}, {"type": "node", "id": 2985100362, "lat": 49.2859532, "lon": -123.1264184, "tags": {"addr:city": "Vancouver", "addr:housenumber": "1185", "addr:province": "BC", "addr:street": "Robson Street", "amenity": "restaurant", "brand": "Earls", "brand:wikidata": "Q5326525", "cuisine": "american", "diet:vegan": "yes", "diet:vegetarian": "yes", "indoor_seating": "yes", "level": "1", "name": "Earls", "opening_hours:signed": "no", "outdoor_seating": "yes", "smoking": "no", "wheelchair": "no"}}, {"type": "node", "id": 3066876567, "lat": 49.2893842, "lon": -123.114425, "tags": {"addr:city": "Vancouver", "addr:housenumber": "1055", "addr:postcode": "V6C 0C3", "addr:street": "Canada Place", "amenity": "restaurant", "check_date": "2024-12-13", "check_date:currency:XBT": "2024-12-03", "diet:vegetarian": "yes", "email": "conventioncentre@mahonystavern.com", "indoor_seating": "yes", "name": "Mahony's Tavern", "opening_hours": "Mo-Th 11:30-22:30; Fr 11:30-24:00; Sa 10:00-24:00; Su 10:00-22:30", "outdoor_seating": "yes", "payment:credit_cards": "yes", "payment:debit_cards": "yes", "phone": "+1-604-647-7513", "reservation": "yes", "smoking": "no", "survey:date": "2023-11-07", "website": "https://www.mahonystavern.com/"}}, {"type": "node", "id": 3075600242, "lat": 49.3264332, "lon": -123.1392875, "tags": {"amenity": "restaurant", "brand": "White Spot", "brand:wikidata": "Q7995414", "brand:wikipedia": "en:White Spot", "cuisine": "burger", "name": "White Spot"}}, {"type": "node", "id": 3286872887, "lat": 49.3115338, "lon": -123.0801501, "tags": {"amenity": "restaurant", "check_date": "2025-01-19", "cuisine": "thai", "name": "Thai House Restaurant", "smoking": "no"}}, {"type": "node", "id": 3288747679, "lat": 49.2865757, "lon": -123.1427066}, {"type": "node", "id": 3288747680, "lat": 49.2868361, "lon": -123.1426453}, {"type": "node", "id": 3288747681, "lat": 49.2868423, "lon": -123.1427075}, {"type": "node", "id": 3288747682, "lat": 49.2868113, "lon": -123.1427148}, {"type": "node", "id": 3288747683, "lat": 49.2868179, "lon": -123.1427803}, {"type": "node", "id": 3288747684, "lat": 49.2865885, "lon": -123.1428343}, {"type": "node", "id": 3303320043, "lat": 49.3126535, "lon": -123.0781809, "tags": {"addr:city": "North Vancouver", "addr:housenumber": "103", "addr:province": "BC", "addr:street": "West 2nd Street", "amenity": "restaurant", "contact:phone": "+1-604-770 3295", "contact:website": "https://www.brownssocialhouse.com/lower-lonsdale", "indoor_seating": "yes", "name": "Browns Socialhouse", "opening_hours": "Mo-We 11:00-23:00; Th-Fr 11:00-24:00; Sa 10:00-24:00; Su 10:00-23:00", "outdoor_seating": "yes", "smoking": "no"}}, {"type": "node", "id": 3353389261, "lat": 49.3124756, "lon": -123.077748, "tags": {"addr:city": "North Vancouver", "addr:housenumber": "152", "addr:province": "BC", "addr:street": "Lonsdale Avenue", "amenity": "restaurant", "contact:phone": "+1 604-987-8633", "contact:website": "https://www.sushibella.com/", "cuisine": "japanese", "indoor_seating": "yes", "name": "Sushi Bella", "opening_hours": "Mo-Fr 11:30-15:00,16:30-23:00; Sa,Su 12:00-23:00", "outdoor_seating": "no", "smoking": "no"}}, {"type": "node", "id": 3518466473, "lat": 49.3383279, "lon": -123.103261, "tags": {"amenity": "restaurant", "cuisine": "japanese;sushi", "name": "Nobu Sushi", "not:brand:wikidata": "Q104840749"}}, {"type": "node", "id": 3518466500, "lat": 49.337816, "lon": -123.1026208, "tags": {"amenity": "restaurant"}}, {"type": "node", "id": 3550807978, "lat": 49.2914802, "lon": -123.1356915, "tags": {"addr:city": "Vancouver", "addr:housenumber": "805", "addr:province": "BC", "addr:street": "Denman Street", "amenity": "restaurant", "cuisine": "mexican", "diet:vegetarian": "yes", "indoor_seating": "yes", "internet_access": "wlan", "name": "Holy Guacamole", "opening_hours": "Mo-Sa 10:00-23:00; Su 10:00-22:00", "outdoor_seating": "yes", "phone": "+1-604-602-9529", "smoking": "no"}}, {"type": "node", "id": 3570663013, "lat": 49.3581707, "lon": -123.1066287}, {"type": "node", "id": 3570663022, "lat": 49.3581753, "lon": -123.106264}, {"type": "node", "id": 3570663513, "lat": 49.3583479, "lon": -123.106634}, {"type": "node", "id": 3570663518, "lat": 49.3583526, "lon": -123.1062693}, {"type": "node", "id": 3696228368, "lat": 49.2873114, "lon": -123.117128, "tags": {"addr:city": "Vancouver", "addr:housenumber": "385", "addr:province": "BC", "addr:street": "Burrard Street", "amenity": "restaurant", "check_date:opening_hours": "2022-10-15", "indoor_seating": "yes", "name": "Brass Fish", "opening_hours:signed": "no", "outdoor_seating": "no", "smoking": "no"}}, {"type": "node", "id": 3702373665, "lat": 49.2865571, "lon": -123.140981, "tags": {"addr:city": "Vancouver", "addr:housenumber": "1738", "addr:province": "BC", "addr:street": "Davie Street", "amenity": "restaurant", "cuisine": "korean", "indoor_seating": "yes", "name": "Mumu Kitchen", "opening_hours": "Su-Th 17:00-24:00, Fr,Sa 17:00-01:00", "outdoor_seating": "no", "smoking": "no", "website": "https://mumukitchen.ca/"}}, {"type": "node", "id": 3712939934, "lat": 49.2861606, "lon": -123.124206, "tags": {"addr:city": "Vancouver", "addr:housenumber": "1121", "addr:postcode": "V6E 4T9", "addr:province": "BC", "addr:street": "Alberni Street", "amenity": "restaurant", "branch": "The Keg Steakhouse + Bar Alberni Street", "brand": "The Keg", "brand:wikidata": "Q7744066", "cuisine": "steak_house", "indoor_seating": "yes", "name": "The Keg", "opening_hours": "Su-Th 15:00-23:00; Fr,Sa 15:00-24:00", "outdoor_seating": "no", "phone": "+1-604-685-4388", "smoking": "no", "toilets:wheelchair": "yes", "website": "https://thekeg.com/en/locations/alberni", "website:en": "https://thekeg.com/en/locations/alberni", "website:fr": "https://thekeg.com/fr/restaurants/alberni", "wheelchair": "yes"}}, {"type": "node", "id": 3712940204, "lat": 49.2890693, "lon": -123.1325917, "tags": {"addr:housenumber": "832", "addr:street": "Cardero Street", "amenity": "restaurant", "cuisine": "korean", "name": "Kosoo", "opening_hours:signed": "no", "phone": "+1-604-563-5556", "website": "https://kosoo.ca/cardero/"}}, {"type": "node", "id": 3718998425, "lat": 49.2918539, "lon": -123.1346228, "tags": {"addr:city": "Vancouver", "addr:housenumber": "740", "addr:province": "BC", "addr:street": "Denman Street", "amenity": "restaurant", "cuisine": "ramen", "name": "Tonkotsu Ramen Tsukiya", "opening_hours": "Mo-Tu 12:00-23:00; Th-Su 12:00-23:00"}}, {"type": "node", "id": 3731201009, "lat": 49.2917752, "lon": -123.138367, "tags": {"addr:city": "Vancouver", "addr:housenumber": "1906", "addr:province": "BC", "addr:street": "Haro Street", "amenity": "restaurant", "cuisine": "italian", "indoor_seating": "yes", "name": "Robba da Matti", "outdoor_seating": "yes", "phone": "+1 604 423 3553", "website": "https://robbadamatti.com/"}}, {"type": "node", "id": 3733886693, "lat": 49.2918102, "lon": -123.135189, "tags": {"addr:city": "Vancouver", "addr:housenumber": "775", "addr:province": "BC", "addr:street": "Denman Street", "amenity": "restaurant", "name": "Tetsu Sushi Bar", "opening_hours": "Tu-Su 17:00-21:30"}}, {"type": "node", "id": 3743053714, "lat": 49.2861746, "lon": -123.116976, "tags": {"addr:city": "Vancouver", "addr:housenumber": "911", "addr:postcode": "V6C 1L6", "addr:province": "BC", "addr:street": "West Pender Street", "amenity": "restaurant", "bar": "yes", "brewery": "yes", "cuisine": "burger", "email": "butcherandbullock@donnellygroup.ca", "indoor_seating": "yes", "name": "The Butcher & Bullock", "opening_hours": "Mo-Fr 11:30-03:00; Sa-Su 11:00-03:00", "operator": "Donnelly Group", "outdoor_seating": "no", "phone": "+1-604-662-8866", "smoking": "no", "website": "https://donnellygroup.ca/the-butcher-bullock/"}}, {"type": "node", "id": 3793717678, "lat": 49.286421, "lon": -123.140262, "tags": {"addr:city": "Vancouver", "addr:housenumber": "1707", "addr:postcode": "V6G 1W5", "addr:province": "BC", "addr:street": "Davie Street", "amenity": "restaurant", "indoor_seating": "yes", "name": "Red Umbrella Cafe", "opening_hours": "Mo-Su 08:00-15:00", "outdoor_seating": "yes", "phone": "+1-604-688-7818", "smoking": "no", "website": "https://redumbrellacafe.ca", "wheelchair": "yes"}}, {"type": "node", "id": 3946271319, "lat": 49.3101585, "lon": -123.080058, "tags": {"addr:city": "North Vancouver", "addr:housenumber": "8", "addr:postcode": "V7L 0B2", "addr:street": "Lonsdale Avenue", "amenity": "restaurant", "cuisine": "regional", "indoor_seating": "yes", "name": "Tap & Barrel", "name:en": "Tap & Barrel", "opening_hours": "11:00-24:00", "outdoor_seating": "yes", "smoking": "no", "toilets:wheelchair": "yes", "wheelchair": "yes"}}, {"type": "node", "id": 3976118645, "lat": 49.3262139, "lon": -123.1359438, "tags": {"addr:housenumber": "722", "addr:street": "Main Street", "amenity": "restaurant", "brand": "Nando's", "brand:wikidata": "Q3472954", "brand:wikipedia": "en:Nando's", "cuisine": "chicken;portuguese", "level": "0", "name": "Nando's", "wheelchair": "yes"}}, {"type": "node", "id": 4026257525, "lat": 49.3556326, "lon": -123.105903, "tags": {"addr:city": "North Vancouver", "addr:housenumber": "4740", "addr:postcode": "V7R 4K3", "addr:street": "Capilano Road", "amenity": "restaurant", "cuisine": "sushi", "name": "Sushi Mori", "phone": "+1-604-929-3444", "takeaway": "yes", "website": "https://sushimori-northvan.com/"}}, {"type": "node", "id": 4136170563, "lat": 49.2902892, "lon": -123.1338882, "tags": {"addr:city": "Vancouver", "addr:housenumber": "1698", "addr:province": "BC", "addr:street": "Robson Street", "amenity": "restaurant", "cuisine": "japanese", "description": "Also called \"Guu Robson\".", "diet:vegetarian": "yes", "email": "robson@guu-izakaya.com", "indoor_seating": "yes", "name": "Guu \u200bwith Garlic", "opening_hours": "Mo-Sa 17:30-00:30; Su 17:30-00:00", "outdoor_seating": "yes", "phone": "+1-604-685-8678", "smoking": "no", "website": "https://guu-izakaya.com/robson"}}, {"type": "node", "id": 4141243827, "lat": 49.2865749, "lon": -123.122858, "tags": {"addr:city": "Vancouver", "addr:housenumber": "1100", "addr:province": "BC", "addr:street": "Melville Street", "addr:unit": "100", "amenity": "restaurant", "name": "Sushi California", "opening_hours": "Mo-Fr 11:00-21:00; Sa,Su 12:00-21:00", "phone": "+1-604-873-8284", "website": "https://www.sushicali.ca/"}}, {"type": "node", "id": 4211515697, "lat": 49.2870382, "lon": -123.118101, "tags": {"addr:city": "Vancouver", "addr:housenumber": "401", "addr:postcode": "V6C 3R2", "addr:province": "BC", "addr:street": "Burrard Street", "amenity": "restaurant", "brand": "Freshii", "brand:wikidata": "Q5503051", "cuisine": "salad", "name": "Freshii", "smoking": "no", "takeaway": "yes"}}, {"type": "node", "id": 4264535594, "lat": 49.288292, "lon": -123.14005, "tags": {"addr:city": "Vancouver", "addr:housenumber": "1096", "addr:province": "BC", "addr:street": "Denman Street", "amenity": "restaurant", "indoor_seating": "yes", "name": "Noah's Cafe", "opening_hours": "Mo-Su 17:00-24:00, Sa,Su 11:30-14:30", "outdoor_seating": "no", "smoking": "no"}}, {"type": "node", "id": 4267428589, "lat": 49.2884539, "lon": -123.139806, "tags": {"addr:city": "Vancouver", "addr:housenumber": "1074", "addr:province": "BC", "addr:street": "Denman Street", "amenity": "restaurant", "cuisine": "vietnamese", "indoor_seating": "yes", "name": "Legendary Noodle House", "opening_hours": "12:00-21:00", "outdoor_seating": "no", "smoking": "no", "website": "https://www.legendarynoodle.ca/", "wheelchair": "no"}}, {"type": "node", "id": 4304851600, "lat": 49.2874551, "lon": -123.128933, "tags": {"addr:city": "Vancouver", "addr:housenumber": "1333", "addr:postcode": "V6B 1C6", "addr:province": "BC", "addr:street": "Robson Street", "amenity": "restaurant", "check_date": "2024-09-18", "check_date:opening_hours": "2024-08-25", "cuisine": "japanese;ramen", "delivery": "partner", "delivery:partner": "Uber Eats", "diet:vegan": "yes", "indoor_seating": "yes", "name": "Ramen Danbo", "opening_hours": "Mo-Su,PH 11:00-23:00", "outdoor_seating": "no", "phone": "+1-604-559-8112", "reservation": "no", "smoking": "no", "takeaway": "yes", "website": "https://ramendanbo.com"}}, {"type": "node", "id": 4304851993, "lat": 49.2879187, "lon": -123.140435, "tags": {"addr:city": "Vancouver", "addr:housenumber": "1795", "addr:province": "BC", "addr:street": "Pendrell Street", "amenity": "restaurant", "cuisine": "persian", "indoor_seating": "yes", "name": "Zeitoon", "opening_hours": "Mo-Th 11:30-22:00; Fr-Su 11:00-23:00", "outdoor_seating": "yes", "smoking": "no", "toilets": "yes", "toilets:wheelchair": "yes", "wheelchair": "limited"}}, {"type": "node", "id": 4323279090, "lat": 49.2873953, "lon": -123.128838, "tags": {"addr:city": "Vancouver", "addr:housenumber": "1329", "addr:province": "BC", "addr:street": "Robson Street", "amenity": "restaurant", "indoor_seating": "yes", "name": "JoongWon", "opening_hours:signed": "no", "outdoor_seating": "no", "smoking": "no"}}, {"type": "node", "id": 4323326593, "lat": 49.287665, "lon": -123.12925, "tags": {"addr:city": "Vancouver", "addr:postcode": "V6E 1N1", "addr:province": "BC", "addr:street": "Robson Street", "amenity": "restaurant", "check_date": "2024-09-18", "cuisine": "greek", "diet:vegan": "no", "diet:vegetarian": "yes", "indoor_seating": "yes", "name": "Stepho's Souvlaki Greek Tavern", "opening_hours": "Mo-Su 11:30-22:00", "outdoor_seating": "yes", "phone": "+1 604-683-2555", "smoking": "no", "website": "https://stephossouvlakigreektavern.food-24h.com/", "wheelchair": "yes"}}, {"type": "node", "id": 4323353389, "lat": 49.2873464, "lon": -123.1283402, "tags": {"addr:city": "Vancouver", "addr:housenumber": "793", "addr:province": "BC", "addr:street": "Jervis Street", "amenity": "restaurant", "indoor_seating": "yes", "name": "Chosun Korean BBQ", "opening_hours": "Mo,We 11:30-22:30; Fr,Sa 11:30-23:00; Su 11:30-22:00", "outdoor_seating": "yes", "smoking": "no"}}, {"type": "node", "id": 4323353390, "lat": 49.2870639, "lon": -123.128927, "tags": {"addr:street": "Robson Street", "amenity": "restaurant", "indoor_seating": "yes", "name": "Forage", "opening_hours": "24/7", "outdoor_seating": "no", "phone": "+1-604-661-1400", "smoking": "no", "website": "https://foragevancouver.com/", "wheelchair": "yes"}}, {"type": "node", "id": 4323353589, "lat": 49.2874858, "lon": -123.12898, "tags": {"addr:city": "Vancouver", "addr:housenumber": "1335", "addr:postcode": "V6E 1C6", "addr:province": "BC", "addr:street": "Robson Street", "amenity": "restaurant", "cuisine": "japanese;sushi", "indoor_seating": "yes", "name": "Miko Sushi", "opening_hours": "Mo,Tu,Th,Fr 11:30-14:00, Mo-Sa 17:00-22:00", "outdoor_seating": "no", "phone": "+1-604-681-0339", "smoking": "no"}}, {"type": "node", "id": 4323353789, "lat": 49.2875631, "lon": -123.129718, "tags": {"addr:city": "Vancouver", "addr:housenumber": "1368", "addr:province": "BC", "addr:street": "Robson Street", "alt_name": "Cora Breakfast and Lunch", "amenity": "restaurant", "brand": "Cora", "brand:wikidata": "Q2996960", "brand:wikipedia": "en:Cora (restaurant)", "check_date": "2024-09-18", "cuisine": "breakfast", "diet:vegan": "yes", "diet:vegetarian": "yes", "indoor_seating": "yes", "level": "0", "name": "Cora", "opening_hours": "Mo-Sa 06:00-15:00; Su 07:00-15:00", "outdoor_seating": "yes", "smoking": "no", "takeaway": "yes", "website": "https://www.chezcora.com/en/order-online/?language=en&location_id=17526#/main", "wheelchair": "yes"}}, {"type": "node", "id": 4331348291, "lat": 49.291387, "lon": -123.135016, "tags": {"addr:city": "Vancouver", "addr:housenumber": "1779", "addr:postcode": "V6E 1M5", "addr:province": "BC", "addr:street": "Robson Street", "amenity": "restaurant", "check_date": "2024-09-18", "cuisine": "malaysian", "diet:vegetarian": "yes", "indoor_seating": "yes", "name": "Banana Leaf", "opening_hours": "Mo-Su 11:30-10:00", "outdoor_seating": "yes", "phone": "+1-604-569-3363", "smoking": "no", "website": "https://www.bananaleaf-vancouver.com/"}}, {"type": "node", "id": 4331530499, "lat": 49.2907725, "lon": -123.134078, "tags": {"addr:city": "Vancouver", "addr:housenumber": "1719", "addr:province": "BC", "addr:street": "Robson Street", "amenity": "restaurant", "cuisine": "chinese;asian", "indoor_seating": "yes", "name": "Dinesty Dumpling House", "opening_hours": "Mo-Su 11:00-14:30, Su-Th 17:00-20:30, Fr,Sa 17:00-21:15", "outdoor_seating": "no", "smoking": "no"}}, {"type": "node", "id": 4336609289, "lat": 49.2862529, "lon": -123.1276348, "tags": {"addr:housenumber": "1230", "addr:street": "Robson Street", "amenity": "restaurant", "check_date": "2024-09-18", "check_date:opening_hours": "2023-08-19", "cuisine": "japanese;sushi", "diet:vegetarian": "yes", "indoor_seating": "yes", "name": "Momo Sushi", "opening_hours": "Su-Th 11:30-22:30; Fr,Sa 11:30-23:00", "opening_hours:signed": "no", "outdoor_seating": "no", "phone": "+1-604-563-2022", "smoking": "no", "website": "https://momo-sushi.com/"}}, {"type": "node", "id": 4343200838, "lat": 49.2863249, "lon": -123.1255978, "tags": {"addr:city": "Vancouver", "addr:housenumber": "1172", "addr:province": "BC", "addr:street": "Alberni Street", "amenity": "restaurant", "check_date:opening_hours": "2022-07-23", "indoor_seating": "yes", "name": "Kirin Mandarin Restaurant", "opening_hours:signed": "no", "outdoor_seating": "no", "phone": "+1-604-682-8833", "smoking": "no"}}, {"type": "node", "id": 4343306448, "lat": 49.2859935, "lon": -123.1250868, "tags": {"addr:city": "Vancouver", "addr:housenumber": "1152", "addr:postcode": "V6E1A5", "addr:province": "BC", "addr:street": "Alberni Street", "amenity": "restaurant", "name": "Archer", "opening_hours": "Mo-Su 10:00-23:00", "phone": "+1-778-737-6218", "website": "https://archerdining.com/"}}, {"type": "node", "id": 4419400890, "lat": 49.2879922, "lon": -123.140464, "tags": {"addr:city": "Vancouver", "addr:housenumber": "1122", "addr:province": "BC", "addr:street": "Denman Street", "amenity": "restaurant", "cuisine": "brazilian;meat", "diet:meat": "yes", "indoor_seating": "yes", "name": "Rio Brazilian Steakhouse", "opening_hours": "Mo-Su 17:30-22:00, Sa,Su 12:00-15:30", "outdoor_seating": "no", "smoking": "no", "wheelchair": "no"}}, {"type": "node", "id": 4421507442, "lat": 49.2890564, "lon": -123.1320225, "tags": {"addr:city": "Vancouver", "addr:housenumber": "1542", "addr:province": "BC", "addr:street": "Robson Street", "amenity": "restaurant", "check_date": "2024-09-18", "diet:vegan": "no", "diet:vegetarian": "yes", "indoor_seating": "yes", "name": "Liuyishou Hotpot Robson", "opening_hours": "Mo-Su 11:30-14:30,16:30-24:00", "outdoor_seating": "no", "payment:credit_cards": "yes", "payment:debit_cards": "yes", "smoking": "no", "wheelchair": "yes"}}, {"type": "node", "id": 4433485092, "lat": 49.2915693, "lon": -123.127516, "tags": {"addr:city": "Vancouver", "addr:housenumber": "1583", "addr:province": "BC", "addr:street": "Coal Harbour Quay", "amenity": "restaurant", "check_date": "2023-01-27", "name": "Cardero's", "opening_hours": "Mo-Sa 11:30-23:00; PH,Su 11:30-22:00", "website": "https://www.vancouverdine.com/carderos/"}}, {"type": "node", "id": 4448663294, "lat": 49.290923, "lon": -123.1360157, "tags": {"addr:city": "Vancouver", "addr:housenumber": "836", "addr:province": "BC", "addr:street": "Denman Street", "amenity": "restaurant", "indoor_seating": "yes", "name": "Dan Dan Noodle", "opening_hours": "Mo-Th, Su 11:00-22:30; Fr 11:00-23:30; Sa 11:00-22:00", "outdoor_seating": "no", "phone": "+1-604-559-0266", "smoking": "no"}}, {"type": "node", "id": 4484895630, "lat": 49.290566, "lon": -123.137056, "tags": {"addr:city": "Vancouver", "addr:housenumber": "871", "addr:postcode": "V6G 2L9", "addr:province": "BC", "addr:street": "Denman Street", "amenity": "restaurant", "check_date": "2024-09-19", "cocktails": "yes", "cuisine": "japanese", "indoor_seating": "yes", "name": "Kingyo", "name:ja": "\u5c45\u9152\u5c4b\u91d1\u9b5a", "opening_hours": "Mo-Th,Su 11:30-14:30,05:30-23:30; Fr,Sa 11:30-14:30,05:30-00:00", "outdoor_seating": "no", "payment:cash": "yes", "payment:credit_cards": "yes", "payment:debit_cards": "yes", "phone": "+1-604-608-1677", "reservation": "recommended", "smoking": "no", "toilets": "yes", "website": "https://www.kingyo-izakaya.ca/", "wheelchair": "yes"}}, {"type": "node", "id": 4569965589, "lat": 49.2906033, "lon": -123.13339, "tags": {"addr:housenumber": "780", "addr:postcode": "V6G 2J6", "addr:street": "Bidwell Street", "amenity": "restaurant", "name": "Maruhachi Ra-men", "opening_hours": "Su-Th 11:30-21:00; Fr,Sa 11:30-22:00"}}, {"type": "node", "id": 4571905494, "lat": 49.2902063, "lon": -123.1337425, "tags": {"addr:city": "Vancouver", "addr:housenumber": "1690", "addr:postcode": "V6G 1C7", "addr:province": "BC", "addr:street": "Robson Street", "amenity": "restaurant", "check_date": "2024-09-18", "cuisine": "noodle;japanese", "indoor_seating": "yes", "internet_access": "no", "name": "Hokkaido Ramen Santouka", "name:en": "Hokkaido Ramen Santouka", "name:ja": "\u3089\u30fc\u3081\u3093\u5c71\u982d\u706b", "opening_hours": "Mo-Th 11:00-21:00; Fr-Su 11:00-22:00", "outdoor_seating": "no", "payment:cash": "yes", "payment:credit_cards": "yes", "payment:debit_cards": "yes", "phone": "+1-604-681-8121", "smoking": "no", "website": "https://www.santouka.co.jp/en", "wheelchair": "yes"}}, {"type": "node", "id": 4576710890, "lat": 49.3124069, "lon": -123.0778328, "tags": {"addr:city": "North Vancouver", "addr:housenumber": "144", "addr:postcode": "V7M 2E8", "addr:province": "BC", "addr:street": "Lonsdale Avenue", "amenity": "restaurant", "cuisine": "irish;diner;sandwich;breakfast", "email": "meatatoneills@shaw.ca", "internet_access": "wlan", "name": "Meat at O'Neill's", "name:en": "Meat at O'Neill's", "opening_hours": "Tu-We 10:00-18:00; Th-Fr 10:00-19:00; Sa 10:00-18:00", "phone": "+1-604-987-1115", "website": "https://www.meatatoneills.com/"}}, {"type": "node", "id": 4586544510, "lat": 49.3228577, "lon": -123.1076228}, {"type": "node", "id": 4586544511, "lat": 49.3226954, "lon": -123.1076279}, {"type": "node", "id": 4586544512, "lat": 49.322692, "lon": -123.1073788}, {"type": "node", "id": 4586544513, "lat": 49.3228291, "lon": -123.1073475}, {"type": "node", "id": 4639170589, "lat": 49.2873076, "lon": -123.128401, "tags": {"addr:city": "Vancouver", "addr:housenumber": "795", "addr:province": "BC", "addr:street": "Jervis Street", "amenity": "restaurant", "cuisine": "japanese", "indoor_seating": "yes", "name": "Sushi Hyun Omakase", "outdoor_seating": "yes"}}, {"type": "node", "id": 4723165789, "lat": 49.2904957, "lon": -123.134221, "tags": {"addr:city": "Vancouver", "addr:housenumber": "1706", "addr:postcode": "V6G 1E2", "addr:province": "BC", "addr:street": "Robson Street", "amenity": "restaurant", "check_date:opening_hours": "2024-07-27", "indoor_seating": "yes", "name": "J & G Fried Chicken", "opening_hours:signed": "no", "outdoor_seating": "no", "smoking": "no"}}, {"type": "node", "id": 4730286193, "lat": 49.2916811, "lon": -123.1348802, "tags": {"addr:city": "Vancouver", "addr:housenumber": "774", "addr:province": "BC", "addr:street": "Denman Street", "amenity": "restaurant", "name": "Jingle Bao", "opening_hours": "Mo-Su 10:30-23:00"}}, {"type": "node", "id": 4796015027, "lat": 49.2869536, "lon": -123.141081, "tags": {"addr:city": "Vancouver", "addr:province": "BC", "addr:street": "Davie Street", "amenity": "restaurant", "indoor_seating": "yes", "name": "The Park at English Bay", "name:en": "The Park at English Bay", "opening_hours": "Mo-Su 07:00-00:30", "outdoor_seating": "yes", "smoking": "no", "wheelchair": "no"}}, {"type": "node", "id": 4887078207, "lat": 49.326021, "lon": -123.0724875, "tags": {"amenity": "restaurant", "cuisine": "vietnamese", "name": "Pho98", "phone": "+1-778-340-3993"}}, {"type": "node", "id": 4898455721, "lat": 49.2870647, "lon": -123.112828, "tags": {"amenity": "restaurant", "cuisine": "japanese;sushi", "name": "Miku", "website": "https://mikurestaurant.com/"}}, {"type": "node", "id": 4905491821, "lat": 49.3122034, "lon": -123.078959, "tags": {"addr:city": "North Vancouver", "addr:housenumber": "101", "addr:province": "BC", "addr:street": "West 1st Street", "amenity": "restaurant", "contact:facebook": "Buddhafullcafe", "contact:instagram": "buddhafullprovisions", "diet:vegan": "yes", "name": "Buddha-full - Lonsdale", "name:fr": "Buddha-full", "opening_hours": "Mo-Su 09:30-18:00", "phone": "+1-604-973-0231", "smoking": "no", "website": "https://www.buddha-full.ca/"}}, {"type": "node", "id": 4938851794, "lat": 49.3334059, "lon": -123.0886973, "tags": {"amenity": "restaurant", "cuisine": "chinese", "name": "Westview Oriental"}}, {"type": "node", "id": 4956101024, "lat": 49.2883458, "lon": -123.140457, "tags": {"addr:city": "Vancouver", "addr:housenumber": "1101", "addr:province": "BC", "addr:street": "Denman Street", "amenity": "restaurant", "cuisine": "burger", "indoor_seating": "yes", "name": "Frying Pan", "outdoor_seating": "no", "takeaway": "yes"}}, {"type": "node", "id": 4956101123, "lat": 49.2885437, "lon": -123.140147, "tags": {"addr:city": "Vancouver", "addr:housenumber": "1069", "addr:province": "BC", "addr:street": "Denman Street", "amenity": "restaurant", "check_date:opening_hours": "2022-10-29", "name": "Akira Sushi", "opening_hours:signed": "no", "phone": "+1-604-806-6321", "wheelchair": "yes"}}, {"type": "node", "id": 4969363221, "lat": 49.288583, "lon": -123.140079, "tags": {"addr:city": "Vancouver", "addr:housenumber": "1061", "addr:province": "BC", "addr:street": "Denman Street", "amenity": "restaurant", "name": "Bombay Kitchen On Denman", "opening_hours:signed": "no"}}, {"type": "node", "id": 4976343542, "lat": 49.2910377, "lon": -123.134512, "tags": {"addr:city": "Vancouver", "addr:housenumber": "1741", "addr:province": "BC", "addr:street": "Robson Street", "amenity": "restaurant", "indoor_seating": "yes", "name": "Flower & Horse In Spring", "opening_hours": "Tu-Fr 11:00-15:00,17:00-21:00; Sa,Su 11:00-21:00", "outdoor_seating": "no", "smoking": "no"}}, {"type": "node", "id": 4976343544, "lat": 49.2915752, "lon": -123.135063, "tags": {"addr:city": "Vancouver", "addr:housenumber": "788", "addr:postcode": "V6G 1C9", "addr:street": "Denman Street", "amenity": "restaurant", "cuisine": "ramen", "indoor_seating": "yes", "name": "Kintaro Ramen", "opening_hours": "Tu-Su 11:30-21:00", "outdoor_seating": "no", "phone": "+1-604-682-7568", "smoking": "no"}}, {"type": "node", "id": 4976343545, "lat": 49.2908264, "lon": -123.1361622, "tags": {"addr:city": "Vancouver", "addr:housenumber": "854", "addr:province": "BC", "addr:street": "Denman Street", "amenity": "restaurant", "check_date:opening_hours": "2024-07-27", "cuisine": "korean", "indoor_seating": "yes", "name": "Jinmi", "opening_hours": "12:00-15:00;17:00-22:00", "opening_hours:signed": "no", "outdoor_seating": "no", "smoking": "no", "website": "https://www.jinmidenman.ca/", "wheelchair": "yes"}}, {"type": "node", "id": 4976343547, "lat": 49.2909675, "lon": -123.136495, "tags": {"addr:city": "Vancouver", "addr:housenumber": "847", "addr:province": "BC", "addr:street": "Denman Street", "amenity": "restaurant", "check_date:opening_hours": "2022-10-29", "indoor_seating": "yes", "name": "Ma Dang Goul", "opening_hours:signed": "no", "outdoor_seating": "no", "smoking": "no", "wheelchair": "limited"}}, {"type": "node", "id": 4976343548, "lat": 49.2911695, "lon": -123.1361902, "tags": {"addr:city": "Vancouver", "addr:housenumber": "823", "addr:street": "Denman Street", "amenity": "restaurant", "check_date": "2024-09-19", "cuisine": "japanese", "indoor_seating": "yes", "internet_access": "wlan", "internet_access:fee": "customers", "name": "Zakkushi", "opening_hours": "Mo-Th 17:00-23:00; Fr 17:00-24:00; Sa 12:00-24:00; Su 12:00-23:00", "outdoor_seating": "no", "payment:cash": "yes", "payment:credit_cards": "yes", "payment:debit_cards": "yes", "phone": "+1-604-685-1136", "smoking": "no", "website": "https://zakkushi.com/zakkushi/denman/", "wheelchair": "no"}}, {"type": "node", "id": 4976343550, "lat": 49.2914, "lon": -123.135787, "tags": {"addr:city": "Vancouver", "addr:housenumber": "815", "addr:province": "BC", "addr:street": "Denman Street", "amenity": "restaurant", "indoor_seating": "yes", "name": "Ukrainian Village Restaurant", "opening_hours:signed": "no", "outdoor_seating": "no", "smoking": "no", "toilets": "yes", "toilets:wheelchair": "yes", "wheelchair": "limited"}}, {"type": "node", "id": 4976343552, "lat": 49.2869447, "lon": -123.14199, "tags": {"addr:city": "Vancouver", "addr:housenumber": "1210", "addr:province": "BC", "addr:street": "Denman Street", "amenity": "restaurant", "name": "Hook Cantina", "opening_hours": "Tu-Fr 16:00-24:00; Sa,Su 12:00-24:00", "phone": "+1-604-620-4668", "website": "https://www.hookcantina.com//"}}, {"type": "node", "id": 4976349581, "lat": 49.2906257, "lon": -123.136971, "tags": {"addr:city": "Vancouver", "addr:housenumber": "867", "addr:province": "BC", "addr:street": "Denman Street", "amenity": "restaurant", "check_date:opening_hours": "2022-07-07", "indoor_seating": "yes", "name": "Damso Restaurant", "opening_hours:signed": "no", "outdoor_seating": "no", "smoking": "no", "wheelchair": "limited"}}, {"type": "node", "id": 4976349582, "lat": 49.2907749, "lon": -123.13675, "tags": {"addr:city": "Vancouver", "addr:housenumber": "851", "addr:street": "Denman Street", "amenity": "restaurant", "indoor_seating": "yes", "name": "Khaghan Restaurant", "opening_hours": "Su-Fr 11:00-22:00", "outdoor_seating": "yes", "smoking": "no", "toilets": "yes", "toilets:wheelchair": "yes", "wheelchair": "limited"}}, {"type": "node", "id": 5032931724, "lat": 49.3237443, "lon": -123.1111037, "tags": {"addr:city": "District of North Vancouver", "addr:housenumber": "1307", "addr:street": "Marine Drive", "amenity": "restaurant", "indoor_seating": "yes", "name": "Sushi Man", "outdoor_seating": "no", "smoking": "no"}}, {"type": "node", "id": 5032931726, "lat": 49.3244385, "lon": -123.1081907, "tags": {"addr:city": "District of North Vancouver", "addr:housenumber": "1240", "addr:street": "Marine Drive", "amenity": "restaurant", "name": "Capilano Sushi"}}, {"type": "node", "id": 5032931727, "lat": 49.3245337, "lon": -123.1074028, "tags": {"addr:city": "District of North Vancouver", "addr:housenumber": "1660", "addr:street": "Pemberton Avenue", "amenity": "restaurant", "name": "C-Lovers Fish & Chips"}}, {"type": "node", "id": 5032931728, "lat": 49.3240623, "lon": -123.1087802, "tags": {"addr:city": "District of North Vancouver", "addr:housenumber": "107-1226", "addr:street": "Marine Drive", "amenity": "restaurant", "brand": "White Spot", "brand:wikidata": "Q7995414", "brand:wikipedia": "en:White Spot", "cuisine": "burger", "indoor_seating": "yes", "name": "White Spot", "outdoor_seating": "yes", "smoking": "no"}}, {"type": "node", "id": 5032931731, "lat": 49.3240676, "lon": -123.1120326, "tags": {"addr:city": "District of North Vancouver", "addr:housenumber": "106-1346", "addr:street": "Marine Drive", "amenity": "restaurant", "indoor_seating": "yes", "name": "Kypriaki Mediterranean Grill", "outdoor_seating": "yes", "smoking": "no"}}, {"type": "node", "id": 5032931732, "lat": 49.3235304, "lon": -123.1143513, "tags": {"addr:housenumber": "1469", "addr:street": "Marine Drive", "amenity": "restaurant", "cuisine": "vietnamese", "name": "Pho Garden", "smoking": "no"}}, {"type": "node", "id": 5032931735, "lat": 49.3237372, "lon": -123.115068, "tags": {"addr:city": "North Vancouver", "addr:housenumber": "1509", "addr:province": "BC", "addr:street": "Marine Drive", "amenity": "restaurant", "name": "Casa Corsi"}}, {"type": "node", "id": 5032946045, "lat": 49.3236975, "lon": -123.1072957, "tags": {"addr:city": "District of North Vancouver", "addr:housenumber": "1195", "addr:street": "Marine Drive", "amenity": "restaurant", "indoor_seating": "yes", "name": "Jade Garden Kitchen", "outdoor_seating": "no", "smoking": "no"}}, {"type": "node", "id": 5032946049, "lat": 49.3174516, "lon": -123.112028, "tags": {"addr:housenumber": "1305", "addr:postcode": "V7P 1A9", "addr:street": "Welch Street", "addr:unit": "213", "amenity": "restaurant", "cuisine": "mexican", "name": "La Taqueria", "website": "https://www.lataqueria.com"}}, {"type": "node", "id": 5090908721, "lat": 49.3241041, "lon": -123.1121169, "tags": {"addr:housenumber": "1356", "addr:postcode": "V7P 1T4", "addr:street": "Marine Drive", "amenity": "restaurant", "cuisine": "chinese", "indoor_seating": "yes", "internet_access": "wlan", "name": "Lion Hot Pot", "name:en": "Lion Hot Pot", "opening_hours": "Mo-Sa 11:30-21:30; Su 17:00-21:30", "outdoor_seating": "no", "phone": "+1-604-770-0977", "smoking": "no"}}, {"type": "node", "id": 5120602568, "lat": 49.2996655, "lon": -123.1338483, "tags": {"addr:city": "Vancouver", "addr:housenumber": "610", "addr:province": "BC", "addr:street": "Pipeline Road", "amenity": "restaurant", "name": "Stanley's Bar and Grill", "opening_hours": "Jul-Aug 11:00-19:00", "outdoor_seating": "yes", "phone": "+1-604-602-3088 ext. 2", "website": "https://stanleysbargrill.com/"}}, {"type": "node", "id": 5127558421, "lat": 49.2873576, "lon": -123.141418, "tags": {"addr:city": "Vancouver", "addr:housenumber": "1184", "addr:province": "BC", "addr:street": "Denman Street", "addr:unit": "104", "amenity": "restaurant", "check_date:opening_hours": "2022-10-29", "drive_through": "no", "indoor_seating": "yes", "name": "Vonns", "opening_hours:signed": "no", "outdoor_seating": "yes", "phone": "+1-604-669-8988", "smoking": "no", "website": "https://vonns.ca/"}}, {"type": "node", "id": 5165662511, "lat": 49.3794658, "lon": -123.3355263, "tags": {"addr:city": "Bowen Island", "addr:housenumber": "451", "addr:province": "BC", "addr:street": "Bowen Island Trunk Road", "amenity": "restaurant", "cuisine": "italian", "name": "Tuscany Restaurant", "opening_hours": "We-Su 17:00-20:00"}}, {"type": "node", "id": 5166639417, "lat": 49.3795765, "lon": -123.3341454}, {"type": "node", "id": 5231664520, "lat": 49.3117439, "lon": -123.0790782, "tags": {"addr:city": "North Vancouver City", "addr:housenumber": "91", "addr:street": "Lonsdale Avenue", "amenity": "restaurant", "cuisine": "seafood", "indoor_seating": "yes", "name": "Fishworks", "outdoor_seating": "yes", "smoking": "no", "toilets:wheelchair": "yes", "wheelchair": "yes"}}, {"type": "node", "id": 5231664924, "lat": 49.3117248, "lon": -123.0790946}, {"type": "node", "id": 5231664925, "lat": 49.3116662, "lon": -123.079153}, {"type": "node", "id": 5231664926, "lat": 49.3117557, "lon": -123.0793641}, {"type": "node", "id": 5231664927, "lat": 49.3118143, "lon": -123.0793056}, {"type": "node", "id": 5235293225, "lat": 49.3125664, "lon": -123.0822132, "tags": {"addr:city": "North Vancouver City", "addr:housenumber": "88", "addr:street": "Chesterfield Avenue", "amenity": "restaurant", "brand": "Boston Pizza", "brand:wikidata": "Q894578", "brand:wikipedia": "en:Boston Pizza", "cuisine": "pizza", "name": "Boston Pizza", "phone": "+1-778-340-1514", "smoking": "no"}}, {"type": "node", "id": 5235293227, "lat": 49.3124327, "lon": -123.08221, "tags": {"addr:city": "North Vancouver City", "addr:housenumber": "180", "addr:street": "West Esplanade", "addr:unit": "2", "amenity": "restaurant", "brand": "Freshii", "brand:wikidata": "Q5503051", "brand:wikipedia": "en:Freshii", "cuisine": "salad", "name": "Freshii", "phone": "+1-778-729-0838", "smoking": "no"}}, {"type": "node", "id": 5258157168, "lat": 49.3267728, "lon": -123.137509, "tags": {"addr:city": "West Vancouver", "addr:housenumber": "110-731", "addr:street": "Main Street", "amenity": "restaurant", "branch": "Steakhouse + Bar", "brand": "The Keg", "brand:wikidata": "Q7744066", "brand:wikipedia": "en:The Keg", "cuisine": "steak_house", "indoor_seating": "yes", "level": "1", "name": "The Keg", "outdoor_seating": "no", "smoking": "no", "website": "https://thekeg.com/en/locations/park-royal", "website:en": "https://thekeg.com/en/locations/park-royal", "website:fr": "https://thekeg.com/fr/restaurants/park-royal"}}, {"type": "node", "id": 5258157169, "lat": 49.3251213, "lon": -123.124436}, {"type": "node", "id": 5261038722, "lat": 49.3101746, "lon": -123.0828871, "tags": {"amenity": "restaurant", "name": "Little Tokyo Sushi"}}, {"type": "node", "id": 5287258573, "lat": 49.3281564, "lon": -123.0725782, "tags": {"amenity": "restaurant", "cuisine": "persian", "name": "Yaas Grill House"}}, {"type": "node", "id": 5287258574, "lat": 49.3279483, "lon": -123.0724252, "tags": {"addr:postcode": "V7M2K4", "amenity": "restaurant", "cuisine": "indian", "name": "Indian Fusion", "opening_hours": "Mo-Fr 11:30-21:30; Sa-Su 12:00-21:30", "phone": "6049849977", "website": "http://indianfusiononline.com"}}, {"type": "node", "id": 5287258575, "lat": 49.3279098, "lon": -123.0724225, "tags": {"amenity": "restaurant", "cuisine": "sushi", "name": "Haru Sushi"}}, {"type": "node", "id": 5287258576, "lat": 49.3278642, "lon": -123.0724211, "tags": {"addr:city": "North Vancouver", "addr:housenumber": "2039", "addr:province": "BC", "addr:street": "Lonsdale Avenue", "amenity": "restaurant", "cuisine": "korean", "name": "Bori Korean Restaurant", "opening_hours": "Mo 12:00-21:00; We-Su 11:30-21:30", "phone": "+1-604-987-0102", "smoking": "no", "wheelchair": "yes"}}, {"type": "node", "id": 5287258581, "lat": 49.3271302, "lon": -123.072477, "tags": {"amenity": "restaurant", "cuisine": "sushi", "name": "Sushi UMI"}}, {"type": "node", "id": 5287258584, "lat": 49.3268197, "lon": -123.0724864, "tags": {"addr:city": "North Vancouver", "addr:housenumber": "1933", "addr:province": "BC", "addr:street": "Lonsdale Avenue", "amenity": "restaurant", "name": "Tequila Cocina Cantina & Traditional Mexican Eatery"}}, {"type": "node", "id": 5287258585, "lat": 49.3267078, "lon": -123.0724863, "tags": {"amenity": "restaurant", "cuisine": "chinese", "name": "Chilli Lee Szechuan Cuisine"}}, {"type": "node", "id": 5287258586, "lat": 49.3266675, "lon": -123.0724874, "tags": {"amenity": "restaurant", "cuisine": "indian", "name": "Pawans Indian Kitchen"}}, {"type": "node", "id": 5297240723, "lat": 49.3099998, "lon": -123.0820407, "tags": {"amenity": "restaurant", "cuisine": "korean", "name": "The Fried Chicken Works Korean"}}, {"type": "node", "id": 5297361622, "lat": 49.3118642, "lon": -123.0764933, "tags": {"addr:city": "North Vancouver", "addr:housenumber": "141", "addr:province": "BC", "addr:street": "East 2nd Street", "amenity": "restaurant", "contact:phone": "+1 604-960-0612", "contact:website": "http://www.southcastlekorean.com", "cuisine": "korean", "level": "0", "name": "South Castle Korean Restaurant", "name:ko": "\ub0a8\ud55c\uc0b0\uc131 \uc21c\ub300", "opening_hours": "Mo-Su 11:30-21:00"}}, {"type": "node", "id": 5297440523, "lat": 49.2888741, "lon": -123.13173, "tags": {"addr:city": "Vancouver", "addr:housenumber": "1518", "addr:province": "BC", "addr:street": "Robson Street", "amenity": "restaurant", "check_date": "2024-09-18", "cuisine": "korean", "diet:vegetarian": "yes", "indoor_seating": "yes", "name": "Sura Korean", "opening_hours": "Mo-Su 11:30-16:00,17:00-21:30", "outdoor_seating": "no", "phone": "+1-604-687-7872", "reservation": "no", "smoking": "no", "website": "https://www.surakoreancuisine.com/#robson", "wheelchair": "yes"}}, {"type": "node", "id": 5297451021, "lat": 49.2898464, "lon": -123.133158, "tags": {"addr:city": "Vancouver", "addr:housenumber": "1642", "addr:province": "BC", "addr:street": "Robson Street", "amenity": "restaurant", "check_date": "2024-09-18", "cuisine": "korean", "indoor_seating": "yes", "name": "Hongdae Pocha Korean", "opening_hours": "Su-Th 17:00-01:00, Fr,Sa 17:00-02:00", "outdoor_seating": "no", "smoking": "no", "wheelchair": "yes"}}, {"type": "node", "id": 5304492039, "lat": 49.2892247, "lon": -123.132281, "tags": {"addr:city": "Vancouver", "addr:housenumber": "1588", "addr:street": "Robson Street", "amenity": "restaurant", "check_date": "2024-09-19", "cuisine": "japanese;tonkatsu;udon", "indoor_seating": "yes", "name": "Saku", "opening_hours": "Mo-Th 11:30-15:00,17:00-21:30; Fr-Su 11:30-21:30", "outdoor_seating": "no", "payment:cash": "yes", "payment:credit_cards": "yes", "payment:debit_cards": "yes", "phone": "+1-778-379-5872", "smoking": "no", "website": "https://www.sakuvancouver.com/"}}, {"type": "node", "id": 5310058460, "lat": 49.3126822, "lon": -123.0774776, "tags": {"addr:city": "North Vancouver", "addr:housenumber": "100", "addr:province": "BC", "addr:street": "East 2nd Street", "amenity": "restaurant", "contact:phone": "+1 236-551-2236", "contact:website": "https://gringorestaurants.com/north-van/", "cuisine": "mexican", "name": "Gringo", "opening_hours": "Mo-Su 12:00-24:00"}}, {"type": "node", "id": 5310061144, "lat": 49.3130233, "lon": -123.077144, "tags": {"addr:city": "North Vancouver City", "addr:housenumber": "228", "addr:province": "BC", "addr:street": "Lonsdale Avenue", "amenity": "restaurant", "name": "Winston"}}, {"type": "node", "id": 5587643091, "lat": 49.325981, "lon": -123.142336, "tags": {"amenity": "restaurant", "brand": "Cactus Club Cafe", "brand:wikidata": "Q5016149", "cuisine": "international", "name": "Cactus Club Cafe"}}, {"type": "node", "id": 5697508529, "lat": 49.2886796, "lon": -123.1308269, "tags": {"addr:city": "Vancouver", "addr:housenumber": "1487", "addr:province": "BC", "addr:street": "Robson Street", "amenity": "restaurant", "check_date": "2024-09-18", "diet:vegetarian": "no", "indoor_seating": "yes", "name": "The Captain's Boil", "opening_hours": "Mo-Su 12:30-21:00", "outdoor_seating": "no", "smoking": "no", "wheelchair": "yes"}}, {"type": "node", "id": 5697508530, "lat": 49.2886197, "lon": -123.130733, "tags": {"addr:city": "Vancouver", "addr:housenumber": "1479", "addr:province": "BC", "addr:street": "Robson Street", "amenity": "restaurant", "check_date": "2024-12-26", "indoor_seating": "yes", "name": "Big Way Hot Pot", "opening_hours:signed": "no", "outdoor_seating": "no", "smoking": "no", "wheelchair": "yes"}}, {"type": "node", "id": 5720904687, "lat": 49.3229652, "lon": -123.0991665, "tags": {"addr:city": "North Vancouver", "addr:housenumber": "950", "addr:street": "Marine Drive", "amenity": "restaurant", "name": "Crispy", "smoking": "no"}}, {"type": "node", "id": 5720904688, "lat": 49.3234467, "lon": -123.0993769, "tags": {"addr:city": "North Vancouver", "addr:housenumber": "942B", "addr:street": "West 16th Street", "amenity": "restaurant", "name": "Yummy Donair & Kebab"}}, {"type": "node", "id": 5752563652, "lat": 49.3264675, "lon": -123.1203591, "tags": {"amenity": "restaurant", "cuisine": "turkish", "name": "Ali & Baba", "opening_hours": "Mo-Sa 11:30-23:30; Su 11:30-22:30"}}, {"type": "node", "id": 5761161925, "lat": 49.2886642, "lon": -123.1151811, "tags": {"addr:city": "Vancouver", "addr:housenumber": "1055", "addr:province": "BC", "addr:street": "Canada Place", "addr:unit": "26", "amenity": "restaurant", "name": "Chop Steakhouse & Bar", "outdoor_seating": "yes"}}, {"type": "node", "id": 5772056765, "lat": 49.373866, "lon": -123.2745596, "tags": {"amenity": "restaurant", "name": "Pudgie's Pizza & Pasta"}}, {"type": "node", "id": 5772056766, "lat": 49.373832, "lon": -123.2746014, "tags": {"addr:housenumber": "6612", "addr:postcode": "V7W 2B9", "addr:street": "Royal Avenue", "amenity": "restaurant", "cuisine": "chinese;western", "name": "Horseshoe Bay Chinese Restaurant", "opening_hours": "Mo-Su 12:00-20:00", "phone": "+1-604-921-8828", "website": "https://m.facebook.com/Horseshoe-Bay-Chinese-Restaurant-477089473028528/"}}, {"type": "node", "id": 5797242469, "lat": 49.287878, "lon": -123.1184376, "tags": {"addr:city": "Vancouver", "addr:province": "BC", "amenity": "restaurant", "cuisine": "oyster", "name": "Chewies", "wheelchair": "yes"}}, {"type": "node", "id": 5797379207, "lat": 49.2859601, "lon": -123.127406, "tags": {"addr:city": "Vancouver", "addr:province": "BC", "amenity": "restaurant", "cuisine": "japanese;ramen;sushi", "indoor_seating": "yes", "name": "Ebisu", "opening_hours": "Mo-Fr 12:00-18:00, Su-Th 15:00-23:00, Fr,Sa 15:00-01:00", "outdoor_seating": "yes", "smoking": "no"}}, {"type": "node", "id": 5827984711, "lat": 49.2881797, "lon": -123.117124, "tags": {"addr:city": "Vancouver", "addr:housenumber": "1038", "addr:postcode": "V6C 0B9", "addr:province": "BC", "addr:street": "Canada Place", "amenity": "restaurant", "check_date": "2023-01-25", "cuisine": "international;regional", "delivery": "no", "email": "info@botanistrestaurant.com", "name": "Botanist", "note": "The restaurant is located inside the Fairmont Pacific Rim hotel. It features a dining room, outside sitting into the hotel garden as well as a bar/lounge.", "opening_hours": "Mo-Fr 06:30-22:00; Sa-Su 07:00-22:00", "outdoor_seating": "yes", "phone": "+1-604-695-5500", "takeaway": "yes", "toilets:wheelchair": "yes", "wheelchair": "yes"}}, {"type": "node", "id": 5833335061, "lat": 49.3432371, "lon": -123.1138697}, {"type": "node", "id": 5833335062, "lat": 49.3431546, "lon": -123.1138424}, {"type": "node", "id": 5833335063, "lat": 49.3431428, "lon": -123.1139263}, {"type": "node", "id": 5833335064, "lat": 49.3432253, "lon": -123.1139535}, {"type": "node", "id": 5837059822, "lat": 49.2877451, "lon": -123.12066, "tags": {"addr:city": "Vancouver", "addr:housenumber": "1109", "addr:postcode": "V6E 2P4", "addr:province": "BC", "addr:street": "West Pender Street", "amenity": "restaurant", "check_date:opening_hours": "2024-07-27", "name": "Le Petit Cr\u00eape", "opening_hours:signed": "no", "phone": "+1-604-669-1581"}}, {"type": "node", "id": 5837059827, "lat": 49.2874987, "lon": -123.123306, "tags": {"addr:city": "Vancouver", "addr:housenumber": "1181", "addr:postcode": "V6E 0A3", "addr:province": "BC", "addr:street": "Melville Street", "amenity": "restaurant", "check_date:opening_hours": "2022-09-24", "indoor_seating": "yes", "name": "Tableau", "opening_hours": "Su- Th 07-22:00; Fr-Sa 07:00-23:00", "opening_hours:signed": "no", "outdoor_seating": "no", "phone": "+1-604-639-8692", "smoking": "no"}}, {"type": "node", "id": 5837608675, "lat": 49.2873492, "lon": -123.12363, "tags": {"addr:city": "Vancouver", "addr:housenumber": "1160", "addr:postcode": "V6E 2S8", "addr:province": "BC", "addr:street": "Melville Street", "amenity": "restaurant", "check_date:opening_hours": "2022-06-26", "cuisine": "japanese;sushi", "name": "Domo Sushi", "opening_hours": "Mo-Fr 11:00-20:30; Sa 12:00-20:30", "opening_hours:signed": "no", "phone": "+1-604-688-2258", "website": "https://domo-sushi.com/"}}, {"type": "node", "id": 5847786585, "lat": 49.2914507, "lon": -123.135128, "tags": {"addr:city": "Vancouver", "addr:housenumber": "1793", "addr:province": "BC", "addr:street": "Robson Street", "amenity": "restaurant", "check_date": "2024-09-18", "diet:vegetarian": "yes", "indoor_seating": "yes", "name": "Afgani Kabul Kebab Donair", "opening_hours:signed": "no", "outdoor_seating": "yes", "smoking": "no"}}, {"type": "node", "id": 5849976885, "lat": 49.2863433, "lon": -123.12779, "tags": {"addr:city": "Vancouver", "addr:housenumber": "1236", "addr:postcode": "V6E 1C1", "addr:province": "BC", "addr:street": "Robson Street", "amenity": "restaurant", "check_date": "2024-09-18", "check_date:opening_hours": "2023-08-19", "cuisine": "thai", "diet:vegetarian": "yes", "indoor_seating": "yes", "internet_access": "wlan", "name": "Rice & Noodle", "name:en": "Rice & Noodle", "opening_hours": "Mo-Su 11:00-23:00", "opening_hours:signed": "no", "outdoor_seating": "no", "payment:credit_cards": "yes", "payment:debit_cards": "yes", "phone": "+1-604-693-0055", "smoking": "no", "website": "https://www.thericeandnoodle.com/", "wheelchair": "yes"}}, {"type": "node", "id": 5862689185, "lat": 49.2874308, "lon": -123.117594, "tags": {"addr:city": "Vancouver", "addr:housenumber": "1017", "addr:postcode": "V6E 0C4", "addr:province": "BC", "addr:street": "West Hastings Street", "air_conditioning": "yes", "amenity": "restaurant", "changing_table": "yes", "check_date": "2024-07-06", "check_date:opening_hours": "2023-10-12", "cuisine": "salad", "email": "info@hawknightingale.com", "highchair": "yes", "indoor_seating": "yes", "name": "Nightingale", "opening_hours:signed": "no", "outdoor_seating": "no", "phone": "+1-604-695-9500", "reservation": "yes", "smoking": "no", "toilets": "yes", "toilets:wheelchair": "yes", "website": "https://www.hawknightingale.com/", "wheelchair": "yes"}}, {"type": "node", "id": 5950632794, "lat": 49.3287734, "lon": -123.1611177, "tags": {"addr:housenumber": "1739", "addr:postcode": "V7V 1J5", "addr:street": "Marine Drive", "amenity": "restaurant", "cuisine": "korean;sushi", "name": "SSal Sushi & Grill", "opening_hours": "Tu-Su 11:30-21:00; Mo,PH off", "phone": "+1 778 279 1069", "website": "https://ssalsushingrill.com"}}, {"type": "node", "id": 5950632795, "lat": 49.3287736, "lon": -123.1612369, "tags": {"addr:housenumber": "1747", "addr:postcode": "V7V 1J5", "addr:street": "Marine Drive", "amenity": "restaurant", "contact:facebook": "CasaDiAmiciRest", "contact:instagram": "casadiamicirestaurant", "contact:twitter": "casadiamicirest", "cuisine": "fine_dining;italian", "email": "info@casadiamici.ca", "name": "Casa di Amici", "opening_hours": "11:30-21:30", "phone": "+1 604 912 0251", "smoking": "no", "website": "https://casadiamici.ca"}}, {"type": "node", "id": 5950632797, "lat": 49.328498, "lon": -123.1633547, "tags": {"addr:city": "West Vancouver", "addr:housenumber": "1850", "addr:street": "Marine Drive", "amenity": "restaurant", "name": "Cindy's", "smoking": "no"}}, {"type": "node", "id": 5950632799, "lat": 49.3285008, "lon": -123.1610892, "tags": {"addr:city": "West Vancouver", "addr:housenumber": "1734", "addr:street": "Marine Drive", "amenity": "restaurant", "indoor_seating": "yes", "name": "Swad Indian Kitchen", "outdoor_seating": "no", "smoking": "no"}}, {"type": "node", "id": 5950632800, "lat": 49.328499, "lon": -123.1612718, "tags": {"addr:city": "West Vancouver", "addr:housenumber": "1746", "addr:street": "Marine Drive", "amenity": "restaurant", "indoor_seating": "yes", "name": "Rose Persian Cuisine", "outdoor_seating": "no", "smoking": "no"}}, {"type": "node", "id": 5950632802, "lat": 49.3277375, "lon": -123.1583448, "tags": {"addr:city": "West Vancouver", "addr:housenumber": "1579", "addr:street": "Bellevue Avenue", "amenity": "restaurant", "indoor_seating": "yes", "name": "Handi Indian Restaurant", "outdoor_seating": "no", "smoking": "no"}}, {"type": "node", "id": 5950632808, "lat": 49.3283947, "lon": -123.1584273, "tags": {"addr:housenumber": "1574", "addr:postcode": "V7V 1H8", "addr:street": "Marine Drive", "amenity": "restaurant", "cuisine": "sushi", "indoor_seating": "yes", "name": "Bene Sushi", "opening_hours": "11:30-21:30", "outdoor_seating": "no", "phone": "+1 604 913 1112", "smoking": "no", "website": "https://benesushi.com"}}, {"type": "node", "id": 5950632812, "lat": 49.3289098, "lon": -123.1562157, "tags": {"addr:housenumber": "1479", "addr:street": "Clyde Avenue", "amenity": "restaurant", "name": "Shanghai Village"}}, {"type": "node", "id": 5950632815, "lat": 49.3282183, "lon": -123.1551118, "tags": {"addr:housenumber": "1425", "addr:postcode": "V7T 1B9", "addr:street": "Marine Drive", "addr:unit": "130", "amenity": "restaurant", "name": "Lao Chi Chinese Cuisine", "opening_hours": "11:00-20:00", "phone": "+1 604 925 9231", "smoking": "no", "website": "https://www.laocai.ca/"}}, {"type": "node", "id": 5950632816, "lat": 49.327463, "lon": -123.153993, "tags": {"addr:housenumber": "1375", "addr:postcode": "V7T 0B5", "addr:street": "Bellevue Avenue", "amenity": "restaurant", "brand": "Earls", "brand:wikidata": "Q5326525", "cuisine": "american", "diet:vegan": "yes", "diet:vegetarian": "only", "indoor_seating": "yes", "name": "Earls", "opening_hours": "Mo-Fr 11:00-23:00; Sa,Su 10:00-23:00", "outdoor_seating": "yes", "smoking": "no", "wheelchair": "yes"}}, {"type": "node", "id": 5950632818, "lat": 49.3284002, "lon": -123.1562601, "tags": {"addr:housenumber": "1487", "addr:postcode": "V7T 1B8", "addr:street": "Marine Drive", "amenity": "restaurant", "check_date:opening_hours": "2024-03-31", "cuisine": "chinese", "indoor_seating": "yes", "name": "Ginger & Soy Chinese Cuisine", "opening_hours": "We-Mo 11:30-21:30", "outdoor_seating": "no", "smoking": "no", "website": "https://gingersoytogo.com"}}, {"type": "node", "id": 6005956885, "lat": 49.2877455, "lon": -123.141335, "tags": {"addr:city": "Vancouver", "addr:housenumber": "1193", "addr:province": "BC", "addr:street": "Denman Street", "amenity": "restaurant", "check_date:opening_hours": "2022-10-29", "indoor_seating": "yes", "internet_access": "wlan", "name": "Papi's Seafood and Oyster Bar", "opening_hours:signed": "no", "outdoor_seating": "yes", "smoking": "no"}}, {"type": "node", "id": 6014566785, "lat": 49.3116069, "lon": -123.0748444, "tags": {"addr:city": "North Vancouver", "addr:housenumber": "180", "addr:province": "BC", "addr:street": "East 2nd Street", "amenity": "restaurant", "contact:phone": "+1 778-340-0777", "contact:website": "https://sushikumo.ca/", "cuisine": "japanese;sushi", "name": "Sushi Kumo", "opening_hours": "Mo-Su 11:30-21:30"}}, {"type": "node", "id": 6014566885, "lat": 49.3120538, "lon": -123.0743405, "tags": {"amenity": "restaurant", "cuisine": "vietnamese", "name": "V-Nam", "smoking": "no"}}, {"type": "node", "id": 6036720777, "lat": 49.3261888, "lon": -123.139149, "tags": {"addr:city": "West Vancouver", "addr:housenumber": "788", "addr:province": "BC", "addr:street": "Main Street", "amenity": "restaurant", "cuisine": "ramen;japanese", "indoor_seating": "yes", "level": "0", "name": "ZUBU Ramen", "outdoor_seating": "yes"}}, {"type": "node", "id": 6036723144, "lat": 49.3259573, "lon": -123.1395117, "tags": {"amenity": "restaurant", "cuisine": "chinese", "indoor_seating": "yes", "level": "0", "name": "Legendary Hot Pot", "outdoor_seating": "no"}}, {"type": "node", "id": 6036723170, "lat": 49.3264809, "lon": -123.1374744, "tags": {"amenity": "restaurant", "cuisine": "sushi", "level": "0", "name": "Hello Nori"}}, {"type": "node", "id": 6040685042, "lat": 49.3108849, "lon": -123.0799822, "tags": {"amenity": "restaurant", "cuisine": "thai;burger", "diet:vegetarian": "yes", "indoor_seating": "yes", "name": "Raglan\u2019s Bistro", "outdoor_seating": "yes", "smoking": "no", "website": "https://raglans.ca/"}}, {"type": "node", "id": 6133989587, "lat": 49.2882329, "lon": -123.12745, "tags": {"addr:housenumber": "1328", "addr:street": "West Georgia Street", "amenity": "restaurant", "name": "Trish Juice", "opening_hours": "Mo-Fr 10:00-20:00; Sa,Su 08:00-20:00", "smoking": "no"}}, {"type": "node", "id": 6148834594, "lat": 49.3120589, "lon": -123.0795495, "tags": {"addr:city": "North Vancouver", "addr:housenumber": "117", "addr:street": "West 1st Street", "amenity": "restaurant", "contact:phone": "+1-604-968-1171", "contact:website": "http://greenleafsushi.ca/northvancouver/", "cuisine": "sushi", "indoor_seating": "yes", "name": "The Green Leaf Aburi Sushi", "opening_hours": "Mo-Su 11:00-21:00", "outdoor_seating": "no", "smoking": "no"}}, {"type": "node", "id": 6148834595, "lat": 49.3122227, "lon": -123.077183, "tags": {"addr:city": "North Vancouver", "addr:housenumber": "119", "addr:province": "BC", "addr:street": "East 2nd Street", "amenity": "restaurant", "contact:phone": "+1 604-980-3300", "contact:website": "https://www.farinaalegna.com", "cuisine": "pizza;italian", "name": "Farina a Legna", "opening_hours": "Mo-Th 16:00-21:00; Fr 16:00-22:00; Sa 12:00-22:00; Su 12:00-21:00"}}, {"type": "node", "id": 6148834596, "lat": 49.3106064, "lon": -123.0802697, "tags": {"addr:city": "North Vancouver", "addr:housenumber": "3", "addr:street": "Lonsdale Avenue", "amenity": "restaurant", "indoor_seating": "yes", "name": "Burgoo Bistro", "outdoor_seating": "yes", "smoking": "no"}}, {"type": "node", "id": 6148834597, "lat": 49.3106852, "lon": -123.0801966, "tags": {"addr:city": "North Vancouver", "addr:housenumber": "5", "addr:street": "Lonsdale Avenue", "amenity": "restaurant", "cuisine": "greek", "indoor_seating": "yes", "name": "Anatoli Souvlaki", "outdoor_seating": "yes", "smoking": "no"}}, {"type": "node", "id": 6148834600, "lat": 49.3099781, "lon": -123.08279, "tags": {"addr:city": "North Vancouver", "addr:housenumber": "143", "addr:street": "Chadwick Court", "amenity": "restaurant", "name": "VUA Sandwiches"}}, {"type": "node", "id": 6148845953, "lat": 49.3200814, "lon": -123.070244, "tags": {"addr:city": "North Vancouver", "addr:housenumber": "148", "addr:street": "East 13th Street", "amenity": "restaurant", "amenity_1": "fast_food", "brand": "Nando's", "brand:wikidata": "Q3472954", "brand:wikipedia": "en:Nando's", "cuisine": "chicken;portuguese", "name": "Nando's"}}, {"type": "node", "id": 6148845958, "lat": 49.3190471, "lon": -123.0726675, "tags": {"addr:city": "North Vancouver", "addr:housenumber": "1205", "addr:street": "Lonsdale Avenue", "amenity": "restaurant", "contact:phone": "+1-604-929-1231", "contact:website": "http://www.gahyangru.com/", "cuisine": "korean;chinese", "name": "Ga Hyang Ru", "name:ko": "\uac00\ud5a5\ub8e8", "opening_hours": "Mo-Su 11:30-21:00"}}, {"type": "node", "id": 6148845959, "lat": 49.3191771, "lon": -123.0726668, "tags": {"addr:city": "North Vancouver", "addr:housenumber": "1211", "addr:street": "Lonsdale Avenue", "amenity": "restaurant", "contact:phone": "+1-604-990-1218", "contact:website": "https://www.bridgebrewing.com/lonsdale-bridgedeck", "name": "BridgeDeck Kitchen & Taps", "opening_hours": "Mo-Fr 11:00-22:00; Sa,Su 10:00-22:00"}}, {"type": "node", "id": 6216412186, "lat": 49.2881226, "lon": -123.140291, "tags": {"addr:city": "Vancouver", "addr:housenumber": "1114", "addr:province": "BC", "addr:street": "Denman Street", "amenity": "restaurant", "indoor_seating": "yes", "name": "Tre Viet", "opening_hours:signed": "no", "outdoor_seating": "yes", "smoking": "no", "wheelchair": "yes"}}, {"type": "node", "id": 6322544028, "lat": 49.287548, "lon": -123.121038, "tags": {"addr:city": "Vancouver", "addr:province": "BC", "addr:street": "West Pender Street", "amenity": "restaurant", "check_date:opening_hours": "2022-10-08", "cuisine": "asian", "name": "Heritage Asian Eatery", "opening_hours:signed": "no"}}, {"type": "node", "id": 6322544029, "lat": 49.2873634, "lon": -123.121674, "tags": {"addr:city": "Vancouver", "addr:province": "BC", "amenity": "restaurant", "cuisine": "indian", "name": "Indian Delicacy", "opening_hours": "Mo-Fr 11:30-21:30; Sa,Su 16:30-21:30", "outdoor_seating": "no"}}, {"type": "node", "id": 6322544030, "lat": 49.2876652, "lon": -123.121895, "tags": {"addr:city": "Vancouver", "addr:province": "BC", "addr:street": "West Pender Street", "amenity": "restaurant", "cuisine": "breakfast;filipino", "name": "Symphonie", "opening_hours": "Mo-Fr 07:30-14:00"}}, {"type": "node", "id": 6441930158, "lat": 49.3250873, "lon": -123.1243166}, {"type": "node", "id": 6441930159, "lat": 49.3251145, "lon": -123.1242984}, {"type": "node", "id": 6441930160, "lat": 49.3250949, "lon": -123.1242298}, {"type": "node", "id": 6441930161, "lat": 49.3251631, "lon": -123.1241841}, {"type": "node", "id": 6441930162, "lat": 49.325205, "lon": -123.1241912}, {"type": "node", "id": 6441930163, "lat": 49.3252501, "lon": -123.1243496}, {"type": "node", "id": 6484919232, "lat": 49.2892662, "lon": -123.126936, "tags": {"addr:city": "Vancouver", "addr:housenumber": "1368", "addr:province": "BC", "addr:street": "West Pender Street", "amenity": "restaurant", "cuisine": "sushi", "diet:vegetarian": "yes", "indoor_seating": "yes", "name": "Kiku Sushi Restaurant", "opening_hours": "Mo-Sa 11:30-21:30; Su 12:00-21:00", "outdoor_seating": "no", "smoking": "no"}}, {"type": "node", "id": 6545660733, "lat": 49.2862828, "lon": -123.127685, "tags": {"addr:city": "Vancouver", "addr:housenumber": "1232", "addr:province": "BC", "addr:street": "Robson Street", "amenity": "restaurant", "branch": "Robson", "brand": "Meet Fresh", "brand:wikidata": "Q11172707", "check_date": "2024-09-18", "cuisine": "taiwanese", "diet:vegetarian": "yes", "indoor_seating": "yes", "internet_access": "wlan", "internet_access:fee": "no", "name": "Meet Fresh", "opening_hours": "Mo-Th,Su 11:00-23:00; Fr,Sa 11:00-24:00", "outdoor_seating": "no", "payment:cash": "yes", "payment:credit_cards": "yes", "payment:debit_cards": "yes", "smoking": "no"}}, {"type": "node", "id": 6610970458, "lat": 49.2883664, "lon": -123.139947, "tags": {"addr:city": "Vancouver", "addr:housenumber": "1088", "addr:province": "BC", "addr:street": "Denman Street", "amenity": "restaurant", "check_date:opening_hours": "2024-07-27", "cuisine": "italian", "diet:vegetarian": "yes", "indoor_seating": "yes", "level": "0", "name": "Foodies Delight", "opening_hours": "Mo,Fr 12:00-20:30, Tu-Th 11:30-20:30, Sa-Su 11:00-20:30", "opening_hours:signed": "no", "outdoor_seating": "yes", "smoking": "no"}}, {"type": "node", "id": 6641011987, "lat": 49.2890139, "lon": -123.139401, "tags": {"addr:city": "Vancouver", "addr:housenumber": "1037", "addr:province": "BC", "addr:street": "Denman Street", "amenity": "restaurant", "indoor_seating": "yes", "name": "Chef Ron Restaurant & Bar", "opening_hours": "Mo 12:00-21:30; Tu-Su 12:00-22:30", "outdoor_seating": "yes", "smoking": "no"}}, {"type": "node", "id": 6738071640, "lat": 49.2906777, "lon": -123.133913, "tags": {"addr:city": "Vancouver", "addr:housenumber": "1703", "addr:street": "Robson Street", "amenity": "restaurant", "check_date": "2024-09-19", "cuisine": "dessert;coffee_shop", "diet:vegetarian": "yes", "email": "robson@nerowafflebar.com", "indoor_seating": "yes", "internet_access": "no", "name": "Nero Belgian Waffle Bar", "opening_hours": "Mo-Th,Su 09:00-21:00; Fr-Sa 09:00-22:00", "outdoor_seating": "yes", "payment:cash": "no", "payment:credit_cards": "yes", "payment:debit_cards": "yes", "smoking": "no", "website": "https://www.nerowafflebar.com/"}}, {"type": "node", "id": 6752024455, "lat": 49.2869324, "lon": -123.1246607, "tags": {"addr:city": "Vancouver", "addr:housenumber": "1185", "addr:street": "West Georgia Street", "amenity": "restaurant", "brand": "Freshii", "brand:wikidata": "Q5503051", "brand:wikipedia": "en:Freshii", "cuisine": "salad", "name": "Freshii", "opening_hours": "Mo-Fr 11:00-19:00", "smoking": "no"}}, {"type": "node", "id": 6752573299, "lat": 49.28822, "lon": -123.122313, "tags": {"addr:city": "Vancouver", "addr:housenumber": "1177", "addr:street": "West Pender Street", "amenity": "restaurant", "diet:vegan": "yes", "diet:vegetarian": "yes", "name": "Prestons Restaurant + Lounge", "opening_hours": "Mo-Fr 06:30-21:30; Sa,Su,PH 21:30-11:00", "wheelchair": "yes"}}, {"type": "node", "id": 6752573300, "lat": 49.2878984, "lon": -123.1202577, "tags": {"addr:city": "Vancouver", "addr:housenumber": "1122", "addr:postcode": "V6E 4J6", "addr:province": "BC", "addr:street": "West Hastings Street", "amenity": "restaurant", "check_date:opening_hours": "2023-10-12", "diet:vegan": "no", "diet:vegetarian": "yes", "email": "info@showcaserestaurant.com", "indoor_seating": "yes", "name": "Showcase Restaurant & Bar", "opening_hours": "Mo-Fr 06:30-10:30,11:30-14:00; Sa-Su 07:00-23:00", "opening_hours:signed": "no", "outdoor_seating": "no", "payment:credit_cards": "yes", "payment:debit_cards": "yes", "phone": "+1-604-639-4040", "smoking": "no", "website": "https://www.showcaserestaurant.com", "wheelchair": "yes"}}, {"type": "node", "id": 6752573302, "lat": 49.2916032, "lon": -123.128475, "tags": {"addr:city": "Vancouver", "addr:housenumber": "1390", "addr:province": "BC", "addr:street": "Coal Harbour Quay", "amenity": "restaurant", "indoor_seating": "yes", "outdoor_seating": "yes", "smoking": "no"}}, {"type": "node", "id": 6778868157, "lat": 49.3148698, "lon": -123.1010855, "tags": {"amenity": "restaurant", "cuisine": "asian;taiwanese;bubble_tea", "name": "Yangmara"}}, {"type": "node", "id": 6780083149, "lat": 49.3228294, "lon": -123.1073723}, {"type": "node", "id": 6780083150, "lat": 49.3228543, "lon": -123.1073715}, {"type": "node", "id": 6780083151, "lat": 49.3227597, "lon": -123.1073766}, {"type": "node", "id": 6780083152, "lat": 49.3227594, "lon": -123.1073497}, {"type": "node", "id": 6781338405, "lat": 49.3210825, "lon": -123.0956321, "tags": {"addr:city": "North Vancouver", "addr:housenumber": "801", "addr:postcode": "V7P 3K6", "addr:street": "Marine Drive", "amenity": "restaurant", "brand": "Cora", "brand:wikidata": "Q2996960", "brand:wikipedia": "en:Cora (restaurant)", "cuisine": "breakfast", "indoor_seating": "yes", "name": "Cora", "outdoor_seating": "no", "phone": "+1-604-990-0051", "smoking": "no"}}, {"type": "node", "id": 6852386382, "lat": 49.2890618, "lon": -123.1220928, "tags": {"addr:housenumber": "1190", "addr:street": "West Cordova Street", "amenity": "restaurant", "check_date:opening_hours": "2022-10-15", "cuisine": "pizza", "indoor_seating": "yes", "name": "JOS", "opening_hours:signed": "no", "outdoor_seating": "yes", "smoking": "no"}}, {"type": "node", "id": 6910827436, "lat": 49.2874441, "lon": -123.128832, "tags": {"addr:city": "Vancouver", "addr:housenumber": "1323", "addr:postcode": "V6E 1C6", "addr:province": "BC", "addr:street": "Robson Street", "amenity": "restaurant", "cuisine": "korean;barbecue", "email": "daebakbonga@gmail.com", "indoor_seating": "yes", "level": "1", "name": "Dae Bak Bon Ga", "opening_hours": "Su-Th 11:30-23:30, Fr-Sa 11:30-00:00", "outdoor_seating": "no", "phone": "+1-604-683-9298", "smoking": "no", "website": "https://www.daebakbonga.com/"}}, {"type": "node", "id": 7016422909, "lat": 49.3391722, "lon": -123.103953, "tags": {"addr:city": "North Vancouver", "addr:housenumber": "3280", "addr:province": "BC", "addr:street": "Edgemont Boulevard", "amenity": "restaurant", "name": "Bufala", "outdoor_seating": "yes"}}, {"type": "node", "id": 7050177605, "lat": 49.3791266, "lon": -123.338625, "tags": {"addr:city": "Bowen Island", "addr:housenumber": "994", "addr:street": "Dorman Road", "addr:unit": "202", "amenity": "restaurant", "cuisine": "sushi", "name": "Bowen Sushi"}}, {"type": "node", "id": 7083406175, "lat": 49.2903487, "lon": -123.1342776, "tags": {"addr:city": "Vancouver", "addr:housenumber": "833", "addr:province": "BC", "addr:street": "Bidwell Street", "amenity": "restaurant", "cuisine": "sushi", "indoor_seating": "yes", "name": "Momo Sushi", "opening_hours": "Mo-We 11:00-21:30; Th-Su 11:00-23:00", "outdoor_seating": "yes", "smoking": "no"}}, {"type": "node", "id": 7087123760, "lat": 49.3234681, "lon": -123.1019503, "tags": {"addr:housenumber": "999", "addr:street": "Marine Drive", "amenity": "restaurant", "indoor_seating": "yes", "name": "Smoke and Bones", "outdoor_seating": "yes", "phone": "+1 604 770 1394", "website": "https://smokeandbones.ca"}}, {"type": "node", "id": 7125237471, "lat": 49.3253307, "lon": -123.0720196, "tags": {"addr:city": "North Vancouver", "addr:housenumber": "1802", "addr:province": "BC", "addr:street": "Lonsdale Avenue", "amenity": "restaurant", "cuisine": "italian", "name": "Palermo Cucina"}}, {"type": "node", "id": 7133649285, "lat": 49.3233764, "lon": -123.0725666, "tags": {"addr:city": "North Vancouver", "addr:housenumber": "1615", "addr:province": "BC", "addr:street": "Lonsdale Avenue", "amenity": "restaurant", "name": "Sadra"}}, {"type": "node", "id": 7137775324, "lat": 49.328008, "lon": -123.155488}, {"type": "node", "id": 7277160897, "lat": 49.3511063, "lon": -123.2537745, "tags": {"addr:housenumber": "5369", "addr:street": "Headland Drive", "amenity": "restaurant", "cuisine": "italian;pizza;pasta", "name": "Pastameli", "outdoor_seating": "yes", "phone": "+1 604 922 9333"}}, {"type": "node", "id": 7368540315, "lat": 49.3101566, "lon": -123.0790575, "tags": {"addr:city": "North Vancouver", "addr:housenumber": "150", "addr:province": "BC", "addr:street": "Victory Ship Way", "addr:unit": "160", "amenity": "restaurant", "name": "Nook Restaurant", "smoking": "no"}}, {"type": "node", "id": 7568020861, "lat": 49.3261906, "lon": -123.139013, "tags": {"amenity": "restaurant", "indoor_seating": "yes", "level": "0", "name": "Tractor", "opening_hours": "Mo-Su 10:00-19:00", "outdoor_seating": "yes"}}, {"type": "node", "id": 7662414602, "lat": 49.3276235, "lon": -123.13544, "tags": {"amenity": "restaurant", "brand": "Blaze Pizza", "brand:wikidata": "Q23016666", "brand:wikipedia": "en:Blaze Pizza", "cuisine": "pizza", "delivery": "yes", "indoor_seating": "yes", "level": "0", "name": "Blaze Pizza", "outdoor_seating": "no", "smoking": "no"}}, {"type": "node", "id": 7779648885, "lat": 49.2882956, "lon": -123.14051, "tags": {"addr:city": "Vancouver", "addr:housenumber": "1103", "addr:province": "BC", "addr:street": "Denman Street", "amenity": "restaurant", "cuisine": "sushi", "name": "Big Bang Sushi", "opening_hours": "Mo-Su 11:30-21:00", "phone": "+1-604-336-9622", "website": "https://bigbangsushi.ca"}}, {"type": "node", "id": 8095612095, "lat": 49.2889319, "lon": -123.139514, "tags": {"addr:city": "Vancouver", "addr:housenumber": "1047", "addr:province": "BC", "addr:street": "Denman Street", "amenity": "restaurant", "cuisine": "sushi", "indoor_seating": "yes", "name": "Sushi Aboard", "opening_hours": "Tu-Fr 12:00-15:00, Tu-Th 16:30-21:00, Fr 16:30-21:30, Sa 12:00-21:30, Su 12:00-21:00", "outdoor_seating": "no", "smoking": "no", "website": "https://www.sushiaboard.ca/"}}, {"type": "node", "id": 8095612096, "lat": 49.2893872, "lon": -123.1383867, "tags": {"addr:city": "Vancouver", "addr:housenumber": "998", "addr:province": "BC", "addr:street": "Denman Street", "amenity": "restaurant", "diet:vegetarian": "yes", "indoor_seating": "yes", "name": "Olympia Pizza & Pasta Restaurant", "opening_hours": "Su-Th 12:00-21:30; Fr,Sa 12:00-22:00", "outdoor_seating": "yes", "payment:credit_cards": "yes", "payment:debit_cards": "yes", "smoking": "no", "wheelchair": "yes"}}, {"type": "node", "id": 8095612097, "lat": 49.2895924, "lon": -123.138072, "tags": {"addr:city": "Vancouver", "addr:housenumber": "976", "addr:province": "BC", "addr:street": "Denman Street", "amenity": "restaurant", "cuisine": "vietnamese", "diet:vegan": "yes", "diet:vegetarian": "yes", "indoor_seating": "yes", "name": "Ong Ba Vietnamese Eatery", "opening_hours": "Mo-Su 09:00-21:00", "outdoor_seating": "yes", "payment:credit_cards": "yes", "payment:debit_cards": "yes", "phone": "+1 604 620-5595", "smoking": "no", "website": "https://www.ongba.ca/", "wheelchair": "yes"}}, {"type": "node", "id": 8095612098, "lat": 49.2911406, "lon": -123.1362338, "tags": {"addr:city": "Vancouver", "addr:housenumber": "825", "addr:province": "BC", "addr:street": "Denman Street", "amenity": "restaurant", "cuisine": "vietnamese", "indoor_seating": "yes", "name": "Pho Q&M", "opening_hours": "We-Mo 11:00-21:30", "outdoor_seating": "no", "smoking": "no"}}, {"type": "node", "id": 8095612099, "lat": 49.2910252, "lon": -123.136408, "tags": {"addr:city": "Vancouver", "addr:housenumber": "835", "addr:province": "BC", "addr:street": "Denman Street", "amenity": "restaurant", "indoor_seating": "yes", "outdoor_seating": "no", "smoking": "no"}}, {"type": "node", "id": 8095612100, "lat": 49.2899614, "lon": -123.1333321, "tags": {"addr:city": "Vancouver", "addr:housenumber": "1660", "addr:province": "BC", "addr:street": "Robson Street", "amenity": "restaurant", "check_date": "2024-09-18", "indoor_seating": "yes", "name": "Nom Nom", "opening_hours": "Mo-Su 11:00 - 21:30", "outdoor_seating": "no", "smoking": "no"}}, {"type": "node", "id": 8095612101, "lat": 49.2889396, "lon": -123.131209, "tags": {"addr:city": "Vancouver", "addr:housenumber": "1509", "addr:province": "BC", "addr:street": "Robson Street", "amenity": "restaurant", "check_date": "2024-09-18", "cuisine": "japanese", "diet:vegan": "yes", "diet:vegetarian": "yes", "indoor_seating": "yes", "name": "Avohouse Japanese Restaurant", "opening_hours": "Mo-Su 11:30-21:00", "outdoor_seating": "no", "phone": "+1-604-605-1116", "smoking": "no", "website": "https://avohouse.ca", "wheelchair": "yes"}}, {"type": "node", "id": 8170028356, "lat": 49.2900459, "lon": -123.116951, "tags": {"addr:city": "Vancouver", "addr:housenumber": "1055", "addr:province": "BC", "addr:street": "Canada Place", "addr:unit": "60", "amenity": "restaurant", "cuisine": "breakfast;crepe", "diet:vegan": "no", "diet:vegetarian": "yes", "indoor_seating": "yes", "name": "De Dutch", "opening_hours": "Mo-Su 08:00-15:00", "outdoor_seating": "yes", "payment:credit_cards": "yes", "payment:debit_cards": "yes", "smoking": "no", "website": "https://dedutch.com/", "wheelchair": "yes"}}, {"type": "node", "id": 8174746017, "lat": 49.3236111, "lon": -123.108246, "tags": {"addr:postcode": "V7P 1T3", "amenity": "restaurant", "cuisine": "sushi", "indoor_seating": "yes", "name": "Sushi Town", "opening_hours": "Mo-Th 11:30-21:30; Fr-Sa 11:30-22:00; Su 12:00-21:30", "outdoor_seating": "no", "phone": "+1-604-984-6155", "smoking": "no"}}, {"type": "node", "id": 8371730047, "lat": 49.3284823, "lon": -123.155004, "tags": {"addr:housenumber": "205", "addr:postcode": "V7T 1B9", "addr:street": "Marine Drive", "addr:unit": "1425", "amenity": "restaurant", "cuisine": "persian", "email": "aghamalek.mani@gmail.com", "name": "Mani", "opening_hours": "Mo,Th 12:30-19:00; Tu,We 13:00-19:00; Fr 12:00-18:00; Sa 12:00-19:00; Su 13:00-18:00", "phone": "+1 604 726 6264", "website": "http://manifoodservices.com/"}}, {"type": "node", "id": 8654745005, "lat": 49.3345055, "lon": -123.180133, "tags": {"addr:city": "West Vancouver", "addr:housenumber": "2423", "addr:province": "BC", "addr:street": "Marine Drive", "amenity": "restaurant", "indoor_seating": "yes", "name": "Bar Olo", "outdoor_seating": "yes", "smoking": "no"}}, {"type": "node", "id": 8654745006, "lat": 49.3345678, "lon": -123.1803632, "tags": {"addr:city": "West Vancouver", "addr:housenumber": "2427", "addr:province": "BC", "addr:street": "Marine Drive", "amenity": "restaurant", "indoor_seating": "yes", "name": "The Red Lion Bar & Grill", "outdoor_seating": "yes", "smoking": "no", "wheelchair": "yes"}}, {"type": "node", "id": 8654745008, "lat": 49.3347712, "lon": -123.1810476, "tags": {"addr:city": "West Vancouver", "addr:housenumber": "2459", "addr:province": "BC", "addr:street": "Marine Drive", "amenity": "restaurant", "indoor_seating": "yes", "name": "Dundarave Sushi", "outdoor_seating": "no", "smoking": "no", "wheelchair": "yes"}}, {"type": "node", "id": 8654745010, "lat": 49.3284362, "lon": -123.1635501, "tags": {"addr:city": "West Vancouver", "addr:housenumber": "1860", "addr:province": "BC", "addr:street": "Marine Drive", "amenity": "restaurant", "indoor_seating": "yes", "name": "Raku Japanese Kitchen", "outdoor_seating": "yes", "smoking": "no"}}, {"type": "node", "id": 8654745011, "lat": 49.328773, "lon": -123.1609404, "tags": {"addr:city": "West Vancouver", "addr:housenumber": "1731", "addr:province": "BC", "addr:street": "Marine Drive", "amenity": "restaurant", "indoor_seating": "yes", "name": "Tenton Ramen & Tonkatsu", "outdoor_seating": "yes", "smoking": "no"}}, {"type": "node", "id": 8724837741, "lat": 49.2890176, "lon": -123.13128, "tags": {"addr:city": "Vancouver", "addr:housenumber": "1517", "addr:province": "BC", "addr:street": "Robson Street", "amenity": "restaurant", "brand": "bb.q Chicken", "brand:wikidata": "Q87716489", "check_date": "2024-09-18", "cuisine": "korean;chicken", "indoor_seating": "yes", "name": "bb.q Chicken", "opening_hours:signed": "no", "outdoor_seating": "yes", "smoking": "no", "website": "https://bbqchickenca.com/british-columbia/vancouver/robson-west/"}}, {"type": "node", "id": 8724837742, "lat": 49.2890079, "lon": -123.131903, "tags": {"addr:city": "Vancouver", "addr:housenumber": "1536", "addr:postcode": "V6G 1C2", "addr:province": "BC", "addr:street": "Robson Street", "amenity": "restaurant", "check_date": "2024-09-18", "cuisine": "korean", "indoor_seating": "yes", "name": "T\u00e5 Bom Korean Cuisine", "opening_hours": "Su-Th 11:30-15:00, Mo-Th 17:00-24:00, Fr,Sa 11:30-15:00,17:00-02:00", "outdoor_seating": "yes", "phone": "+1-778-355-1717", "reservation": "yes", "smoking": "no", "takeaway": "yes", "website": "https://tabom.ca/"}}, {"type": "node", "id": 8724837743, "lat": 49.2910088, "lon": -123.1344607, "tags": {"addr:city": "Vancouver", "addr:housenumber": "1739", "addr:province": "BC", "addr:street": "Robson Street", "amenity": "restaurant", "indoor_seating": "yes", "name": "Noodle Arts", "opening_hours": "Mo,Tu,Th,Fr 11:00-15:00,17:00-21:00; Sa,Su 11:00-21:00", "outdoor_seating": "no", "smoking": "no"}}, {"type": "node", "id": 8724837746, "lat": 49.2898568, "lon": -123.1376523, "tags": {"addr:city": "Vancouver", "addr:housenumber": "948", "addr:province": "BC", "addr:street": "Denman Street", "amenity": "restaurant", "diet:vegetarian": "yes", "indoor_seating": "yes", "name": "The Basic", "opening_hours": "Mo-Su 08:00-15:00", "outdoor_seating": "no", "smoking": "no"}}, {"type": "node", "id": 8724837747, "lat": 49.286742, "lon": -123.14224, "tags": {"addr:city": "Vancouver", "addr:housenumber": "1795", "addr:province": "BC", "addr:street": "Beach Avenue", "amenity": "restaurant", "check_date:opening_hours": "2022-09-03", "name": "CRAFT Beer Market", "opening_hours": "Mo-Th 11:00-00:00, Fr 11:00-01:00, Sa 10:00-01:00, Su 11:00-00:00", "opening_hours:signed": "no", "phone": "+16045662739"}}, {"type": "node", "id": 8794299046, "lat": 49.3095955, "lon": -123.078759, "tags": {"addr:city": "North Vancouver", "addr:housenumber": "125", "addr:province": "BC", "addr:street": "Victory Ship Way", "addr:unit": "110", "amenity": "restaurant", "branch": "Shipyards", "brand": "Joey", "brand:wikidata": "Q24191943", "indoor_seating": "yes", "name": "Joey", "outdoor_seating": "yes", "smoking": "no"}}, {"type": "node", "id": 8794299047, "lat": 49.3137959, "lon": -123.0783722, "tags": {"addr:city": "North Vancouver City", "addr:housenumber": "129", "addr:province": "BC", "addr:street": "West 3rd Street", "amenity": "restaurant", "contact:website": "https://minemurasushi.com/", "cuisine": "sushi", "name": "Minemura Sushi", "opening_hours": "Mo-Fr 11:00-15:00, 16:00-21:00; Sa 12:00-15:00, 16:00-21:00", "smoking": "no"}}, {"type": "node", "id": 8808637988, "lat": 49.3216656, "lon": -123.0981576, "tags": {"addr:city": "North Vancouver", "addr:housenumber": "879", "addr:province": "BC", "addr:street": "Marine Drive", "addr:unit": "640", "amenity": "restaurant", "brand": "Pizza Hut", "brand:wikidata": "Q191615", "brand:wikipedia": "en:Pizza Hut", "cuisine": "pizza", "name": "Pizza Hut"}}, {"type": "node", "id": 8855662428, "lat": 49.2893941, "lon": -123.1148812, "tags": {"addr:housenumber": "40", "addr:street": "Seawall", "amenity": "restaurant"}}, {"type": "node", "id": 8947585390, "lat": 49.2902478, "lon": -123.133814, "tags": {"addr:city": "Vancouver", "addr:housenumber": "1696", "addr:postcode": "V6G 1C7", "addr:province": "BC", "addr:street": "Robson Street", "amenity": "restaurant", "diet:vegetarian": "yes", "indoor_seating": "yes", "name": "Sweet 7", "opening_hours": "Mo-Th 11:30-21:00; Fr-Su 11:30-22:00", "outdoor_seating": "no", "smoking": "no"}}, {"type": "node", "id": 9025503489, "lat": 49.3221422, "lon": -123.0986576, "tags": {"amenity": "restaurant", "name": "Khaghan Restaurant"}}, {"type": "node", "id": 9025565542, "lat": 49.3232477, "lon": -123.1010367, "tags": {"amenity": "restaurant", "cuisine": "chinese", "name": "Ming\u2019s Garden"}}, {"type": "node", "id": 9026824939, "lat": 49.3812509, "lon": -123.0783909, "tags": {"amenity": "restaurant", "description": "Seasonal", "fixme": "Determine seasonal opening dates", "name": "Rusty Rail Outdoor B.B.Q. & Beer Garden", "outdoor_seating": "yes", "website": "https://www.grousemountain.com/rusty-rail-bbq"}}, {"type": "node", "id": 9092785720, "lat": 49.3386096, "lon": -123.10218, "tags": {"addr:city": "North Vancouver", "addr:housenumber": "3246", "addr:postcode": "V7R 0A7", "addr:province": "BC", "addr:street": "Connaught Crescent", "addr:unit": "108", "amenity": "restaurant", "cuisine": "mexican", "indoor_seating": "yes", "name": "Cantina Norte", "outdoor_seating": "yes", "smoking": "no"}}, {"type": "node", "id": 9136377517, "lat": 49.2894379, "lon": -123.132717, "tags": {"addr:city": "Vancouver", "addr:housenumber": "1610", "addr:postcode": "V6G1C7", "addr:province": "BC", "addr:street": "Robson Street", "addr:unit": "202", "amenity": "restaurant", "indoor_seating": "yes", "name": "Nam San", "outdoor_seating": "no"}}, {"type": "node", "id": 9153414536, "lat": 49.3250522, "lon": -123.150682, "tags": {"addr:city": "West Vancouver", "addr:housenumber": "1200", "addr:province": "BC", "addr:street": "Argyle Avenue", "amenity": "restaurant", "indoor_seating": "yes", "name": "The Boatshed Ambleside", "outdoor_seating": "yes", "smoking": "no"}}, {"type": "node", "id": 9164400184, "lat": 49.2861906, "lon": -123.127545, "tags": {"addr:city": "Vancouver", "addr:housenumber": "1226", "addr:province": "BC", "addr:street": "Robson Street", "amenity": "restaurant", "check_date": "2024-09-18", "indoor_seating": "yes", "name": "Horin Ramen + Sake", "opening_hours": "Mo-Su 11:30-22:00", "outdoor_seating": "no", "smoking": "no"}}, {"type": "node", "id": 9164400186, "lat": 49.289843, "lon": -123.13262, "tags": {"addr:city": "Vancouver", "addr:housenumber": "1635", "addr:province": "BC", "addr:street": "Robson Street", "amenity": "restaurant", "check_date": "2024-09-18", "cuisine": "korean;fried_chicken", "indoor_seating": "yes", "name": "Zabu Chicken", "opening_hours": "Th-Tu 17:00-01:00+", "outdoor_seating": "yes", "smoking": "no", "website": "https://www.zabuchicken.com/"}}, {"type": "node", "id": 9164400187, "lat": 49.2908178, "lon": -123.1341534, "tags": {"addr:city": "Vancouver", "addr:housenumber": "1725", "addr:province": "BC", "addr:street": "Robson Street", "addr:unit": "1", "amenity": "restaurant", "name": "Kaneko Hannosuke", "opening_hours": "Mo-Th 11:30-14:30,17:00-20:30; Fr 11:30-14:30,17:00-21:00; Sa 11:30-21:00; Su 11:30-20:30"}}, {"type": "node", "id": 9181815210, "lat": 49.3248856, "lon": -123.0720621, "tags": {"addr:city": "North Vancouver", "addr:housenumber": "1750", "addr:province": "BC", "addr:street": "Lonsdale Avenue", "amenity": "restaurant", "cuisine": "pizza", "name": "Lionsgate Pizza"}}, {"type": "node", "id": 9181842417, "lat": 49.3238971, "lon": -123.072524, "tags": {"addr:city": "North Vancouver", "addr:housenumber": "1661", "addr:province": "BC", "addr:street": "Lonsdale Avenue", "amenity": "restaurant", "name": "Rice and Noodle"}}, {"type": "node", "id": 9181842418, "lat": 49.3240173, "lon": -123.0725195, "tags": {"addr:city": "North Vancouver", "addr:housenumber": "1669", "addr:province": "BC", "addr:street": "Lonsdale Avenue", "amenity": "restaurant", "name": "Rosemary Rocksalt"}}, {"type": "node", "id": 9181842420, "lat": 49.3227045, "lon": -123.0720872, "tags": {"addr:city": "North Vancouver", "addr:housenumber": "1540", "addr:province": "BC", "addr:street": "Lonsdale Avenue", "amenity": "restaurant", "name": "Yuko Maki"}}, {"type": "node", "id": 9181842421, "lat": 49.321125, "lon": -123.0710738, "tags": {"addr:city": "North Vancouver", "addr:housenumber": "128", "addr:province": "BC", "addr:street": "East 14th Street", "amenity": "restaurant", "name": "Pho North Vancouver"}}, {"type": "node", "id": 9181842422, "lat": 49.3217677, "lon": -123.0721213, "tags": {"addr:city": "North Vancouver", "addr:housenumber": "1448", "addr:province": "BC", "addr:street": "Lonsdale Avenue", "amenity": "restaurant", "name": "Poke Bar", "smoking": "no"}}, {"type": "node", "id": 9181842423, "lat": 49.3216488, "lon": -123.0721226, "tags": {"addr:city": "North Vancouver", "addr:housenumber": "1440", "addr:province": "BC", "addr:street": "Lonsdale Avenue", "amenity": "restaurant", "cuisine": "malaysian", "name": "Tamarind Hill", "smoking": "no"}}, {"type": "node", "id": 9294226343, "lat": 49.3801888, "lon": -123.3444538, "tags": {"addr:city": "Bowen Island", "addr:housenumber": "539", "addr:province": "BC", "addr:street": "Artisan Lane", "amenity": "restaurant", "cuisine": "coffee_shop;breakfast", "diet:meat": "yes", "diet:vegan": "yes", "diet:vegetarian": "yes", "hot_water": "yes", "internet_access": "wlan", "internet_access:fee": "customers", "internet_access:password": "Flourandwater", "internet_access:ssid": "AE Guest 19", "name": "Artisan Eats Caf\u00e9 & Fine Foods", "opening_hours": "We-Su 09:00-16:00", "outdoor_seating": "yes", "phone": "+1-604-947-0190", "toilets": "yes", "toilets:access": "customers", "toilets:disposal": "flush", "toilets:fee": "no", "toilets:handwashing": "yes", "toilets:position": "seated", "toilets:wheelchair": "no", "website": "https://www.artisaneats.ca/"}}, {"type": "node", "id": 9295132835, "lat": 49.3795073, "lon": -123.334536, "tags": {"addr:city": "Bowen Island", "addr:housenumber": "439", "addr:province": "BC", "addr:street": "Bowen Island Trunk Road", "amenity": "restaurant", "name": "Doc Morgan's Pub & Restaurant", "phone": "+1-604-947-0808"}}, {"type": "node", "id": 9385966920, "lat": 49.327348, "lon": -123.1533305, "tags": {"addr:housenumber": "1351", "addr:postcode": "V7T 0B5", "addr:street": "Bellevue Avenue", "amenity": "restaurant", "cuisine": "peruvian;japanese", "email": "ambleside@ancoradining.com", "indoor_seating": "yes", "name": "Ancora", "opening_hours": "12:00-22:00", "outdoor_seating": "yes", "phone": "+1 604 926 0287", "smoking": "no", "website": "https://www.ancoradining.com/", "wheelchair": "yes"}}, {"type": "node", "id": 9385966939, "lat": 49.3277104, "lon": -123.154046, "tags": {"addr:city": "West Vancouver", "addr:housenumber": "1390", "addr:postcode": "V7T 0B5", "addr:province": "BC", "addr:street": "Marine Drive", "amenity": "restaurant", "construction:amenity": "cafe", "cuisine": "breakfast", "indoor_seating": "yes", "name": "OEB Breakfast Co.", "opening_hours": "Mo-Su 07:00-15:00", "outdoor_seating": "yes", "smoking": "no"}}, {"type": "node", "id": 9391252551, "lat": 49.3279686, "lon": -123.1536521, "tags": {"addr:housenumber": "1377", "addr:postcode": "V7T 1B6", "addr:street": "Marine Drive", "amenity": "restaurant", "cuisine": "sushi", "name": "Nishiki Sushi", "opening_hours": "Mo-Sa 11:30-21:15; Su 12:00-21:00; Tu off", "phone": "+1 604 925 5057", "smoking": "no", "website": "https://www.nishikisushi.ca"}}, {"type": "node", "id": 9391252552, "lat": 49.3279573, "lon": -123.1535723, "tags": {"addr:housenumber": "1373", "addr:postcode": "V7T 1B6", "addr:street": "Marine Drive", "amenity": "restaurant", "indoor_seating": "yes", "name": "Chez Michel", "opening_hours": "Tu-Sa 11:30-14:00,17:30-21:00", "outdoor_seating": "no", "phone": "+1 604 926 4913", "smoking": "no", "website": "https://chezmichelvancouver.com"}}, {"type": "node", "id": 9401661727, "lat": 49.3280992, "lon": -123.1546227, "tags": {"addr:housenumber": "1405", "addr:postcode": "V7T 1B8", "addr:street": "Marine Drive", "amenity": "restaurant", "cuisine": "japanese", "indoor_seating": "yes", "name": "Sakura Ichiban", "opening_hours": "11:30-21:00", "outdoor_seating": "no", "phone": "+1 604 913 2322", "smoking": "no", "website": "https://www.sakuraichibanwestvan.com/"}}, {"type": "node", "id": 9401661728, "lat": 49.3280928, "lon": -123.1545782, "tags": {"addr:housenumber": "1403", "addr:postcode": "V7T 1B8", "addr:street": "Marine Drive", "amenity": "restaurant", "cuisine": "vietnamese", "email": "eat@thewoodenfish.ca", "indoor_seating": "yes", "name": "Wooden Fish", "opening_hours": "11:00-20:00", "outdoor_seating": "yes", "phone": "+1 604 926 6789", "smoking": "no", "website": "https://www.thewoodenfish.ca/", "wheelchair": "yes"}}, {"type": "node", "id": 9426835551, "lat": 49.328031, "lon": -123.1556227}, {"type": "node", "id": 9426835552, "lat": 49.3278627, "lon": -123.1556255}, {"type": "node", "id": 9426835553, "lat": 49.3278616, "lon": -123.1554911}, {"type": "node", "id": 9426835554, "lat": 49.3278912, "lon": -123.1556249}, {"type": "node", "id": 9426844906, "lat": 49.3280894, "lon": -123.1560785, "tags": {"addr:housenumber": "1474", "addr:postcode": "V7T 1B7", "addr:street": "Marine Drive", "amenity": "restaurant", "cuisine": "thai", "indoor_seating": "yes", "name": "Thai Pudpong", "opening_hours": "Mo-Fr 11:00-14:30, 16:00-20:00; Sa,Su 16:00-20:00; PH off", "outdoor_seating": "yes", "phone": "+1 604 921 1069", "smoking": "no", "website": "https://thaipudpong.com"}}, {"type": "node", "id": 9477474179, "lat": 49.312704, "lon": -123.142586, "tags": {"amenity": "restaurant", "cuisine": "bar_and_grill", "name": "Prospect Point Bar & Grill", "opening_hours": "Mo-Su 09:00-19:00", "outdoor_seating": "yes", "phone": "+1-604-669-2737", "website": "https://prospectpoint.com/dining/"}}, {"type": "node", "id": 9546487658, "lat": 49.3283772, "lon": -123.1581268, "tags": {"addr:housenumber": "1560", "addr:postcode": "V7V 1H8", "addr:street": "Marine Drive", "amenity": "restaurant", "cuisine": "korean", "indoor_seating": "yes", "name": "The Bridge", "outdoor_seating": "no", "smoking": "no"}}, {"type": "node", "id": 9546487669, "lat": 49.328315, "lon": -123.1576486, "tags": {"addr:housenumber": "1534", "addr:postcode": "V7V 1H8", "addr:street": "Marine Drive", "amenity": "restaurant", "indoor_seating": "yes", "name": "Kisu", "outdoor_seating": "no", "smoking": "no"}}, {"type": "node", "id": 9559266074, "lat": 49.2860622, "lon": -123.1273577, "tags": {"addr:city": "Vancouver", "addr:housenumber": "1210", "addr:province": "BC", "addr:street": "Robson Street", "amenity": "restaurant", "check_date": "2024-09-18", "indoor_seating": "yes", "name": "Tiko Pizza", "opening_hours": "Su-Th 11:00-23:00, Fr,Sa 11:00-24:00", "outdoor_seating": "yes", "smoking": "no"}}, {"type": "node", "id": 9607717442, "lat": 49.3252066, "lon": -123.1362289, "tags": {"amenity": "restaurant", "brand": "Freshii", "brand:wikidata": "Q5503051", "brand:wikipedia": "en:Freshii", "cuisine": "salad", "layer": "1", "level": "1", "name": "Freshii", "takeaway": "yes"}}, {"type": "node", "id": 9634606311, "lat": 49.2894266, "lon": -123.138318, "tags": {"addr:city": "Vancouver", "addr:housenumber": "990", "addr:province": "BC", "addr:street": "Denman Street", "amenity": "restaurant", "check_date:opening_hours": "2024-07-27", "cuisine": "turkish", "diet:vegetarian": "yes", "drive_through": "no", "indoor_seating": "yes", "name": "Istanbul D\u00f6ner Shop", "opening_hours:signed": "no", "outdoor_seating": "yes", "payment:credit_cards": "yes", "payment:debit_cards": "yes", "phone": "+1-604-565-4000", "smoking": "no", "wheelchair": "yes"}}, {"type": "node", "id": 9654257058, "lat": 49.2906788, "lon": -123.136893, "tags": {"addr:city": "Vancouver", "addr:housenumber": "861", "addr:province": "BC", "addr:street": "Denman Street", "amenity": "restaurant", "cuisine": "italian;pasta", "indoor_seating": "yes", "name": "The Sauce Pasta Cafe", "opening_hours": "Mo,Tu 16:00-20:00; We,Th 12:00-20:00; Fr,Sa 12:00-21:00", "outdoor_seating": "no", "smoking": "no"}}, {"type": "node", "id": 9654257068, "lat": 49.291054, "lon": -123.1363644, "tags": {"addr:city": "Vancouver", "addr:housenumber": "833", "addr:province": "BC", "addr:street": "Denman Street", "amenity": "restaurant", "indoor_seating": "yes", "name": "Los Chavos", "opening_hours:signed": "no", "outdoor_seating": "no", "smoking": "no"}}, {"type": "node", "id": 9654257070, "lat": 49.2911118, "lon": -123.1362773, "tags": {"addr:city": "Vancouver", "addr:province": "BC", "addr:street": "Denman Street", "amenity": "restaurant", "cuisine": "indian", "indoor_seating": "yes", "name": "Modern Handi Indian Cuisine", "opening_hours": "Mo 16:00-22:00; Tu-Su 12:00-22:00", "outdoor_seating": "no", "smoking": "no"}}, {"type": "node", "id": 9657558864, "lat": 49.2875967, "lon": -123.141068, "tags": {"addr:city": "Vancouver", "addr:housenumber": "1168", "addr:province": "BC", "addr:street": "Denman Street", "amenity": "restaurant", "check_date:opening_hours": "2024-07-27", "diet:vegetarian": "yes", "indoor_seating": "yes", "name": "Hot Spot", "opening_hours:signed": "no", "outdoor_seating": "yes", "smoking": "no"}}, {"type": "node", "id": 9657558865, "lat": 49.2876567, "lon": -123.140997, "tags": {"addr:city": "Vancouver", "addr:housenumber": "1162", "addr:province": "BC", "addr:street": "Denman Street", "amenity": "restaurant", "indoor_seating": "yes", "name": "Babylon Restaurant & Bar", "opening_hours": "Mo-Su 10:30-24:00", "outdoor_seating": "yes", "smoking": "no", "website": "https://www.babylon-restaurant.ca/"}}, {"type": "node", "id": 9657558869, "lat": 49.2881773, "lon": -123.1402032, "tags": {"addr:city": "Vancouver", "addr:housenumber": "1110", "addr:province": "BC", "addr:street": "Denman Street", "amenity": "restaurant", "diet:vegetarian": "yes", "indoor_seating": "yes", "name": "Falafel King", "opening_hours:signed": "no", "outdoor_seating": "yes", "smoking": "no"}}, {"type": "node", "id": 9657558873, "lat": 49.2880491, "lon": -123.1404023, "tags": {"addr:city": "Vancouver", "addr:housenumber": "1118", "addr:province": "BC", "addr:street": "Denman Street", "amenity": "restaurant", "indoor_seating": "yes", "name": "Espa\u00f1a Restaurant", "opening_hours": "Th-Su 16:00-22:00", "outdoor_seating": "yes", "smoking": "no"}}, {"type": "node", "id": 9707636626, "lat": 49.2885778, "lon": -123.1306706, "tags": {"addr:city": "Vancouver", "addr:housenumber": "1471", "addr:postcode": "V6G 1C1", "addr:province": "BC", "addr:street": "Robson Street", "amenity": "restaurant", "check_date": "2025-03-17", "check_date:smoking": "2025-03-17", "cuisine": "korean", "diet:meat": "yes", "indoor_seating": "yes", "name": "Kyochon Chicken", "opening_hours": "Su-Th 11:30-22:00; Fr,Sa 11:30-23:00", "outdoor_seating": "no", "phone": "+1-236-455-3378", "smoking": "no", "website": "https://www.kyochonchicken.ca"}}, {"type": "node", "id": 9707676992, "lat": 49.2909157, "lon": -123.134307, "tags": {"addr:city": "Vancouver", "addr:housenumber": "1725", "addr:province": "BC", "addr:street": "Robson Street", "addr:unit": "4", "amenity": "restaurant", "brand": "Pizza Hut", "brand:wikidata": "Q191615", "cuisine": "pizza", "diet:vegetarian": "yes", "indoor_seating": "yes", "name": "Pizza Hut", "opening_hours": "Mo-Fr 11:00-23:00, Fr,Sa 11:00-24:00, Su 12:00-23:00", "outdoor_seating": "yes", "smoking": "no"}}, {"type": "node", "id": 9707677001, "lat": 49.2911138, "lon": -123.1345739, "tags": {"addr:city": "Vancouver", "addr:housenumber": "1745", "addr:province": "BC", "addr:street": "Robson Street", "amenity": "restaurant", "indoor_seating": "yes", "name": "Pho Express Ankor Noodle House", "opening_hours": "Mo-We 10:00-23:00; Th-Su 10:00-24:00", "outdoor_seating": "yes", "smoking": "no"}}, {"type": "node", "id": 9707677003, "lat": 49.2911983, "lon": -123.134705, "tags": {"addr:city": "Vancouver", "addr:housenumber": "1755", "addr:postcode": "V6G 3B7", "addr:province": "BC", "addr:street": "Robson Street", "amenity": "restaurant", "check_date": "2024-12-03", "check_date:currency:XBT": "2024-12-03", "cuisine": "sushi", "currency:XBT": "yes", "indoor_seating": "yes", "name": "VanLove Sushi", "opening_hours": "Mo-Th, Su 11:30-21:30; Fr, Sa 11:30-23:00", "outdoor_seating": "yes", "payment:coinos": "yes", "payment:lightning": "yes", "payment:onchain": "yes", "phone": "+1-604-566-7575", "smoking": "no", "survey:date": "2024-01-16", "website": "https://vanlove.ca/"}}, {"type": "node", "id": 9707740853, "lat": 49.2917397, "lon": -123.1353043, "tags": {"addr:city": "Vancouver", "addr:housenumber": "791", "addr:province": "BC", "addr:street": "Denman Street", "amenity": "restaurant", "cuisine": "italian", "name": "Nook", "opening_hours": "Tu-Th,Su 17:00-22:00; Fr,Sa 17:00-23:00"}}, {"type": "node", "id": 9707783438, "lat": 49.2900302, "lon": -123.133493, "tags": {"addr:city": "Vancouver", "addr:housenumber": "1668", "addr:postcode": "V6G 1C7", "addr:province": "BC", "addr:street": "Robson Street", "amenity": "restaurant", "check_date": "2024-09-17", "cuisine": "sushi", "indoor_seating": "yes", "name": "Sushi Bar Maumi", "opening_hours": "Fr-We 18:00-20:30", "outdoor_seating": "no", "phone": "+1-604-609-2286", "smoking": "no", "website": "https://www.sushibarmaumi.ca/"}}, {"type": "node", "id": 9707783440, "lat": 49.2901318, "lon": -123.1336518, "tags": {"addr:city": "Vancouver", "addr:housenumber": "1682", "addr:province": "BC", "addr:street": "Robson Street", "amenity": "restaurant", "check_date": "2024-09-18", "cuisine": "vietnamese", "diet:vegetarian": "yes", "indoor_seating": "yes", "name": "Viet Sub Vietnamese Cuisine", "opening_hours": "Mo-Su 10:30-21:00", "outdoor_seating": "no", "smoking": "no"}}, {"type": "node", "id": 9707824358, "lat": 49.2891307, "lon": -123.1321209, "tags": {"addr:city": "Vancouver", "addr:housenumber": "1578", "addr:province": "BC", "addr:street": "Robson Street", "amenity": "restaurant", "check_date": "2024-09-18", "indoor_seating": "yes", "name": "Pho 37 Vietnamese Restaurant", "opening_hours": "Mo-Su 11:30-22:00", "outdoor_seating": "no", "smoking": "no"}}, {"type": "node", "id": 9727896230, "lat": 49.2867846, "lon": -123.1243963, "tags": {"addr:city": "Vancouver", "addr:floor": "Upper Lobby", "addr:housenumber": "1161", "addr:postcode": "V6E 0B3", "addr:province": "BC", "addr:street": "West Georgia Street", "amenity": "restaurant", "building": "commercial", "check_date:opening_hours": "2022-10-18", "name": "Karma Lounge", "note:address_buildingnumber": "1161", "opening_hours:signed": "no", "source": "local knowledge;Owner", "start_date": "2022-05-16", "website": "https://karmalounge.ca/"}}, {"type": "node", "id": 9861281517, "lat": 49.2922784, "lon": -123.133942, "tags": {"addr:city": "Vancouver", "addr:province": "BC", "addr:street": "Denman Street", "amenity": "restaurant", "contact:instagram": "tsukiya_tonkotsu_ramen", "cuisine": "japanese", "name": "Tsukiya", "opening_hours": "Fr-Tu 11:30-21:00", "phone": "+1 604-609-0310", "website": "https://ryugetsuservices.wixsite.com/tsukiya"}}, {"type": "node", "id": 9908573718, "lat": 49.3794887, "lon": -123.3353803, "tags": {"addr:city": "Bowen Island", "addr:housenumber": "449", "addr:province": "BC", "addr:street": "Bowen Island Trunk Road", "amenity": "restaurant", "cuisine": "spanish", "name": "Barcelona Tapas & Wine Bar", "website": "https://btwb.ca/"}}, {"type": "node", "id": 9918283738, "lat": 49.2862649, "lon": -123.125507, "tags": {"addr:city": "Vancouver", "addr:housenumber": "1170", "addr:postcode": "V6E 1A5", "addr:province": "BC", "addr:street": "Alberni Street", "amenity": "restaurant", "indoor_seating": "yes", "name": "Red Burrito", "opening_hours": "Mo-Sa 11:00-21:00; Su 12:00-20:00", "outdoor_seating": "no", "phone": "+1-604-423-4488", "smoking": "no", "website": "https://www.redburrito.ca/"}}, {"type": "node", "id": 9944210017, "lat": 49.2876345, "lon": -123.141019, "tags": {"addr:housenumber": "1156", "addr:street": "Denman Street", "amenity": "restaurant", "check_date:opening_hours": "2024-07-27", "indoor_seating": "yes", "name": "Babylon Cafe", "opening_hours:signed": "no", "outdoor_seating": "no", "smoking": "no", "website": "https://babyloncafe.ca/"}}, {"type": "node", "id": 9979904451, "lat": 49.3200966, "lon": -123.107641, "tags": {"addr:city": "North Vancouver", "addr:housenumber": "296", "addr:postcode": "V7P 2R5", "addr:street": "Pemberton Avenue", "amenity": "restaurant", "cuisine": "noodle", "diet:vegan": "yes", "diet:vegetarian": "yes", "name": "The Workshop Vegetarian Caf\u00e9", "opening_hours": "Mo-Fr 11:00-18:00", "phone": "+1 604 973 0163", "website": "https://theworkshopvegetariancafe.com/"}}, {"type": "node", "id": 10013477669, "lat": 49.2863175, "lon": -123.140629, "tags": {"addr:city": "Vancouver", "addr:housenumber": "1708", "addr:province": "BC", "addr:street": "Davie Street", "amenity": "restaurant", "cuisine": "indian", "indoor_seating": "yes", "name": "Sula Indian Restaurant", "outdoor_seating": "yes", "phone": "+1-778-653-5433", "website": "https://sulaindianrestaurant.com"}}, {"type": "node", "id": 10013825633, "lat": 49.2874208, "lon": -123.141234, "tags": {"addr:city": "Vancouver", "addr:housenumber": "1184", "addr:province": "BC", "addr:street": "Denman Street", "amenity": "restaurant", "cuisine": "chinese", "indoor_seating": "yes", "name": "Won More Szechuan Cuisine", "opening_hours": "16:00-22:00", "outdoor_seating": "no", "phone": "+1-604-688-8856", "smoking": "no", "website": "https://wonmore.ca"}}, {"type": "node", "id": 10028417155, "lat": 49.3483157, "lon": -123.2225494}, {"type": "node", "id": 10028417156, "lat": 49.3482204, "lon": -123.2226086}, {"type": "node", "id": 10028417157, "lat": 49.3482141, "lon": -123.2225848}, {"type": "node", "id": 10028417158, "lat": 49.3483094, "lon": -123.2225256}, {"type": "node", "id": 10050100234, "lat": 49.2863855, "lon": -123.12271, "tags": {"addr:city": "Vancouver", "addr:housenumber": "1100", "addr:province": "BC", "addr:street": "Melville Street", "addr:unit": "120", "amenity": "restaurant", "name": "Mangez Mangez", "opening_hours": "Mo-Fr 07:00-16:00", "phone": "+1-604-669-4142", "website": "https://www.mangezmangez.com/"}}, {"type": "node", "id": 10084905955, "lat": 49.2879697, "lon": -123.123681, "tags": {"addr:city": "Vancouver", "addr:housenumber": "560", "addr:province": "BC", "addr:street": "Bute Street", "amenity": "restaurant", "check_date:opening_hours": "2022-10-08", "name": "Green Leaf Salad Bar", "opening_hours:signed": "no"}}, {"type": "node", "id": 10090324039, "lat": 49.2872989, "lon": -123.118403, "tags": {"addr:city": "Vancouver", "addr:housenumber": "1066", "addr:postcode": "V6E 3X2", "addr:province": "BC", "addr:street": "West Hastings Street", "amenity": "restaurant", "name": "Kamei Royale"}}, {"type": "node", "id": 10090380096, "lat": 49.2875812, "lon": -123.116761, "tags": {"addr:city": "Vancouver", "addr:province": "BC", "amenity": "restaurant", "diet:vegetarian": "yes", "indoor_seating": "yes", "name": "Tractor", "opening_hours": "Mo-Fr 10:30-18:00; Sa,Su 10:30-16:00", "outdoor_seating": "no", "smoking": "no"}}, {"type": "node", "id": 10103491174, "lat": 49.2884353, "lon": -123.1205374, "tags": {"addr:city": "Vancouver", "addr:housenumber": "1133", "addr:province": "BC", "addr:street": "West Hastings Street", "amenity": "restaurant", "name": "P2B Restaurant + Bar", "opening_hours": "Mo-Fr 06:30-22:00; Sa-Su 07:00-22:00", "phone": "+1-604-691-2777", "website": "https://www.p2bbistro.com/"}}, {"type": "node", "id": 10138420735, "lat": 49.2896414, "lon": -123.1328634, "tags": {"addr:city": "Vancouver", "addr:housenumber": "1610", "addr:postcode": "V6G1C7", "addr:province": "BC", "addr:street": "Robson Street", "addr:unit": "105", "amenity": "restaurant", "check_date": "2024-09-18", "indoor_seating": "yes", "name": "AlHadbah Donair", "opening_hours": "Mo-Sa 10:30-23:30", "outdoor_seating": "yes"}}, {"type": "node", "id": 10141691124, "lat": 49.3253197, "lon": -123.072497, "tags": {"addr:city": "North Vancouver", "addr:housenumber": "1805", "addr:province": "BC", "addr:street": "Lonsdale Avenue", "amenity": "restaurant", "name": "Grab and Go Persian Restaurant"}}, {"type": "node", "id": 10141691133, "lat": 49.3218795, "lon": -123.0703026, "tags": {"addr:city": "North Vancouver", "addr:housenumber": "143", "addr:province": "BC", "addr:street": "East 15th Street", "amenity": "restaurant", "check_date": "2023-04-01", "level": "0", "name": "OEB Breakfast Co.", "website": "https://eatoeb.com/", "website:menu": "https://eatoeb.com/menu/vancouver/"}}, {"type": "node", "id": 10141691134, "lat": 49.3218816, "lon": -123.0700146, "tags": {"addr:city": "North Vancouver", "addr:housenumber": "155", "addr:province": "BC", "addr:street": "East 15th Street", "amenity": "restaurant", "cuisine": "sushi", "name": "Jordan Sushi"}}, {"type": "node", "id": 10141691136, "lat": 49.3218789, "lon": -123.0697738, "tags": {"addr:city": "North Vancouver", "addr:housenumber": "161", "addr:province": "BC", "addr:street": "East 15th Street", "amenity": "restaurant", "brand": "Freshii", "brand:wikidata": "Q5503051", "cuisine": "salad", "name": "Freshii"}}, {"type": "node", "id": 10141691160, "lat": 49.3121773, "lon": -123.0786326, "tags": {"addr:city": "North Vancouver", "addr:housenumber": "105", "addr:province": "BC", "addr:street": "Lonsdale Avenue", "amenity": "restaurant", "contact:website": "https://mrsushicanada.com/lonsdale/", "cuisine": "sushi", "indoor_seating": "yes", "name": "Mr. Sushi", "outdoor_seating": "yes", "smoking": "no"}}, {"type": "node", "id": 10141691162, "lat": 49.3119053, "lon": -123.078315, "tags": {"addr:city": "North Vancouver", "addr:housenumber": "100", "addr:province": "BC", "addr:street": "East 1st Street", "addr:unit": "110", "amenity": "restaurant", "contact:website": "https://jamcafes.com/", "cuisine": "breakfast;lunch", "name": "Jam Cafe", "opening_hours": "Mo-Fr 08:00-14:30; Sa-Su 08:00-15:00", "smoking": "no"}}, {"type": "node", "id": 10181664899, "lat": 49.286264, "lon": -123.1156676, "tags": {"addr:city": "Vancouver", "addr:housenumber": "848", "addr:postcode": "V6C 1C8", "addr:province": "BC", "addr:street": "West Hastings Street", "amenity": "restaurant", "indoor_seating": "yes", "name": "Palate Kitchen", "outdoor_seating": "yes"}}, {"type": "node", "id": 10588212705, "lat": 49.3232875, "lon": -123.0720089, "tags": {"amenity": "restaurant", "name": "akbarjoojeh", "phone": "+1 604-770-1010", "website": "https://www.akbarjoojeh.ca/?fbclid=PAAabr5QzOQK6FPRw1ofvT31AKK0b-6KmWkEUFTsZ2jdqofVNSlQ_SEauh2Gk"}}, {"type": "node", "id": 10727161197, "lat": 49.3097089, "lon": -123.078599, "tags": {"addr:city": "North Vancouver", "addr:country": "CA", "addr:housenumber": "125", "addr:postcode": "V7L 0B2", "addr:province": "BC", "addr:street": "Victory Ship Way", "addr:unit": "122", "amenity": "restaurant", "cuisine": "lebanese", "diet:meat": "yes", "diet:vegetarian": "yes", "indoor_seating": "yes", "name": "JamJar Canteen North Vancouver", "opening_hours": "Mo-Th, Su 11:30-20:30; Fr, Sa 11:30-21:30", "outdoor_seating": "yes", "phone": "+1-604-988-6400", "smoking": "no", "website": "https://www.jamjarcanteen.ca"}}, {"type": "node", "id": 10916998764, "lat": 49.286515, "lon": -123.128029, "tags": {"addr:city": "Vancouver", "addr:housenumber": "1256", "addr:province": "BC", "addr:street": "Robson Street", "amenity": "restaurant", "check_date": "2024-09-18", "cuisine": "korean", "indoor_seating": "yes", "name": "Ole Chicken", "opening_hours": "We,Th,Su 17:00-23:20, Fr,Sa 17:00-00:20", "outdoor_seating": "no", "phone": "+1-604-428-3909", "smoking": "no", "website": "https://www.olechickenvancouver.com/"}}, {"type": "node", "id": 10940867263, "lat": 49.2865905, "lon": -123.142845}, {"type": "node", "id": 10940867264, "lat": 49.2867844, "lon": -123.1427882}, {"type": "node", "id": 10940867267, "lat": 49.2867851, "lon": -123.1428391}, {"type": "node", "id": 11033586152, "lat": 49.3412464, "lon": -123.3597665, "tags": {"addr:housenumber": "810", "addr:street": "Beach Drive", "amenity": "restaurant", "cuisine": "american", "name": "The Shed Eatery", "phone": "+16049474653", "website": "https://www.bowengolf.com/the-shed-eatery"}}, {"type": "node", "id": 11079621138, "lat": 49.3963491, "lon": -123.2055796}, {"type": "node", "id": 11079621139, "lat": 49.3962379, "lon": -123.2056236}, {"type": "node", "id": 11079621140, "lat": 49.3962245, "lon": -123.2055431}, {"type": "node", "id": 11079621141, "lat": 49.3963356, "lon": -123.2054991}, {"type": "node", "id": 11079621147, "lat": 49.3959404, "lon": -123.2055361}, {"type": "node", "id": 11079621148, "lat": 49.395945, "lon": -123.2057123}, {"type": "node", "id": 11079621149, "lat": 49.395891, "lon": -123.2057157}, {"type": "node", "id": 11079621150, "lat": 49.3958863, "lon": -123.2055395}, {"type": "node", "id": 11099764633, "lat": 49.3423601, "lon": -123.1138603, "tags": {"amenity": "restaurant", "check_date": "2023-08-08", "name": "Cliff House Restaurant & Bar"}}, {"type": "node", "id": 11182226429, "lat": 49.3275019, "lon": -123.1562675, "tags": {"addr:city": "West Vancouver", "addr:housenumber": "1467", "addr:province": "BC", "addr:street": "Marine Drive", "amenity": "restaurant", "name": "Fred's"}}, {"type": "node", "id": 11182331253, "lat": 49.3204821, "lon": -123.072635, "tags": {"addr:city": "North Vancouver", "addr:housenumber": "1325", "addr:province": "BC", "addr:street": "Lonsdale Avenue", "addr:unit": "105", "amenity": "restaurant", "cuisine": "ramen", "name": "KINTON RAMEN", "opening_hours": "Mo-Su 11:00-22:00"}}, {"type": "node", "id": 11182331254, "lat": 49.3230826, "lon": -123.072076, "tags": {"addr:city": "North Vancouver", "addr:housenumber": "1564", "addr:province": "BC", "addr:street": "Lonsdale Avenue", "amenity": "restaurant", "name": "Bukchon Korean Cuisine"}}, {"type": "node", "id": 11182331255, "lat": 49.3236666, "lon": -123.0725268, "tags": {"addr:city": "North Vancouver", "addr:housenumber": "1629", "addr:province": "BC", "addr:street": "Lonsdale Avenue", "amenity": "restaurant", "name": "Shishlik Grill House"}}, {"type": "node", "id": 11263460462, "lat": 49.289981, "lon": -123.137944, "tags": {"amenity": "restaurant", "diet:vegetarian": "yes", "indoor_seating": "yes", "name": "Kev's \u00c9picerie", "opening_hours": "Mo-Fr 07:30-22:00+; Sa,Su 09:00-22:00+", "outdoor_seating": "no", "smoking": "no"}}, {"type": "node", "id": 11263813019, "lat": 49.2899217, "lon": -123.1380644, "tags": {"addr:city": "Vancouver", "addr:housenumber": "961", "addr:province": "British Columbia", "addr:street": "Denman Street", "amenity": "restaurant", "cuisine": "asian;seafood;cocktails", "indoor_seating": "yes", "name": "Jungle Room", "outdoor_seating": "no", "phone": "+1-604-558-5454"}}, {"type": "node", "id": 11278548786, "lat": 49.2918283, "lon": -123.135764, "tags": {"addr:city": "Vancouver", "addr:housenumber": "1829", "addr:postcode": "V6G 1E4", "addr:province": "BC", "addr:street": "Robson Street", "amenity": "restaurant", "cuisine": "italian", "indoor_seating": "yes", "name": "Tavola", "outdoor_seating": "yes", "phone": "+1-604-606-4680", "website": "https://tavolavancouver.com/"}}, {"type": "node", "id": 11375946567, "lat": 49.3589358, "lon": -123.2671148, "tags": {"amenity": "restaurant", "indoor_seating": "yes", "name": "JJ's Kitchen", "outdoor_seating": "yes", "smoking": "no"}}, {"type": "node", "id": 11515033415, "lat": 49.2894518, "lon": -123.1328229, "tags": {"addr:city": "Vancouver", "addr:housenumber": "1610", "addr:postcode": "V6G 1C7", "addr:province": "BC", "addr:street": "Robson Street", "addr:unit": "2F", "amenity": "restaurant", "cuisine": "japanese", "indoor_seating": "yes", "name": "Hida Takayama Ramen", "outdoor_seating": "no", "phone": "+1 604 633 1884"}}, {"type": "node", "id": 11534864469, "lat": 49.3127032, "lon": -123.0758594, "tags": {"addr:housenumber": "149", "addr:postcode": "V7L 1E5", "addr:street": "East 3rd Street", "amenity": "restaurant", "cuisine": "filipino", "name": "Alloz Grill", "website": "https://allozgrill.business.site"}}, {"type": "node", "id": 11544735749, "lat": 49.3331227, "lon": -123.0885229, "tags": {"amenity": "restaurant", "cuisine": "japanese", "indoor_seating": "yes", "name": "Hamaei Japanese Menu", "outdoor_seating": "no"}}, {"type": "node", "id": 11544781477, "lat": 49.3281592, "lon": -123.1619222, "tags": {"amenity": "restaurant", "cuisine": "sushi", "indoor_seating": "yes", "name": "Kin Sushi", "outdoor_seating": "no"}}, {"type": "node", "id": 11616894210, "lat": 49.3793168, "lon": -123.0833931, "tags": {"amenity": "restaurant", "name": "Observatory Restaurant", "opening_hours": "We-Su 17:00-21:00", "website": "https://www.observatoryrestaurant.ca"}}, {"type": "node", "id": 11741724442, "lat": 49.3310793, "lon": -123.1713118, "tags": {"addr:housenumber": "2215", "addr:postcode": "V7V 1K5", "addr:street": "Marine Drive", "amenity": "restaurant", "contact:instagram": "casamiacucina", "email": "ciao@casamiacucina.ca", "indoor_seating": "yes", "name": "Casa Mia", "opening_hours": "We-Su 11:30-21:00", "outdoor_seating": "yes", "phone": "+1 604 281 3313", "smoking": "no", "website": "https://casamiacucina.ca"}}, {"type": "node", "id": 11929200271, "lat": 49.2935484, "lon": -123.1296705}, {"type": "node", "id": 11929200274, "lat": 49.293528, "lon": -123.129702}, {"type": "node", "id": 11929200279, "lat": 49.2935563, "lon": -123.1297661}, {"type": "node", "id": 11929200280, "lat": 49.293687, "lon": -123.1294732}, {"type": "node", "id": 11929200281, "lat": 49.2936278, "lon": -123.1295528, "tags": {"entrance": "yes"}}, {"type": "node", "id": 11930199373, "lat": 49.3388898, "lon": -123.1035272, "tags": {"addr:housenumber": "3270", "addr:street": "Edgemont Boulevard", "amenity": "restaurant", "contact:instagram": "heykokomo", "cuisine": "american;breakfast", "diet:vegan": "yes", "name": "Kokomo", "opening_hours": "Mo-Fr 11:00-19:00; Sa-Su 11:00-18:00", "phone": "+1-604-971-5288", "website": "https://www.heykokomo.ca/"}}, {"type": "node", "id": 11991261277, "lat": 49.3118877, "lon": -123.0765498, "tags": {"addr:city": "North Vancouver", "addr:housenumber": "137", "addr:province": "BC", "addr:street": "East 2nd Street", "amenity": "restaurant", "contact:phone": "+1 604-987-3303", "contact:website": "https://coral-court.com", "cuisine": "chinese", "level": "0", "name": "Coral Court Szechuan Cuisine", "opening_hours": "Mo-Su 11:30-15:00,16:00-21:00"}}, {"type": "node", "id": 12024654585, "lat": 49.3105671, "lon": -123.0760227, "tags": {"addr:housenumber": "175", "addr:street": "East 1st Street", "amenity": "restaurant", "contact:phone": "+1-604-988-5585", "contact:website": "https://www.thegull.ca/", "indoor_seating": "yes", "name": "The Gull Bar & Kitchen", "opening_hours": "Tu-Th 12:00-22:00; Fr,Sa 12:00-23:00", "outdoor_seating": "no", "smoking": "no"}}, {"type": "node", "id": 12024661687, "lat": 49.3191178, "lon": -123.0726664, "tags": {"addr:housenumber": "1209", "addr:street": "Lonsdale Avenue", "amenity": "restaurant", "contact:phone": "+1-604-985-3006", "contact:website": "https://www.bravocucinanorthvancouver.com/", "cuisine": "italian", "name": "Bravo Cucina Ristorante Italiano", "opening_hours": "Mo-Th 11:30-14:00,17:00-21:00; Fr 11:30-14:00,17:00-23:00; Sa 17:00-23:00; Su 17:00-21:00"}}, {"type": "node", "id": 12032228627, "lat": 49.309801, "lon": -123.0785792, "tags": {"amenity": "restaurant", "name": "Seaside Provisions"}}, {"type": "node", "id": 12062395317, "lat": 49.340386, "lon": -123.2395864}, {"type": "node", "id": 12062395318, "lat": 49.340372, "lon": -123.239697}, {"type": "node", "id": 12062395319, "lat": 49.3405287, "lon": -123.2397333}, {"type": "node", "id": 12062395320, "lat": 49.3405402, "lon": -123.2395682}, {"type": "node", "id": 12076235011, "lat": 49.286717, "lon": -123.1283561, "tags": {"addr:city": "Vancouver", "addr:housenumber": "1282", "addr:province": "BC", "addr:street": "Robson Street", "amenity": "restaurant", "check_date": "2024-09-18", "cuisine": "chinese", "indoor_seating": "yes", "name": "Ban Bu Xian Szechuan", "opening_hours": "Mo-Su 11:30-22:00", "outdoor_seating": "yes", "smoking": "no"}}, {"type": "node", "id": 12099961393, "lat": 49.312302, "lon": -123.0779397, "tags": {"addr:housenumber": "140", "addr:street": "Lonsdale Avenue", "amenity": "restaurant", "contact:phone": "+1-604-990-9168", "contact:website": "https://jlsushi.ca/", "cuisine": "sushi;japanese", "name": "Sushi & Kitchen", "opening_hours": "Mo-Th 11:30-15:00,16:00-20:50; Fr 11:30-20:50; Sa 11:30-15:00,16:00-20:50; Su 12:00-15:00,16:00-20:50"}}, {"type": "node", "id": 12135527601, "lat": 49.2870273, "lon": -123.1288668, "tags": {"amenity": "restaurant", "indoor_seating": "yes", "name": "Jervis Joint", "outdoor_seating": "yes"}}, {"type": "node", "id": 12217028266, "lat": 49.321441, "lon": -123.072694, "tags": {"addr:city": "North Vancouver", "addr:housenumber": "1433", "addr:province": "BC", "addr:street": "Lonsdale Avenue", "amenity": "restaurant", "check_date": "2024-12-03", "check_date:currency:XBT": "2024-12-03", "currency:XBT": "yes", "name": "Jack Lonsdale's Public House", "payment:coinos": "yes", "payment:lightning": "yes", "payment:onchain": "yes", "phone": "+1-604-986-7333", "website": "https://jacklonsdales.ca/"}}, {"type": "node", "id": 12516872997, "lat": 49.3110822, "lon": -123.081236, "tags": {"addr:housenumber": "128", "addr:street": "Carrie Cates Court", "amenity": "restaurant", "check_date": "2025-01-19", "name": "Catch 122"}}, {"type": "node", "id": 12530468441, "lat": 49.3216815, "lon": -123.0721243, "tags": {"amenity": "restaurant", "cuisine": "vietnamese", "name": "Pho Spot", "smoking": "no"}}, {"type": "node", "id": 12619437853, "lat": 49.2873285, "lon": -123.141457, "tags": {"addr:city": "Vancouver", "addr:housenumber": "1184", "addr:postcode": "V6G 1W5", "addr:province": "British Columbia", "addr:street": "Denman Street", "addr:unit": "203", "amenity": "restaurant", "cuisine": "sushi", "diet:pescetarian": "yes", "level": "1", "name": "LUCKY SUSHI CO.", "opening_hours": "Mo,We,Th 17:00-22:00, Fr 17:00-23:00, Sa 12:30-23:00, Su 12:30-22:00"}}, {"type": "node", "id": 12619471908, "lat": 49.2874333, "lon": -123.1412661, "tags": {"addr:city": "Vancouver", "addr:housenumber": "1184", "addr:postcode": "V6G 1W5", "addr:province": "British Columbia", "addr:street": "Denman Street", "addr:unit": "201", "amenity": "restaurant", "cuisine": "mexican", "level": "1", "name": "Taqueria Jalisco Mexican Restaurant", "opening_hours": "Mo-Su 13:00-23:00"}}, {"type": "node", "id": 12709130458, "lat": 49.3207571, "lon": -123.0721438, "tags": {"air_conditioning": "yes", "amenity": "restaurant", "cuisine": "italian", "name": "Roma Italian Ristorante", "opening_hours": "Mo-Su 11:30-22:00", "payment:credit_cards": "yes", "payment:debit_cards": "yes", "phone": "+1-604-990-9986", "smoking": "no"}}, {"type": "way", "id": 75925489, "nodes": [896432117, 988406703, 988406765, 988406539, 988406602, 896432354, 896432054, 896432614, 896432234, 896431984, 896432510, 896432184, 896432117], "tags": {"amenity": "restaurant", "building": "cabin", "name": "Hollyburn Lodge", "network": "CypressNordic"}}, {"type": "way", "id": 85235275, "nodes": [988406718, 988406534, 988406762, 988406695, 988406627, 988406741, 988406677, 796619434, 988406728, 988406652, 988406597, 988406718], "tags": {"amenity": "restaurant", "building": "yes", "name": "Cypress Creek Lodge"}}, {"type": "way", "id": 89118744, "nodes": [1033797028, 1033797033, 1033797015, 1033797056, 1033797058, 1033797021, 2325120316, 2325120326, 2325120330, 2325120327, 2325120332, 1033797028], "tags": {"addr:city": "Vancouver", "addr:housenumber": "1085", "addr:province": "BC", "addr:street": "Canada Place", "air_conditioning": "yes", "amenity": "restaurant", "bar": "yes", "brand": "Cactus Club Cafe", "brand:wikidata": "Q5016149", "building": "retail", "building:levels": "1", "check_date:opening_hours": "2022-10-02", "cuisine": "international", "diet:vegan": "yes", "diet:vegetarian": "yes", "happy_hours": "Mo-Sa 14:00-17:00,Mo-We 22:00-24:00,Th 22:00-01:00", "indoor_seating": "yes", "name": "Cactus Club Cafe", "opening_hours": "Su-Th 11:30-24:00, Fr,Sa 11:30-00:30", "outdoor_seating": "yes", "phone": "+1-604-620-7410", "reservation": "yes", "roof:colour": "#7d7a57", "smoking": "no", "source": "survey", "website": "https://www.cactusclubcafe.com/location/coal-harbour/", "wheelchair": "yes"}}, {"type": "way", "id": 102927439, "nodes": [1188607019, 1188607443, 1188607200, 1188607320, 1188607279, 1188607223, 1188607054, 1188607019], "tags": {"addr:city": "West Vancouver", "addr:housenumber": "1096", "addr:street": "Main Street", "amenity": "restaurant", "brand": "Milestones", "brand:wikidata": "Q6851623", "building": "yes", "cuisine": "bar_and_grill", "name": "Milestones", "source": "Bing"}}, {"type": "way", "id": 118932487, "nodes": [1336892560, 1336892561, 1336892558, 1336892557, 1336892563, 1336892562, 1336892564, 1336892559, 1336892560], "tags": {"addr:city": "North Vancouver", "addr:housenumber": "1780", "addr:province": "BC", "addr:street": "Lonsdale Avenue", "amenity": "restaurant", "building": "yes", "name": "Browns Socialhouse"}}, {"type": "way", "id": 127974352, "nodes": [1415184557, 1415184559, 1415184556, 1415184549, 1415184551, 1415184544, 1415184545, 1415184557], "tags": {"amenity": "restaurant", "building": "yes", "indoor_seating": "yes", "name": "Beach House Restaurant", "opening_hours": "Su-Tu 10:00-22:00; We-Sa 10:00-23:00", "outdoor_seating": "yes", "smoking": "no"}}, {"type": "way", "id": 165256983, "nodes": [1768129173, 1768129217, 1768129184, 1768129166, 1768129230, 1768129183, 1768129173], "tags": {"addr:city": "North Vancouver City", "addr:housenumber": "741", "addr:street": "Lonsdale Avenue", "amenity": "restaurant", "building": "yes", "cuisine": "chinese", "name": "Red Chilli Szechuan", "opening_hours": "Tu-Th,Sa,Su 13:30-21:00; Fr 11:30-21:00", "phone": "+1-604-986-2088"}}, {"type": "way", "id": 165256994, "nodes": [1768129139, 1768129166, 1768129184, 1768129238, 1768129240, 1768129210, 1768129139], "tags": {"addr:city": "North Vancouver City", "addr:housenumber": "731", "addr:street": "Lonsdale Avenue", "amenity": "restaurant", "building": "yes", "cuisine": "persian", "name": "Kolbeh", "phone": "+1-604-990-0062", "smoking": "no", "takeaway": "yes"}}, {"type": "way", "id": 165273992, "nodes": [1768296687, 1768296805, 1768296684, 1768296821, 1768296687], "tags": {"addr:housenumber": "2205", "addr:street": "Lonsdale Avenue", "amenity": "restaurant", "brand": "White Spot", "brand:wikidata": "Q7995414", "brand:wikipedia": "en:White Spot", "building": "yes", "cuisine": "burger", "delivery": "no", "name": "White Spot", "outdoor_seating": "no", "takeaway": "yes"}}, {"type": "way", "id": 165275388, "nodes": [1768311356, 1768311295, 1768311353, 1768311308, 1768311325, 1768311344, 1768311339, 1768311356], "tags": {"addr:city": "North Vancouver City", "addr:housenumber": "132", "addr:province": "BC", "addr:street": "West 3rd Street", "amenity": "restaurant", "building": "yes", "cuisine": "greek", "name": "Mythos Taverna"}}, {"type": "way", "id": 218949206, "nodes": [2281477675, 11929200271, 11929200274, 2281477673, 11929200279, 2281477672, 2281477671, 11929200280, 11929200281, 2281477675], "tags": {"addr:housenumber": "333", "addr:street": "Menchions Mews", "amenity": "restaurant", "building": "commercial", "building:levels": "2", "check_date": "2023-01-27", "cuisine": "sushi;seafood;fine_dining", "name": "Lift Bar Grill View", "opening_hours": "Mo-Fr 11:30-22:00; Sa-Su 11:00-22:00", "phone": "+1-604-689-5438", "roof:levels": "0", "website": "https://liftbarandgrill.com/"}}, {"type": "way", "id": 254061610, "nodes": [2598929158, 2598929160, 2598929157, 2598929154, 2598929158], "tags": {"addr:city": "Bowen Island", "addr:housenumber": "400", "addr:province": "BC", "addr:street": "Bowen Island Trunk Road", "amenity": "restaurant", "building": "yes", "cuisine": "mexican;ice_cream", "diet:vegan": "yes", "diet:vegetarian": "yes", "name": "Branch on Bowen", "outdoor_seating": "yes", "phone": "+17788659294", "website": "https://www.branchonbowen.com/"}}, {"type": "way", "id": 254061611, "nodes": [2598929164, 2598929167, 2598929170, 2598929168, 2598929164], "tags": {"amenity": "restaurant", "building": "yes", "cuisine": "pie", "name": "Lime and Moon Pie Company", "website": "https://www.limeandmoon.com/"}}, {"type": "way", "id": 254063645, "nodes": [5166639417, 2598946989, 2598946985, 2598947004, 5166639417], "tags": {"addr:city": "Bowen Island", "addr:housenumber": "433", "addr:postcode": "V0N 1G0", "addr:province": "BC", "addr:street": "Bowen Island Trunk Road", "amenity": "restaurant", "building": "yes", "cuisine": "breakfast", "delivery": "no", "email": "info@tippys.ca", "facebook": "https://www.facebook.com/profile.php?id=61552999447562", "instagram": "https://www.instagram.com/tippysonbowen/", "name": "Tippy's Cookhouse", "opening_hours": "Mo-Fr 07:30-16:00; Sa-Su 09:00-16:00", "outdoor_seating": "yes", "phone": "+1-236\u2219357\u22192030", "start_date": "2024-04-17", "website": "http://www.tippys.ca/"}}, {"type": "way", "id": 351288462, "nodes": [3570663013, 3570663513, 3570663518, 3570663022, 3570663013], "tags": {"amenity": "restaurant", "building": "commercial", "building:levels": "1", "cuisine": "chinese", "name": "Capilano Heights Chinese Restaurant"}}, {"type": "way", "id": 463386189, "nodes": [4586544510, 4586544511, 4586544512, 6780083151, 6780083152, 4586544513, 6780083149, 6780083150, 4586544510], "tags": {"amenity": "restaurant", "brand": "Cactus Club Cafe", "brand:wikidata": "Q5016149", "building": "yes", "cuisine": "regional", "name": "Cactus Club Cafe"}}, {"type": "way", "id": 540887248, "nodes": [5231664924, 5231664925, 5231664926, 5231664927, 5231664924], "tags": {"addr:city": "North Vancouver City", "addr:housenumber": "71", "addr:street": "Lonsdale Avenue", "amenity": "restaurant", "building": "yes", "cuisine": "german", "indoor_seating": "yes", "name": "J\u00e4gerhof", "outdoor_seating": "no", "smoking": "no"}}, {"type": "way", "id": 617028939, "nodes": [5833335061, 5833335062, 5833335063, 5833335064, 5833335061], "tags": {"amenity": "restaurant", "building": "yes", "name": "Cliffhouse Restaurant"}}, {"type": "way", "id": 687266833, "nodes": [6441930163, 6441930162, 6441930161, 6441930160, 6441930159, 6441930158, 5258157169, 6441930163], "tags": {"addr:city": "North Vancouver", "addr:housenumber": "2070", "addr:street": "Marine Drive", "amenity": "restaurant", "building": "retail", "cuisine": "vietnamese", "name": "Pho Japolo"}}, {"type": "way", "id": 1022112537, "nodes": [7137775324, 9426835551, 9426835554, 9426835552, 9426835553, 7137775324], "tags": {"addr:housenumber": "1448", "addr:postcode": "V7T 1B7", "addr:street": "Marine Drive", "amenity": "restaurant", "building": "yes", "building:levels": "1", "cuisine": "pizza", "indoor_seating": "yes", "name": "Carmelo's", "opening_hours": "Mo-Th 17:00-21:00; Fr 11:30-14:30,17:00-21:00; Sa,Su 10:30-14:00,17:00-21:00; Dec 24 11:30-14:00; Dec 25 off; Dec 26 10:30-14:00; Jan 01-02 10:30-14:00,17:00-21:00", "outdoor_seating": "no", "phone": "+1 604 922 4719", "smoking": "no", "website": "https://carmelos.ca", "wheelchair": "yes"}}, {"type": "way", "id": 1095031023, "nodes": [10028417155, 10028417156, 10028417157, 10028417158, 10028417155], "tags": {"addr:city": "West Vancouver", "addr:housenumber": "3757", "addr:province": "BC", "addr:street": "Cypress Bowl Road", "amenity": "restaurant", "building": "yes", "cuisine": "pizza;coffee_shop", "indoor_seating": "yes", "instagram": "https://www.instagram.com/theshed.coffee.bar.pizza/", "name": "The Shed", "opening_hours": "Fr-Sa 10:00-20:00; Su-Th 10:00-19:00", "outdoor_seating": "yes", "phone": "+1-250-219-3092", "smoking": "no", "website": "https://www.theboatshedgroup.com/the-shed"}}, {"type": "way", "id": 1177714168, "nodes": [10940867263, 3288747684, 3288747679, 3288747680, 3288747681, 3288747682, 3288747683, 10940867264, 10940867267, 10940867263], "tags": {"addr:city": "Vancouver", "addr:housenumber": "1790", "addr:province": "BC", "addr:street": "Beach Avenue", "amenity": "restaurant", "brand": "Cactus Club Cafe", "brand:wikidata": "Q5016149", "cuisine": "international", "diet:vegan": "yes", "diet:vegetarian": "yes", "indoor_seating": "yes", "name": "Cactus Club Cafe", "opening_hours": "11:30-00:00", "outdoor_seating": "yes", "phone": "+1-604-681-2582", "smoking": "no"}}, {"type": "way", "id": 1193649843, "nodes": [11079621138, 11079621139, 11079621140, 11079621141, 11079621138], "tags": {"amenity": "restaurant", "building": "yes", "cuisine": "mexican", "name": "Aguila Cantina", "website": "https://cypressmountain.com/dining/aguila-cantina"}}, {"type": "way", "id": 1193649845, "nodes": [11079621147, 11079621148, 11079621149, 11079621150, 11079621147], "tags": {"amenity": "restaurant", "building": "yes"}}, {"type": "way", "id": 1302402056, "nodes": [12062395320, 12062395319, 12062395318, 12062395317, 12062395320], "tags": {"addr:city": "West Vancouver", "addr:housenumber": "4360", "addr:postcode": "V7V 1P1", "addr:province": "BC", "addr:street": "Marine Drive", "amenity": "restaurant", "building": "yes", "cuisine": "coffee_shop", "indoor_seating": "yes", "name": "Isetta Cafe Bistro", "opening_hours": "Mo-Su 07:00-15:00", "outdoor_seating": "yes", "phone": "+1 778 279-8299", "website": "https://www.isetta.ca/"}}]}