{"version": 0.6, "generator": "Overpass API 0.7.62.5 1bd436f1", "osm3s": {"timestamp_osm_base": "2025-04-02T02:58:15Z", "copyright": "The data included in this document is from www.openstreetmap.org. The data is made available under ODbL."}, "elements": [{"type": "node", "id": 1515880311, "lat": 49.3108031, "lon": -123.0825265, "tags": {"amenity": "bus_station", "bus": "yes", "name": "Lonsdale Quay Bus Loop", "public_transport": "station", "wheelchair": "yes"}}, {"type": "node", "id": 1782915781, "lat": 49.2914901, "lon": -123.1299001, "tags": {"addr:city": "Vancouver", "addr:housenumber": "1620", "addr:province": "BC", "addr:street": "Bayshore Drive", "amenity": "car_rental", "capacity": "325", "name": "Bayshore Easy Drive Car Rental", "parking": "surface"}}, {"type": "node", "id": 4313831603, "lat": 49.289712, "lon": -123.1440153, "tags": {"amenity": "bicycle_rental", "bicycle_rental": "docking_station", "capacity": "14", "name": "Chilco & Beach", "network": "Mobi", "ref": "0047"}}, {"type": "node", "id": 4313831604, "lat": 49.2875014, "lon": -123.1420991, "tags": {"amenity": "bicycle_rental", "bicycle_rental": "docking_station", "capacity": "30", "name": "Davie & Beach", "network": "Mobi", "ref": "0028"}}, {"type": "node", "id": 4313831742, "lat": 49.2880013, "lon": -123.1420794, "tags": {"amenity": "bicycle_rental", "bicycle_rental": "docking_station", "capacity": "26", "name": "Morton & Denman", "network": "Mobi", "ref": "0031"}}, {"type": "node", "id": 4313831743, "lat": 49.2885183, "lon": -123.1393327, "tags": {"amenity": "bicycle_rental", "bicycle_rental": "docking_station", "capacity": "18", "name": "Comox & Denman", "network": "Mobi", "ref": "0032"}}, {"type": "node", "id": 4314685793, "lat": 49.2860026, "lon": -123.116602, "tags": {"amenity": "bicycle_rental", "bicycle_rental": "docking_station", "capacity": "22", "name": "Hornby & Pender", "network": "Mobi", "operator": "Vancouver Bike Share", "ref": "0024"}}, {"type": "node", "id": 4324653295, "lat": 49.2871914, "lon": -123.1129258, "tags": {"amenity": "bicycle_rental", "bicycle_rental": "docking_station", "capacity": "22", "name": "Canada Place", "network": "Mobi", "ref": "0014"}}, {"type": "node", "id": 4350339513, "lat": 49.2892686, "lon": -123.1326555, "tags": {"amenity": "bicycle_rental", "bicycle_rental": "docking_station", "capacity": "26", "name": "Cardero & Robson", "network": "Mobi", "ref": "0041"}}, {"type": "node", "id": 4350339515, "lat": 49.2881444, "lon": -123.1320198, "tags": {"amenity": "bicycle_rental", "bicycle_rental": "docking_station", "capacity": "18", "name": "Nicola & Robson", "network": "Mobi", "ref": "0096"}}, {"type": "node", "id": 4384665135, "lat": 49.2932024, "lon": -123.1386077, "tags": {"amenity": "bicycle_rental", "bicycle_rental": "docking_station", "capacity": "22", "name": "Chilco & Robson", "network": "Mobi", "ref": "0093"}}, {"type": "node", "id": 4384665253, "lat": 49.2918468, "lon": -123.1407852, "tags": {"amenity": "bicycle_rental", "bicycle_rental": "docking_station", "capacity": "18", "name": "Chilco & Barclay", "network": "Mobi", "ref": "0092"}}, {"type": "node", "id": 4437226610, "lat": 49.2871315, "lon": -123.1186171, "tags": {"amenity": "bicycle_rental", "bicycle_rental": "docking_station", "capacity": "26", "name": "Pender & Burrard", "network": "Mobi", "ref": "0016"}}, {"type": "node", "id": 4440362943, "lat": 49.2878133, "lon": -123.129303, "tags": {"addr:city": "Vancouver", "addr:housenumber": "1361", "addr:postcode": "V6E 1C6", "addr:province": "BC", "addr:street": "Robson Street", "amenity": "car_rental", "check_date": "2024-09-18", "name": "Rent A Car Vancouver", "phone": "+1-604-689-1231", "website": "https://rentacarvancouver.com/", "wheelchair": "yes"}}, {"type": "node", "id": 4554645718, "lat": 49.2886688, "lon": -123.1182129, "tags": {"amenity": "bicycle_rental", "bicycle_rental": "docking_station", "capacity": "22", "name": "Shaw Tower", "network": "Mobi", "ref": "0201"}}, {"type": "node", "id": 4894508596, "lat": 49.2979505, "lon": -123.1306813, "tags": {"amenity": "bicycle_rental", "bicycle_rental": "docking_station", "capacity": "20", "name": "Stanley Park - Information Booth", "network": "Mobi", "ref": "0209"}}, {"type": "node", "id": 4894508597, "lat": 49.2986558, "lon": -123.1212092, "tags": {"amenity": "bicycle_rental", "bicycle_rental": "docking_station", "capacity": "22", "name": "Stanley Park - Totem Poles", "network": "Mobi", "ref": "0105"}}, {"type": "node", "id": 4894508598, "lat": 49.2992547, "lon": -123.1303286, "tags": {"amenity": "bicycle_rental", "bicycle_rental": "docking_station", "capacity": "16", "name": "Stanley Park - Vancouver Aquarium", "network": "Mobi", "ref": "0101"}}, {"type": "node", "id": 4894508599, "lat": 49.2943135, "lon": -123.1487139, "tags": {"amenity": "bicycle_rental", "bicycle_rental": "docking_station", "capacity": "18", "name": "Stanley Park - Second Beach South", "network": "Mobi", "ref": "0104"}}, {"type": "node", "id": 4894508600, "lat": 49.2953393, "lon": -123.1504703, "tags": {"amenity": "bicycle_rental", "bicycle_rental": "docking_station", "capacity": "16", "name": "Stanley Park - Second Beach North", "network": "Mobi", "ref": "0102"}}, {"type": "node", "id": 4915853661, "lat": 49.2860549, "lon": -123.1241903, "tags": {"amenity": "bicycle_rental", "bicycle_rental": "docking_station", "capacity": "12", "name": "Georgia & Thurlow", "network": "Mobi", "ref": "0123"}}, {"type": "node", "id": 5618677182, "lat": 49.2877533, "lon": -123.1239048, "tags": {"amenity": "bicycle_rental", "bicycle_rental": "docking_station", "capacity": "14", "name": "Melville & Bute", "network": "Mobi", "ref": "0190"}}, {"type": "node", "id": 5805917926, "lat": 49.2876362, "lon": -123.1272215, "tags": {"amenity": "bicycle_rental", "bicycle_rental": "docking_station", "capacity": "14", "name": "Alberni & Jervis", "network": "Mobi", "ref": "0207"}}, {"type": "node", "id": 5855832456, "lat": 49.2890985, "lon": -123.121827, "tags": {"amenity": "bicycle_rental", "bicycle_rental": "docking_station", "capacity": "14", "name": "Cordova & Bute", "network": "Mobi", "ref": "0034"}}, {"type": "node", "id": 6663046515, "lat": 49.3026103, "lon": -123.1556398, "tags": {"amenity": "bicycle_rental", "bicycle_rental": "docking_station", "capacity": "28", "name": "Stanley Park - Third Beach Parking Lot", "network": "Mobi", "ref": "0103"}}, {"type": "node", "id": 6856407486, "lat": 49.2877655, "lon": -123.1134374, "tags": {"amenity": "car_rental", "brand": "National", "brand:wikidata": "Q1424142", "brand:wikipedia": "en:National Car Rental", "name": "National", "official_name": "National Car Rental"}}, {"type": "node", "id": 7187169815, "lat": 49.3007166, "lon": -123.1339577}, {"type": "node", "id": 7187169816, "lat": 49.3005255, "lon": -123.1336634}, {"type": "node", "id": 7187169817, "lat": 49.3005001, "lon": -123.1336357}, {"type": "node", "id": 7187169818, "lat": 49.300473, "lon": -123.1336256}, {"type": "node", "id": 7187169819, "lat": 49.3004254, "lon": -123.1336218}, {"type": "node", "id": 7187169820, "lat": 49.3003783, "lon": -123.1336583}, {"type": "node", "id": 7187169821, "lat": 49.3003447, "lon": -123.1337034}, {"type": "node", "id": 7187169822, "lat": 49.3003292, "lon": -123.1337328}, {"type": "node", "id": 7187169823, "lat": 49.3003178, "lon": -123.1337676}, {"type": "node", "id": 7187169824, "lat": 49.3003137, "lon": -123.1338072}, {"type": "node", "id": 7187169825, "lat": 49.3003158, "lon": -123.1338477}, {"type": "node", "id": 7187169826, "lat": 49.300322, "lon": -123.1338801}, {"type": "node", "id": 7187169827, "lat": 49.3003349, "lon": -123.1339063}, {"type": "node", "id": 7187169828, "lat": 49.300353, "lon": -123.1339372}, {"type": "node", "id": 7187169829, "lat": 49.300463, "lon": -123.1340054}, {"type": "node", "id": 7187169830, "lat": 49.3007089, "lon": -123.1341653}, {"type": "node", "id": 7187169831, "lat": 49.3007296, "lon": -123.1341784}, {"type": "node", "id": 7187169832, "lat": 49.3007463, "lon": -123.1340835}, {"type": "node", "id": 7187169833, "lat": 49.3007493, "lon": -123.1340434}, {"type": "node", "id": 7187169834, "lat": 49.3007369, "lon": -123.1339992}, {"type": "node", "id": 7972586753, "lat": 49.3270036, "lon": -123.1385661, "tags": {"amenity": "bus_station", "bus": "yes", "name": "Park Royal", "network": "TransLink", "operator": "Coast Mountain Bus Company", "public_transport": "station", "wheelchair": "yes"}}, {"type": "node", "id": 9025466946, "lat": 49.3205957, "lon": -123.093733, "tags": {"amenity": "car_rental", "brand": "Enterprise", "brand:wikidata": "Q17085454", "brand:wikipedia": "en:Enterprise Rent-A-Car", "name": "Enterprise", "official_name": "Enterprise Rent-A-Car"}}, {"type": "node", "id": 9025573890, "lat": 49.323739, "lon": -123.1192911, "tags": {"amenity": "car_rental", "name": "Lo-Co$t Rent-A-Car"}}, {"type": "node", "id": 9162504821, "lat": 49.3100841, "lon": -123.0826619, "tags": {"addr:housenumber": "144", "addr:postcode": "V7M 3K1", "addr:street": "Chadwick Court", "amenity": "bicycle_rental", "fee": "yes", "name": "Coastal Cogs", "phone": "+1 604 790 5888", "website": "https://coastalcogs.com"}}, {"type": "node", "id": 9877768831, "lat": 49.2905224, "lon": -123.136222, "tags": {"amenity": "bicycle_rental", "bicycle_rental": "docking_station", "capacity": "20", "name": "Haro & Denman", "network": "Mobi", "ref": "0122"}}, {"type": "node", "id": 9883935863, "lat": 49.3795305, "lon": -123.33253, "tags": {"addr:city": "Bowen Island", "addr:housenumber": "431", "addr:street": "Bowen Island Trunk Road", "addr:unit": "101", "amenity": "bicycle_rental", "bicycle_rental": "shop", "email": "rentals@bowenebikes.ca", "fee": "yes", "name": "Bowen eBikes", "phone": "+1-778-956-7946", "shop": "rental", "website": "https://bowenebikes.ca/"}}, {"type": "node", "id": 9979899505, "lat": 49.319475, "lon": -123.108111, "tags": {"amenity": "car_rental", "brand": "National", "brand:wikidata": "Q1424142", "name": "National", "official_name": "National Car Rental"}}, {"type": "node", "id": 10050139173, "lat": 49.2901111, "lon": -123.12703, "tags": {"amenity": "bicycle_rental", "bicycle_rental": "docking_station", "capacity": "24", "name": "Hastings & Broughton", "network": "Mobi", "ref": "0035"}}, {"type": "node", "id": 10944498296, "lat": 49.2915667, "lon": -123.1291772, "tags": {"amenity": "bicycle_rental", "capacity": "20", "name": "Cardero & Bayshore", "network": "Mobi", "ref": "0200"}}, {"type": "node", "id": 10959901629, "lat": 49.2868529, "lon": -123.1289011, "tags": {"amenity": "bicycle_rental", "bicycle_rental": "docking_station", "capacity": "20", "name": "Jervis & Robson", "network": "Mobi", "ref": "0310"}}, {"type": "way", "id": 769877737, "nodes": [7187169815, 7187169816, 7187169817, 7187169818, 7187169819, 7187169820, 7187169821, 7187169822, 7187169823, 7187169824, 7187169825, 7187169826, 7187169827, 7187169828, 7187169829, 7187169830, 7187169831, 7187169832, 7187169833, 7187169834, 7187169815], "tags": {"amenity": "bus_station", "bus": "yes", "name": "Stanley Park Loop", "public_transport": "station", "wheelchair": "yes"}}]}