{"version": 0.6, "generator": "Overpass API 0.7.62.5 1bd436f1", "osm3s": {"timestamp_osm_base": "2025-03-21T19:53:25Z", "copyright": "The data included in this document is from www.openstreetmap.org. The data is made available under ODbL."}, "elements": [{"type": "node", "id": 1704974624, "lat": 49.2241098, "lon": -122.9850912}, {"type": "node", "id": 1704974627, "lat": 49.2247983, "lon": -122.9850938}, {"type": "node", "id": 1704989952, "lat": 49.2239205, "lon": -122.9850905}, {"type": "node", "id": 1704989954, "lat": 49.2242737, "lon": -122.9862801}, {"type": "node", "id": 1704989972, "lat": 49.2246934, "lon": -122.9865487}, {"type": "node", "id": 1704989990, "lat": 49.2248278, "lon": -122.9850939}, {"type": "node", "id": 1704989995, "lat": 49.2248883, "lon": -122.9851861}, {"type": "node", "id": 1704989996, "lat": 49.2249234, "lon": -122.9852657}, {"type": "node", "id": 1704989997, "lat": 49.2253526, "lon": -122.9865512}, {"type": "node", "id": 1704996127, "lat": 49.2241246, "lon": -122.9857779}, {"type": "node", "id": 1704996189, "lat": 49.224612, "lon": -122.9862814}, {"type": "node", "id": 1713522732, "lat": 49.2259638, "lon": -122.9362305}, {"type": "node", "id": 1713522734, "lat": 49.2261736, "lon": -122.9358243}, {"type": "node", "id": 1713522737, "lat": 49.2263104, "lon": -122.9366501}, {"type": "node", "id": 1713522739, "lat": 49.2265201, "lon": -122.9362439}, {"type": "node", "id": 2254143974, "lat": 49.2264758, "lon": -123.0043014, "tags": {"addr:city": "Burnaby", "addr:housenumber": "4405", "addr:postcode": "V5H 4M3", "addr:province": "BC", "addr:street": "Central Boulevard", "brand": "Holiday Inn Express", "brand:wikidata": "Q5880423", "brand:wikipedia": "en:Holiday Inn Express", "email": "reservations@himetrotown.ca", "name": "Holiday Inn Express Vancouver-Metrotown (Burnaby)", "name:en": "Holiday Inn Express Vancouver-Metrotown (Burnaby)", "phone": "+1-604-438-1881", "tourism": "hotel", "website": "https://www.ihg.com/holidayinnexpress/hotels/us/en/burnaby/yvrbm/hoteldetail"}}, {"type": "node", "id": 4124432512, "lat": 49.230615, "lon": -123.003854, "tags": {"addr:city": "Burnaby", "addr:housenumber": "5988", "addr:postcode": "V5H 2A7", "addr:street": "Willingdon Avenue", "brand": "Element", "brand:wikidata": "Q91948072", "brand:wikipedia": "pl:Element Hotels", "name": "Element Vancouver Metrotown", "phone": "+1-604-568-3696", "rooms": "169", "tourism": "hotel", "website": "https://www.marriott.com/hotels/travel/yvrel-element-vancouver-metrotown", "wikidata": "Q111392005"}}, {"type": "node", "id": 4524247293, "lat": 49.2565918, "lon": -123.0064516, "tags": {"addr:city": "Burnaby", "addr:housenumber": "4331", "addr:street": "Dominion Street", "brand": "Delta Hotels", "brand:wikidata": "Q5254663", "brand:wikipedia": "en:Delta Hotels", "internet_access": "yes", "internet_access:fee": "no", "name": "Delta Burnaby Hotel and Conference Centre", "operator": "Marriott", "phone": "+1-604-453-0755", "rooms": "189", "smoking": "no", "stars": "4", "tourism": "hotel", "website": "https://deltahotels.marriott.com/", "wheelchair": "yes", "wikidata": "Q111391999"}}, {"type": "node", "id": 7103918308, "lat": 49.2513009, "lon": -122.9674826, "tags": {"addr:city": "Burnaby", "addr:housenumber": "3713", "addr:street": "Kensington Avenue", "air_conditioning": "yes", "internet_access": "wlan", "internet_access:fee": "no", "name": "The Lodge at Fortius Sport & Health", "phone": "+1-604-292-2500", "rooms": "50", "tourism": "hotel", "website": "https://www.fortiussport.com/accommodation/"}}, {"type": "node", "id": 7110365109, "lat": 49.2288848, "lon": -123.004362, "tags": {"addr:city": "Burnaby", "addr:housenumber": "6083", "addr:postcode": "V5H 2W7", "addr:province": "BC", "addr:street": "McKay Avenue", "air_conditioning": "yes", "bar": "yes", "brand": "Hilton", "brand:wikidata": "Q598884", "brand:wikipedia": "en:Hilton Hotels & Resorts", "email": "YVRVM_GM@hilton.com", "fax": "+1-604-431-7782", "internet_access": "yes", "name": "Hilton Vancouver Metrotown", "phone": "+1-604-438-1200", "rooms": "283", "smoking": "no", "stars": "4", "tourism": "hotel", "website": "https://www.hilton.com/en/hotels/yvrvmhf-hilton-vancouver-metrotown/", "wheelchair": "yes", "wikidata": "Q111231418"}}, {"type": "node", "id": 8736677474, "lat": 49.25766, "lon": -123.023168, "tags": {"addr:city": "Burnaby", "addr:housenumber": "2950", "addr:postcode": "V5M 3Z9", "addr:street": "Boundary Road", "email": "coastmetroinfo@coasthotels.com", "internet_access": "wlan", "internet_access:fee": "no", "name": "Coast Metro Vancouver Hotel", "phone": "+1-604-438-3451", "tourism": "hotel", "website": "https://www.coasthotels.com/coast-metro-vancouver-hotel"}}, {"type": "node", "id": 8842576677, "lat": 49.26757, "lon": -123.0106465, "tags": {"addr:city": "Burnaby", "addr:housenumber": "4201", "addr:street": "Lougheed Highway", "email": "info@exectivehotelburnaby.ca", "name": "Executive Suites Hotel & Conference Centre Burnaby", "phone": "+1-604-298-2010;+1-800-590-3932", "tourism": "hotel", "website": "http://www.executivehotelburnaby.com/", "wikidata": "Q111391993"}}, {"type": "node", "id": 11954392154, "lat": 49.2250698, "lon": -122.985689}, {"type": "node", "id": 11954392155, "lat": 49.2251283, "lon": -122.9858778}, {"type": "node", "id": 11954392156, "lat": 49.2250609, "lon": -122.9857243}, {"type": "node", "id": 11954392157, "lat": 49.2250574, "lon": -122.9857649}, {"type": "node", "id": 11954392158, "lat": 49.2250623, "lon": -122.9857974}, {"type": "node", "id": 11954392159, "lat": 49.2250716, "lon": -122.9858265}, {"type": "node", "id": 11954392160, "lat": 49.2250893, "lon": -122.9858537}, {"type": "node", "id": 11954392161, "lat": 49.225108, "lon": -122.985869}, {"type": "way", "id": 158264078, "nodes": [1704974627, 1704989990, 1704989995, 1704989996, 11954392154, 11954392156, 11954392157, 11954392158, 11954392159, 11954392160, 11954392161, 11954392155, 1704989997, 1704989972, 1704996189, 1704989954, 1704996127, 1704989952, 1704974624, 1704974627], "tags": {"addr:housenumber": "5411", "addr:street": "Kingsway", "brand": "Best Western Plus", "brand:wikidata": "Q38623383", "brand:wikipedia": "en:Best Western", "name": "Best Western Plus Burnaby Hotel", "phone": "+1-604-438-1383", "tourism": "hotel", "website": "https://www.bestwestern.com/en_US/book/hotels-in-burnaby/best-western-plus-burnaby-hotel/propertyCode.62024.html", "wikidata": "Q111392003"}}, {"type": "way", "id": 159260927, "nodes": [1713522734, 1713522739, 1713522737, 1713522732, 1713522734], "tags": {"addr:city": "Burnaby", "addr:housenumber": "7330", "addr:street": "6th Street", "check_date": "2024-04-13", "email": "reservations@happydayinn.com", "internet_access": "wlan", "internet_access:fee": "no", "name": "Happy Day Inn", "operator": "Royal West Management Ltd", "phone": "+1-604-524-8501", "tourism": "hotel", "website": "https://www.happydayinn.com/"}}]}