{"version": 0.6, "generator": "Overpass API 0.7.62.5 1bd436f1", "osm3s": {"timestamp_osm_base": "2025-03-22T01:13:24Z", "copyright": "The data included in this document is from www.openstreetmap.org. The data is made available under ODbL."}, "elements": [{"type": "node", "id": 1394763085, "lat": 52.602125, "lon": 15.9053225}, {"type": "node", "id": 2045401512, "lat": 52.3090383, "lon": 16.1602321}, {"type": "node", "id": 2045401514, "lat": 52.3090757, "lon": 16.1600189}, {"type": "node", "id": 2045401515, "lat": 52.309167, "lon": 16.1602891}, {"type": "node", "id": 2045401516, "lat": 52.3092551, "lon": 16.1595499}, {"type": "node", "id": 2045401518, "lat": 52.3093177, "lon": 16.1597485}, {"type": "node", "id": 2045401520, "lat": 52.3094333, "lon": 16.1593606}, {"type": "node", "id": 2045401529, "lat": 52.3095089, "lon": 16.1595379}, {"type": "node", "id": 2168811866, "lat": 52.2516758, "lon": 15.8990101}, {"type": "node", "id": 2168811867, "lat": 52.2517814, "lon": 15.8982792}, {"type": "node", "id": 2168811871, "lat": 52.2518749, "lon": 15.8990868}, {"type": "node", "id": 2168811877, "lat": 52.2519818, "lon": 15.8983564}, {"type": "node", "id": 2171107828, "lat": 52.2464502, "lon": 15.915829}, {"type": "node", "id": 2171107829, "lat": 52.2465042, "lon": 15.915961}, {"type": "node", "id": 2171107835, "lat": 52.2466651, "lon": 15.9155941}, {"type": "node", "id": 2171107837, "lat": 52.2467192, "lon": 15.9157262}, {"type": "node", "id": 2607221911, "lat": 52.2501512, "lon": 15.9255347}, {"type": "node", "id": 2607221912, "lat": 52.2504409, "lon": 15.9252605}, {"type": "node", "id": 2607221913, "lat": 52.2504033, "lon": 15.9249125}, {"type": "node", "id": 2607221915, "lat": 52.2503071, "lon": 15.9249638}, {"type": "node", "id": 2845727781, "lat": 52.2504518, "lon": 15.9251986}, {"type": "node", "id": 2854495132, "lat": 52.2519128, "lon": 15.8988248}, {"type": "node", "id": 2854495133, "lat": 52.2518427, "lon": 15.8987978}, {"type": "node", "id": 2854495134, "lat": 52.2519468, "lon": 15.8985988}, {"type": "node", "id": 2854495135, "lat": 52.2518754, "lon": 15.8985713}, {"type": "node", "id": 2948458527, "lat": 52.2466358, "lon": 15.9158172}, {"type": "node", "id": 2948513677, "lat": 52.2502326, "lon": 15.9250063}, {"type": "node", "id": 2948513678, "lat": 52.2502575, "lon": 15.9251708}, {"type": "node", "id": 2948513679, "lat": 52.2501309, "lon": 15.9252701}, {"type": "node", "id": 2948513680, "lat": 52.2501488, "lon": 15.9253336}, {"type": "node", "id": 2948513681, "lat": 52.250092, "lon": 15.9253825}, {"type": "node", "id": 2948513682, "lat": 52.2502645, "lon": 15.925433}, {"type": "node", "id": 3992432966, "lat": 52.6350892, "lon": 16.1034067}, {"type": "node", "id": 3992432981, "lat": 52.6351072, "lon": 16.1034499}, {"type": "node", "id": 3992432982, "lat": 52.6351078, "lon": 16.103151}, {"type": "node", "id": 3992432984, "lat": 52.6351136, "lon": 16.103071}, {"type": "node", "id": 3992432986, "lat": 52.6351329, "lon": 16.1028054}, {"type": "node", "id": 3992432994, "lat": 52.6351557, "lon": 16.1027764}, {"type": "node", "id": 3992433021, "lat": 52.6352311, "lon": 16.1031715}, {"type": "node", "id": 3992433023, "lat": 52.6352336, "lon": 16.103473}, {"type": "node", "id": 3992433025, "lat": 52.6352377, "lon": 16.1030918}, {"type": "node", "id": 3992433035, "lat": 52.6352676, "lon": 16.1034235}, {"type": "node", "id": 3992433041, "lat": 52.6352793, "lon": 16.1032776}, {"type": "node", "id": 3992433046, "lat": 52.6352859, "lon": 16.1028034}, {"type": "node", "id": 3992433051, "lat": 52.635304, "lon": 16.1029682}, {"type": "node", "id": 3992433054, "lat": 52.6353124, "lon": 16.102864}, {"type": "node", "id": 3992433058, "lat": 52.6353232, "lon": 16.103285}, {"type": "node", "id": 3992433071, "lat": 52.6353635, "lon": 16.1029843}, {"type": "node", "id": 3992433072, "lat": 52.6353649, "lon": 16.1035449}, {"type": "node", "id": 3992433074, "lat": 52.6353753, "lon": 16.1033913}, {"type": "node", "id": 3992433077, "lat": 52.6353869, "lon": 16.102669}, {"type": "node", "id": 3992433085, "lat": 52.6354238, "lon": 16.1025889}, {"type": "node", "id": 3992433087, "lat": 52.6354487, "lon": 16.1035603}, {"type": "node", "id": 3992433090, "lat": 52.6354788, "lon": 16.102608}, {"type": "node", "id": 3992433092, "lat": 52.6354837, "lon": 16.1030471}, {"type": "node", "id": 3992433101, "lat": 52.6355133, "lon": 16.1030505}, {"type": "node", "id": 3992433106, "lat": 52.6355352, "lon": 16.1027282}, {"type": "node", "id": 4144164023, "lat": 52.6020979, "lon": 15.9051454}, {"type": "node", "id": 4144164025, "lat": 52.6024126, "lon": 15.9050221}, {"type": "node", "id": 4144164026, "lat": 52.602464, "lon": 15.9051922}, {"type": "node", "id": 4318304593, "lat": 52.244878, "lon": 15.834859, "tags": {"name": "Go\u015b\u0107 w dom", "tourism": "hotel"}}, {"type": "node", "id": 5008811992, "lat": 52.2462027, "lon": 15.8373358}, {"type": "node", "id": 5008811993, "lat": 52.2461447, "lon": 15.8373624}, {"type": "node", "id": 5008811994, "lat": 52.2460042, "lon": 15.8372598}, {"type": "node", "id": 5008811995, "lat": 52.246064, "lon": 15.8376005}, {"type": "node", "id": 5008811996, "lat": 52.2462354, "lon": 15.8375206}, {"type": "node", "id": 5008811997, "lat": 52.2461174, "lon": 15.8372074}, {"type": "node", "id": 5196989732, "lat": 52.5776301, "lon": 16.0052254}, {"type": "node", "id": 5196989733, "lat": 52.5774119, "lon": 16.0050793}, {"type": "node", "id": 5196989734, "lat": 52.5774594, "lon": 16.0048867}, {"type": "node", "id": 5196989735, "lat": 52.5776781, "lon": 16.0050338}, {"type": "node", "id": 6494986083, "lat": 52.602452, "lon": 15.9051101}, {"type": "node", "id": 6494986084, "lat": 52.6024269, "lon": 15.9051197}, {"type": "node", "id": 6494986785, "lat": 52.6022042, "lon": 15.9053274}, {"type": "node", "id": 6494986786, "lat": 52.6021297, "lon": 15.905356}, {"type": "node", "id": 6494986787, "lat": 52.6021995, "lon": 15.9052939}, {"type": "node", "id": 8451010484, "lat": 52.3092442, "lon": 16.1599388}, {"type": "node", "id": 8451010485, "lat": 52.3093231, "lon": 16.1597619}, {"type": "node", "id": 8451010486, "lat": 52.3092353, "lon": 16.1599341}, {"type": "node", "id": 8451010487, "lat": 52.309133, "lon": 16.1594015}, {"type": "node", "id": 8451010488, "lat": 52.3089314, "lon": 16.1598452}, {"type": "node", "id": 8451010489, "lat": 52.3089254, "lon": 16.1591297}, {"type": "node", "id": 8451010490, "lat": 52.3087107, "lon": 16.1596022}, {"type": "node", "id": 8451010491, "lat": 52.308924, "lon": 16.1598615}, {"type": "node", "id": 8451010492, "lat": 52.3091387, "lon": 16.1593889}, {"type": "node", "id": 10750323058, "lat": 52.3164845, "lon": 16.1318756}, {"type": "node", "id": 10750323059, "lat": 52.3165081, "lon": 16.1316876}, {"type": "node", "id": 10750323065, "lat": 52.3165001, "lon": 16.1318812}, {"type": "node", "id": 10750323066, "lat": 52.3166661, "lon": 16.1317402}, {"type": "node", "id": 10750323104, "lat": 52.3166443, "lon": 16.1319312}, {"type": "node", "id": 11176022234, "lat": 52.3161122, "lon": 16.1279437, "tags": {"amenity": "restaurant", "name": "Kopernik", "tourism": "hotel"}}, {"type": "node", "id": 11180535408, "lat": 52.3166452, "lon": 16.1319271}, {"type": "node", "id": 11180535414, "lat": 52.3166659, "lon": 16.1317433}, {"type": "node", "id": 11628645189, "lat": 52.2460717, "lon": 15.8372283}, {"type": "way", "id": 194028971, "nodes": [2045401529, 2045401518, 8451010485, 8451010484, 8451010486, 2045401515, 2045401512, 2045401514, 8451010488, 8451010491, 8451010490, 8451010489, 8451010492, 8451010487, 2045401516, 2045401520, 2045401529], "tags": {"building": "yes", "name": "Hotel \"Hi - Fi\"", "tourism": "hotel"}}, {"type": "way", "id": 206835455, "nodes": [2168811877, 2854495134, 2854495135, 2854495133, 2854495132, 2168811871, 2168811866, 2168811867, 2168811877], "tags": {"addr:city": "Zb\u0105szy\u0144", "addr:city:simc": "0988655", "addr:housenumber": "7", "addr:postcode": "64-360", "addr:street": "\u0141\u0105kowa", "addr:street:sym_ul": "11596", "amenity": "restaurant", "beds": "95", "building": "hotel", "email": "hotel@navigatorhotel.pl", "internet_access": "wlan", "internet_access:fee": "no", "name": "Hotel Navigator", "official_name": "Navigator Hotel i Konferencje", "phone": "+48 68 384 60 88", "rooms": "51", "source:addr": "zbaszyn.e-mapa.net", "stars": "3", "tourism": "hotel", "website": "https://www.navigatorhotel.pl/"}}, {"type": "way", "id": 206996245, "nodes": [2171107837, 2948458527, 2171107829, 2171107828, 2171107835, 2171107837], "tags": {"addr:city": "Zb\u0105szy\u0144", "addr:city:simc": "0988655", "addr:housenumber": "5A", "addr:postcode": "64-360", "addr:street": "Garczy\u0144skich", "amenity": "restaurant", "building": "hotel", "email": "recepcja_podzamcze1@wp.pl", "internet_access": "wlan", "internet_access:fee": "no", "name": "Hotel Podzamcze", "phone": "+48 68 384 61 56; +48 510 123 260", "rooms": "16", "source:addr": "zbaszyn.e-mapa.net", "tourism": "hotel", "website": "http://hotel-podzamcze.com/"}}, {"type": "way", "id": 256149830, "nodes": [3992433051, 3992433054, 3992433046, 3992432994, 3992432986, 3992432984, 3992433025, 3992433021, 3992432982, 3992432966, 3992432981, 3992433023, 3992433035, 3992433041, 3992433058, 3992433074, 3992433072, 3992433087, 3992433092, 3992433101, 3992433106, 3992433090, 3992433085, 3992433077, 3992433071, 3992433051], "tags": {"addr:city": "Sierak\u00f3w", "addr:city:simc": "0971436", "addr:housenumber": "13", "addr:postcode": "64-410", "addr:street": "Orla", "building": "hotel", "email": "recepcja@kamapark.pl", "internet_access": "wlan", "internet_access:fee": "no", "name": "Kama Park", "phone": "+48 61 29 55 100", "source:addr": "sierakow.e-mapa.net", "stars": "3", "tourism": "hotel", "website": "https://kamapark.pl/"}}, {"type": "way", "id": 291388183, "nodes": [2607221913, 2607221915, 2948513677, 2948513678, 2948513679, 2948513680, 2948513681, 2607221911, 2948513682, 2607221912, 2845727781, 2607221913], "tags": {"addr:city": "Zb\u0105szy\u0144", "addr:city:simc": "0988655", "addr:housenumber": "1", "addr:postcode": "64-360", "addr:street": "Senatorska", "building": "yes", "name": "Hotel Senator", "source:addr": "zbaszyn.e-mapa.net", "tourism": "hotel"}}, {"type": "way", "id": 413087218, "nodes": [4144164025, 4144164023, 1394763085, 6494986786, 6494986785, 6494986787, 4144164026, 6494986083, 6494986084, 4144164025], "tags": {"addr:city": "Mi\u0119dzych\u00f3d", "addr:city:simc": "0935506", "addr:housenumber": "8", "addr:postcode": "64-400", "addr:street": "S\u0142oneczna", "amenity": "restaurant", "building": "hotel", "email": "recepcja@hotel-neptun.com.pl", "internet_access": "wlan", "internet_access:fee": "no", "name": "Neptun", "phone": "+48 95 748 23 41", "rooms": "46", "source:addr": "miedzychod.e-mapa.net", "tourism": "hotel", "website": "https://www.hotel-neptun.com.pl/"}}, {"type": "way", "id": 512209471, "nodes": [5008811992, 5008811993, 5008811997, 11628645189, 5008811994, 5008811995, 5008811996, 5008811992], "tags": {"building": "yes", "name": "Hotel ARTIX", "tourism": "hotel"}}, {"type": "way", "id": 536491772, "nodes": [5196989735, 5196989734, 5196989733, 5196989732, 5196989735], "tags": {"building": "yes", "email": "olandia@olandia.pl", "historic": "manor", "internet_access": "wlan", "internet_access:fee": "no", "name": "Olandia", "phone": "+48 61 291 53 79", "tourism": "hotel", "website": "https://www.olandia.pl/"}}, {"type": "way", "id": 1155990010, "nodes": [10750323104, 10750323065, 10750323058, 10750323059, 10750323066, 11180535414, 11180535408, 10750323104], "tags": {"addr:city": "Nowy Tomy\u015bl", "addr:housenumber": "18", "addr:postcode": "64-300", "addr:street": "Plac Fryderyka Chopina", "building": "yes", "building:levels": "4", "internet_access": "yes", "name": "Atrium", "rooms": "20", "source:building": "BDOT", "stars": "3", "tourism": "hotel", "website": "https://www.hotelatriumnt.pl/pl/"}}]}