{"version": 0.6, "generator": "Overpass API 0.7.62.5 1bd436f1", "osm3s": {"timestamp_osm_base": "2025-03-22T01:13:24Z", "copyright": "The data included in this document is from www.openstreetmap.org. The data is made available under ODbL."}, "elements": [{"type": "node", "id": 331954898, "lat": -22.9643453, "lon": -43.1770607, "tags": {"tourism": "hotel"}}, {"type": "node", "id": 331956610, "lat": -22.964337, "lon": -43.1784874, "tags": {"addr:city": "Rio de Janeiro", "addr:housenumber": "82", "addr:street": "Rua Duvivier", "addr:suburb": "Copacabana", "air_conditioning": "yes", "bar": "yes", "email": "reservas@royalrio.com", "internet_access": "wlan", "internet_access:fee": "no", "internet_access:ssid": "Hotel Royal Rio", "name": "Royal Rio Palace Hotel", "opening_hours": "24/7", "phone": "+55-21-21229292", "stars": "4", "toilets": "yes", "tourism": "hotel", "url": "http://www.royalrio.com/", "website": "https://royalrio.com.br/", "wheelchair": "designated"}}, {"type": "node", "id": 340473485, "lat": -22.9262485, "lon": -43.1767661, "tags": {"addr:housenumber": "160", "addr:postcode": "22220-000", "addr:street": "Rua do Catete", "name": "Hotel Riazor", "tourism": "hotel"}}, {"type": "node", "id": 412310724, "lat": -22.9869257, "lon": -43.1899271, "tags": {"addr:city": "Rio de Janeiro", "addr:country": "BR", "addr:housenumber": "30", "addr:state": "RJ", "addr:street": "Rua Francisco Otaviano", "name": "Copacabana Praia Hotel", "stars": "4", "tourism": "hotel", "url": "http://www.copacabanapraiahotel.com.br/"}}, {"type": "node", "id": 416166041, "lat": -22.9515242, "lon": -43.1819741}, {"type": "node", "id": 431013589, "lat": -22.9271554, "lon": -43.1761669, "tags": {"addr:city": "Rio de Janeiro", "addr:country": "BR", "addr:housenumber": "81", "addr:postcode": "22210-040", "addr:street": "Rua Ferreira Viana", "addr:suburb": "Catete", "building": "hotel", "building:levels": "10", "name": "Windsor Florida Hotel", "phone": "+55-21-21956800", "source": "survey", "tourism": "hotel", "url": "http://www.windsorhoteis.com.br/pt-br/loca.asp?hid=26"}}, {"type": "node", "id": 431750143, "lat": -22.9225252, "lon": -43.1773209, "tags": {"name": "Hotel O\u00e1sis do Catete", "stars": "1", "tourism": "hotel"}}, {"type": "node", "id": 450799276, "lat": -22.9106615, "lon": -43.1872932, "tags": {"addr:city": "Rio de Janeiro", "addr:housenumber": "6", "addr:postcode": "20230-180", "addr:street": "Rua Carlos de Carvalho", "addr:suburb": "Cento", "name": "Hotel Gal\u00edcia", "phone": "+55212221-0211", "tourism": "hotel", "website": "https://www.hotelgalicia.com.br/"}}, {"type": "node", "id": 452657821, "lat": -22.9273152, "lon": -43.1768644, "tags": {"addr:city": "Rio de Janeiro", "addr:housenumber": "186", "addr:postcode": "22220-000", "addr:street": "Rua do Catete", "addr:suburb": "Catete", "name": "Riale Imperial Flamengo", "tourism": "hotel"}}, {"type": "node", "id": 452657840, "lat": -22.9264561, "lon": -43.176775, "tags": {"addr:city": "Rio de Janeiro", "addr:housenumber": "172", "addr:postcode": "22220-000", "addr:street": "Rua do Catete", "addr:suburb": "Catete", "name": "Vit\u00f3ria", "tourism": "hotel"}}, {"type": "node", "id": 479091125, "lat": -22.8798828, "lon": -43.3547239, "tags": {"name": "Motel Emo\u00e7\u00e3o", "tourism": "hotel"}}, {"type": "node", "id": 502863752, "lat": -22.9010321, "lon": -43.1795544, "tags": {"name": "Guanabara Palace Hotel", "tourism": "hotel"}}, {"type": "node", "id": 506849958, "lat": -22.9676345, "lon": -43.1793078}, {"type": "node", "id": 507684840, "lat": -22.9252036, "lon": -43.1732739, "tags": {"addr:city": "Rio de Janeiro", "addr:country": "BR", "addr:housenumber": "20", "addr:postcode": "22210-030", "addr:street": "Praia do Flamengo", "name": "Hotel Novo Mundo", "phone": "+55-21-21057000", "source": "survey", "tourism": "hotel", "url": "http://www.hotelnovomundo-rio.com.br/"}}, {"type": "node", "id": 512847984, "lat": -22.9142993, "lon": -43.1826263, "tags": {"amenity": "love_hotel", "name": "Hotel La Costa", "tourism": "hotel", "type": "love_hotel"}}, {"type": "node", "id": 512851039, "lat": -22.9493632, "lon": -43.1922716}, {"type": "node", "id": 512852947, "lat": -22.9220847, "lon": -43.1765722, "tags": {"addr:housenumber": "63", "addr:street": "Rua do Catete", "amenity": "love_hotel", "name": "Love Time Hotel", "phone": "+55-21-25581911", "tourism": "hotel", "type": "love_hotel", "url": "http://www.lovetimehotel.com.br/"}}, {"type": "node", "id": 512854718, "lat": -22.9948706, "lon": -43.2349661, "tags": {"addr:housenumber": "218", "addr:street": "Avenida Niemeyer", "amenity": "love_hotel", "name": "Hotel Shalimar", "phone": "+55-21-33223392", "tourism": "hotel", "type": "love_hotel", "url": "http://www.hotelshalimar.com.br/"}}, {"type": "node", "id": 512856865, "lat": -22.9455245, "lon": -43.185443}, {"type": "node", "id": 512858216, "lat": -22.9948114, "lon": -43.234832, "tags": {"addr:housenumber": "214", "addr:street": "Avenida Niemeyer", "amenity": "love_hotel", "name": "Motel Sinless", "phone": "+55-21-25129913", "tourism": "hotel", "type": "love_hotel", "url": "http://www.sinless.com.br/"}}, {"type": "node", "id": 512860156, "lat": -22.928362, "lon": -43.1747683, "tags": {"addr:city": "Rio de Janeiro", "addr:country": "BR", "addr:housenumber": "19", "addr:postcode": "22210-050", "addr:street": "Rua Correa Dutra", "addr:suburb": "Flamengo", "amenity": "love_hotel", "name": "Elegance", "phone": "+55-21-32359000", "source": "survey", "tourism": "hotel", "type": "love_hotel", "url": "http://www.elegancehotel.com.br/"}}, {"type": "node", "id": 512865324, "lat": -22.9930668, "lon": -43.2558231, "tags": {"addr:housenumber": "674", "addr:street": "Estrada da G\u00e1vea", "amenity": "love_hotel", "fixme": "We received a report that this location is closed or har wrong location, can someone on the ground verify?", "name": "Escort Motel", "phone": "+55-21-33221400", "tourism": "hotel", "type": "love_hotel", "url": "http://www.escortmotel.com.br/"}}, {"type": "node", "id": 512867289, "lat": -22.9947421, "lon": -43.2347354, "tags": {"addr:housenumber": "210", "addr:street": "Avenida Niemeyer", "amenity": "love_hotel", "name": "Nosso Hotel", "phone": "+55-21-22743247", "tourism": "hotel", "type": "love_hotel", "url": "http://www.nossohotel.com.br/"}}, {"type": "node", "id": 512869193, "lat": -22.9208354, "lon": -43.1806023, "tags": {"addr:housenumber": "521", "addr:street": "Rua C\u00e2ndido Mendes", "amenity": "love_hotel", "name": "Challon Motel", "phone": "+55-21-22428826", "tourism": "hotel", "type": "love_hotel", "url": "http://www.challonmotel.com.br/"}}, {"type": "node", "id": 512871642, "lat": -22.9175068, "lon": -43.1773673, "tags": {"addr:housenumber": "46", "addr:street": "Rua da Gl\u00f3ria", "amenity": "love_hotel", "name": "Diamond Hotel", "phone": "+55-21-22536262", "tourism": "hotel", "type": "love_hotel", "url": "http://www.diamondhotel.com.br"}}, {"type": "node", "id": 512873877, "lat": -22.9328109, "lon": -43.1766602, "tags": {"addr:housenumber": "36", "addr:street": "Rua Bar\u00e3o do Flamengo", "amenity": "love_hotel", "check_date": "2025-01-10", "name": "Hotel Bar\u00e3o do Flamengo", "phone": "+55-21-34790700", "tourism": "hotel", "type": "love_hotel", "url": "http://www.hotelbaraodoflamengo.com.br/"}}, {"type": "node", "id": 512887703, "lat": -22.9308802, "lon": -43.1804064, "tags": {"addr:housenumber": "22", "addr:street": "Rua Gago Coutinho", "amenity": "love_hotel", "name": "Hotel Serrano", "phone": "+55-21-22051846", "tourism": "hotel", "type": "love_hotel"}}, {"type": "node", "id": 512889445, "lat": -22.9244917, "lon": -43.1785727, "tags": {"addr:housenumber": "173", "addr:street": "Rua Pedro Am\u00e9rico", "amenity": "love_hotel", "name": "Hotel Pedro Am\u00e9rico", "phone": "+55-21-22052019", "tourism": "hotel", "type": "love_hotel"}}, {"type": "node", "id": 527082940, "lat": -22.9253222, "lon": -43.1736816, "tags": {"addr:city": "Rio de Janeiro", "addr:country": "BR", "addr:housenumber": "20", "addr:postcode": "22221-000", "addr:street": "Rua Silveira Martins", "name": "Hotel Ingl\u00eas", "phone": "+55-21-25583052", "source": "survey", "stars": "2", "tourism": "hotel", "website": "http://www.hotelingles.com.br/"}}, {"type": "node", "id": 529748996, "lat": -22.9667761, "lon": -43.1862122, "tags": {"addr:city": "Rio de Janeiro", "addr:country": "BR", "addr:housenumber": "90", "addr:street": "Rua Siqueira Campos", "name": "Atl\u00e2ntico Copacabana", "phone": "+55-21-25480011", "tourism": "hotel", "url": "http://www.atlanticocopacabana.com.br/"}}, {"type": "node", "id": 529749005, "lat": -22.9665351, "lon": -43.1829688, "tags": {"addr:housenumber": "305", "addr:street": "Rua Rep\u00fablica do Peru", "name": "Apa Hotel", "phone": "+55-21-22563628", "stars": "3", "tourism": "hotel", "url": "http://www.apahotel.com.br/"}}, {"type": "node", "id": 529749016, "lat": -22.9632989, "lon": -43.1762731, "tags": {"name": "Ibiza Copacabana Hotel", "tourism": "hotel"}}, {"type": "node", "id": 529749019, "lat": -22.9663889, "lon": -43.1770799, "tags": {"addr:housenumber": "1500", "addr:street": "Avenida Atl\u00e2ntica", "name": "Hotel Porto Bay Rio Internacional", "phone": "+55-21-25468000", "tourism": "hotel", "url": "http://www.portobay.com/", "wheelchair": "yes"}}, {"type": "node", "id": 529749022, "lat": -22.9615815, "lon": -43.17505}, {"type": "node", "id": 529749023, "lat": -22.9616093, "lon": -43.1748641, "tags": {"addr:city": "Rio de Janeiro", "addr:country": "BR", "addr:housenumber": "370", "addr:street": "Avenida Princesa Isabel", "brand": "Best Western", "brand:wikidata": "Q830334", "name": "Best Western Augusto's Rio Copa Hotel", "phone": "+55-21-25469500", "source": "Bing", "tourism": "hotel", "website": "https://www.bestwestern.com.br/"}}, {"type": "node", "id": 529749029, "lat": -22.9631073, "lon": -43.1696988, "tags": {"addr:city": "Rio de Janeiro", "addr:country": "BR", "addr:housenumber": "656", "addr:street": "Avenida Atl\u00e2ntica", "name": "Windsor Hotel Leme", "phone": "+55-21-21225900", "tourism": "hotel"}}, {"type": "node", "id": 529749030, "lat": -22.964082, "lon": -43.1732446, "tags": {"addr:city": "Rio de Janeiro", "addr:country": "BR", "addr:housenumber": "854", "addr:street": "Rua Gustavo Sampaio", "name": "Acapulco Copacabana Hotel", "tourism": "hotel", "website": "http://www.acapulcohotel.com.br/"}}, {"type": "node", "id": 529749032, "lat": -22.9607149, "lon": -43.1749285, "tags": {"name": "Real Residence Hotel", "tourism": "hotel"}}, {"type": "node", "id": 529749037, "lat": -22.9620932, "lon": -43.1685341, "tags": {"addr:city": "Rio de Janeiro", "addr:country": "BR", "addr:housenumber": "320", "addr:street": "Rua Gustavo Sampaio", "bar": "yes", "brand": "Novotel", "brand:wikidata": "Q420545", "internet_access": "wlan", "name": "Novotel Leme", "phone": "+55-21-35455300", "toilets:wheelchair": "yes", "tourism": "hotel", "website": "https://all.accor.com/hotel/B205/index.en.shtml", "wheelchair": "yes"}}, {"type": "node", "id": 557558198, "lat": -22.9859438, "lon": -43.189331, "tags": {"brand": "Fairmont", "name": "Fairmont Rio de Janeiro Copacabana", "tourism": "hotel"}}, {"type": "node", "id": 557558281, "lat": -22.986726, "lon": -43.1921806, "tags": {"name": "Atlantis Hotel Copacabana", "tourism": "hotel"}}, {"type": "node", "id": 557558361, "lat": -22.9759282, "lon": -43.1916779, "tags": {"addr:city": "Rio de Janeiro", "addr:housenumber": "119", "addr:postcode": "22061-020", "addr:street": "Rua Bol\u00edvar", "name": "Augusto's Copacabana", "operator": "Augusto\u00b4s Hot\u00e9is", "phone": "+55 21 2547 1800", "smoking": "outside", "tourism": "hotel"}}, {"type": "node", "id": 557558551, "lat": -22.9707403, "lon": -43.1890821, "tags": {"name": "Bandeirantes", "tourism": "hotel"}}, {"type": "node", "id": 557558655, "lat": -22.9714357, "lon": -43.1855373, "tags": {"name": "Toledo", "tourism": "hotel"}}, {"type": "node", "id": 559645073, "lat": -22.9071693, "lon": -43.1819045}, {"type": "node", "id": 559645116, "lat": -22.9128806, "lon": -43.1838607, "tags": {"addr:city": "Rio de Janeiro", "addr:housenumber": "117", "addr:postcode": "20230-150", "addr:street": "Avenida Mem de S\u00e1", "addr:suburb": "Centro", "name": "Dora Residence", "tourism": "hotel"}}, {"type": "node", "id": 559645225, "lat": -22.9198325, "lon": -43.1790216, "tags": {"addr:city": "Rio de Janeiro", "addr:housenumber": "201", "addr:postcode": "20241-220", "addr:street": "Rua C\u00e2ndido Mendes", "name": "Hotel Monte Castelo", "phone": "(21) 2233-0085", "tourism": "hotel", "website": "https://www.hotelmontecastelo.com.br/"}}, {"type": "node", "id": 559645234, "lat": -22.9172701, "lon": -43.1809843, "tags": {"name": "Vov\u00f3 House Hotel Geri\u00e1trico", "tourism": "hotel"}}, {"type": "node", "id": 568894947, "lat": -22.9499483, "lon": -43.1919962}, {"type": "node", "id": 568894953, "lat": -22.9500012, "lon": -43.1921894}, {"type": "node", "id": 568894956, "lat": -22.9493157, "lon": -43.1925027}, {"type": "node", "id": 592598087, "lat": -22.9113066, "lon": -43.1765566, "tags": {"addr:city": "Rio de Janeiro", "addr:country": "BR", "addr:housenumber": "24", "addr:postcode": "20031-200", "addr:street": "Rua Senador Dantas", "created_by": "iLOE 1.8", "internet_access": "wlan", "name": "Hot\u00e9is OK", "opening_hours": "24/7", "tourism": "hotel"}}, {"type": "node", "id": 592598131, "lat": -22.9116545, "lon": -43.1764953, "tags": {"addr:city": "Rio de Janeiro", "addr:country": "BR", "addr:housenumber": "14", "addr:street": "Rua Senador Dantas", "name": "Windsor Ast\u00farias", "phone": "+55-21-21951500", "tourism": "hotel", "website": "https://www.windsorhoteis.com.br/pt-br/loca.asp?hid=59"}}, {"type": "node", "id": 616374511, "lat": -22.9045317, "lon": -43.1221922}, {"type": "node", "id": 621484477, "lat": -22.8185928, "lon": -43.2007251, "tags": {"addr:housenumber": "68", "addr:street": "Pra\u00e7a Jerusal\u00e9m", "name": "Joalo's", "tourism": "hotel"}}, {"type": "node", "id": 621484491, "lat": -22.8203808, "lon": -43.1906309, "tags": {"name": "Sunshine", "note": "Hotel fechado definitivamente", "tourism": "hotel"}}, {"type": "node", "id": 633485480, "lat": -22.9224524, "lon": -43.2485663}, {"type": "node", "id": 633485481, "lat": -22.9223504, "lon": -43.2482375}, {"type": "node", "id": 633485482, "lat": -22.9218366, "lon": -43.2484089}, {"type": "node", "id": 633485484, "lat": -22.9219554, "lon": -43.2487675}, {"type": "node", "id": 633485486, "lat": -22.922319, "lon": -43.2487096}, {"type": "node", "id": 633485487, "lat": -22.9223012, "lon": -43.2486041}, {"type": "node", "id": 635991438, "lat": -22.9288574, "lon": -43.1779283, "tags": {"addr:housenumber": "29", "addr:street": "Rua Artur Bernardes", "name": "Hotel Rio Lisboa", "phone": "+55-21-22659599", "source": "survey", "tourism": "hotel"}}, {"type": "node", "id": 635991451, "lat": -22.9287586, "lon": -43.1784111, "tags": {"addr:housenumber": "39", "addr:street": "Rua Artur Bernardes", "breakfast": "yes", "internet_access": "wlan;terminal", "internet_access:fee": "customers", "name": "Petit Rio Hotel", "phone": "+55-21-22257767", "source": "survey", "tourism": "hotel", "website": "https://petitriohotel.com.br/"}}, {"type": "node", "id": 704978377, "lat": -22.9268437, "lon": -43.1758703, "tags": {"addr:city": "Rio de Janeiro", "addr:country": "BR", "addr:housenumber": "58", "addr:postcode": "22210-040", "addr:street": "Rua Ferreira Viana", "addr:suburb": "Catete", "name": "Ferreira Viana", "tourism": "hotel"}}, {"type": "node", "id": 704978396, "lat": -22.9277035, "lon": -43.1745722, "tags": {"addr:city": "Rio de Janeiro", "addr:country": "BR", "addr:housenumber": "29", "addr:postcode": "22210-040", "addr:street": "Rua Ferreira Viana", "addr:suburb": "Catete", "email": "hotelregina@hotelregina.com.br", "name": "Regina", "phone": "+55-21-32899999", "source": "survey", "tourism": "hotel", "website": "http://www.hotelregina.com.br/"}}, {"type": "node", "id": 704978397, "lat": -22.9274418, "lon": -43.1741429, "tags": {"addr:city": "Rio de Janeiro", "addr:country": "BR", "addr:housenumber": "20", "addr:postcode": "22210-040", "addr:street": "Rua Ferreira Viana", "addr:suburb": "Catete", "name": "Beija Flor", "phone": "+55-21-22852492", "source": "survey", "tourism": "hotel", "website": "http://www.hotelbeijaflor.com.br/"}}, {"type": "node", "id": 704992216, "lat": -22.9280591, "lon": -43.174687, "tags": {"addr:city": "Rio de Janeiro", "addr:country": "BR", "addr:housenumber": "22", "addr:postcode": "22210-050", "addr:street": "Rua Correa Dutra", "addr:suburb": "Catete", "name": "Caxamb\u00fa", "phone": "+55-21-22659496", "source": "survey", "tourism": "hotel"}}, {"type": "node", "id": 704992217, "lat": -22.9282864, "lon": -43.1751483, "tags": {"addr:city": "Rio de Janeiro", "addr:country": "BR", "addr:housenumber": "31", "addr:postcode": "22210-050", "addr:street": "Rua Correa Dutra", "check_date": "2024-10-12", "email": "contato@mengopalace.com.br", "name": "Mengo Palace", "phone": "+55-21-+55-21-32621616", "source": "survey", "tourism": "hotel", "url": "http://www.mengopalace.com/"}}, {"type": "node", "id": 761862113, "lat": -23.0021788, "lon": -43.3920554}, {"type": "node", "id": 761862114, "lat": -23.0017852, "lon": -43.3919845}, {"type": "node", "id": 761862115, "lat": -23.001788, "lon": -43.3918388}, {"type": "node", "id": 761862116, "lat": -23.0021837, "lon": -43.3917989}, {"type": "node", "id": 792138694, "lat": -23.0109573, "lon": -43.3275205}, {"type": "node", "id": 792140343, "lat": -23.0095726, "lon": -43.3273359}, {"type": "node", "id": 792145674, "lat": -23.0110628, "lon": -43.3265856}, {"type": "node", "id": 814301121, "lat": -23.0117278, "lon": -43.3170801, "tags": {"addr:housenumber": "150", "addr:street": "Pra\u00e7a S\u00e3o Perp\u00e9tuo", "amenity": "love_hotel", "name": "Papillon", "phone": "+55-21-24942727", "tourism": "hotel", "website": "http://www.papillonmotel.com.br/"}}, {"type": "node", "id": 815566819, "lat": -22.9229216, "lon": -43.2300856, "tags": {"name": "Hotel Tijuca", "tourism": "hotel"}}, {"type": "node", "id": 819332299, "lat": -22.9252196, "lon": -43.2308274, "tags": {"name": "\u00c9den Motel", "tourism": "hotel"}}, {"type": "node", "id": 819646440, "lat": -22.9116781, "lon": -43.2133499, "tags": {"name": "Hotel Saionar\u00e1", "tourism": "hotel"}}, {"type": "node", "id": 819646538, "lat": -22.912694, "lon": -43.2138045, "tags": {"name": "Hotel M\u00e1laga", "tourism": "hotel"}}, {"type": "node", "id": 836977642, "lat": -22.9338773, "lon": -43.175155, "tags": {"addr:city": "Rio de Janeiro", "addr:country": "BR", "addr:housenumber": "23", "addr:postcode": "22210-080", "addr:street": "Rua Paissandu", "name": "Paysand\u00fa Hotel", "phone": "+55-21-25587270", "tourism": "hotel", "website": "http://www.paysanduhotel.com.br/"}}, {"type": "node", "id": 885782000, "lat": -22.9659857, "lon": -43.1845857, "tags": {"addr:city": "Rio de Janeiro", "addr:country": "BR", "addr:housenumber": "154", "addr:street": "Rua Tonelero", "name": "Royalty Copacabana", "phone": "+55-21-25485699", "stars": "4", "tourism": "hotel", "website": "http://www.royaltycopacabana-hotel.com/"}}, {"type": "node", "id": 892159613, "lat": -22.9689948, "lon": -43.1817135, "tags": {"addr:city": "Rio de Janeiro", "addr:country": "BR", "addr:housenumber": "2064", "addr:postcode": "22021-001", "addr:street": "Avenida Atl\u00e2ntica", "name": "Arena", "phone": "+55-21-30341501", "tourism": "hotel", "website": "https://www.arenahotel.com.br/"}}, {"type": "node", "id": 892159651, "lat": -22.9662486, "lon": -43.183237, "tags": {"addr:city": "Rio de Janeiro", "addr:country": "BR", "addr:housenumber": "345", "addr:street": "Rua Rep\u00fablica do Peru", "name": "Astoria Copacabana", "phone": "+55-21-25459090", "tourism": "hotel", "website": "http://www.astoriacopacabanahotel.com/"}}, {"type": "node", "id": 892159791, "lat": -22.9697258, "lon": -43.183119, "tags": {"addr:city": "Rio de Janeiro", "addr:country": "BR", "addr:housenumber": "17", "addr:postcode": "22040-020", "addr:street": "Rua Hil\u00e1rio de Gouveia", "name": "Oceano Copacabana", "phone": "+55-21-25484260", "stars": "4", "tourism": "hotel", "website": "http://www.oceanohotel.com.br/"}}, {"type": "node", "id": 914639098, "lat": -22.9156626, "lon": -43.1872996, "tags": {"name": "S\u00e3o Jorge", "phone": "+55-21-22243516", "tourism": "hotel"}}, {"type": "node", "id": 921294740, "lat": -22.9879365, "lon": -43.1937983, "tags": {"addr:city": "Rio de Janeiro", "addr:country": "BR", "addr:housenumber": "177", "addr:postcode": "22080-046", "addr:street": "Rua Francisco Otaviano", "addr:suburb": "Arpoador", "brand": "Hotel Arpoador", "description": "Located in Arpoador, the ARPOADOR is a lifestyle and wellness beach hotel that offers 49 rooms, many of which are sea facing. The gastronomy is signed by Chef Roberta Sudbrack and the architecture and interiores are by Bernardes Arquitetura.", "email": "reservas@hotelarpoador.com", "internet_access": "wlan", "name": "Hotel Arpoador", "operator": "Grupo Arpoador", "phone": "+55 21 3600 4000", "rooms": "49", "smoking": "outside", "stars": "4", "tourism": "hotel", "website": "https://www.hotelarpoador.com/", "wheelchair": "yes"}}, {"type": "node", "id": 946673775, "lat": -22.9289213, "lon": -43.1756649, "tags": {"addr:city": "Rio de Janeiro", "addr:country": "BR", "addr:housenumber": "54", "addr:postcode": "22220-030", "addr:street": "Rua Buarque de Macedo", "addr:suburb": "Catete", "name": "\u00danico", "phone": "+55-21-22059932;+55-21-22058149;+55-21-22058696", "tourism": "hotel", "website": "http://www.unicohotel.com.br/"}}, {"type": "node", "id": 946673777, "lat": -22.928783, "lon": -43.1760511, "tags": {"addr:city": "Rio de Janeiro", "addr:country": "BR", "addr:housenumber": "60", "addr:postcode": "22220-030", "addr:street": "Rua Buarque de Macedo", "addr:suburb": "Catete", "name": "Rond\u00f4nia Palace", "phone": "+55-21-25560616", "tourism": "hotel", "website": "http://www.hotelrondonia.com.br/"}}, {"type": "node", "id": 1007268968, "lat": -22.9725439, "lon": -43.1858029, "tags": {"addr:city": "Rio de Janeiro", "addr:country": "BR", "addr:housenumber": "2600", "addr:postcode": "22041-001", "addr:street": "Avenida Atlantica", "name": "JW Marriot Hotel", "tourism": "hotel", "wikidata": "Q10304634", "wikimedia_commons": "Category:JW Marriott Hotel (Copacabana)", "wikipedia": "pt:JW Marriott Hotel Rio de Janeiro"}}, {"type": "node", "id": 1105680068, "lat": -22.9645008, "lon": -43.1732925, "tags": {"brand": "Hilton", "brand:wikidata": "Q598884", "name": "Hilton Rio de Janeiro Copacabana", "operator": "Windsor", "phone": "+55-21-21957800", "tourism": "hotel", "website": "https://www.windsorhoteis.com.br/"}}, {"type": "node", "id": 1153574019, "lat": -23.0114386, "lon": -43.3217887, "tags": {"name": "Windsor Barra", "tourism": "hotel", "wheelchair": "yes"}}, {"type": "node", "id": 1162650958, "lat": -22.9670898, "lon": -43.1784368}, {"type": "node", "id": 1162650963, "lat": -22.9663879, "lon": -43.1788462}, {"type": "node", "id": 1162650967, "lat": -22.9669219, "lon": -43.1797964}, {"type": "node", "id": 1219014560, "lat": -22.9857142, "lon": -43.2006376, "tags": {"tourism": "hotel"}}, {"type": "node", "id": 1326409438, "lat": -22.9113569, "lon": -43.1769281, "tags": {"addr:city": "Rio de Janeiro", "addr:housenumber": "25", "addr:street": "Rua Senador Dantas", "addr:suburb": "Centro", "name": "Hotel Atl\u00e2ntico Business Centro", "operator": "Atlantico", "tourism": "hotel"}}, {"type": "node", "id": 1400550030, "lat": -22.897784, "lon": -43.1242552}, {"type": "node", "id": 1400550033, "lat": -22.8978667, "lon": -43.1243614}, {"type": "node", "id": 1408488961, "lat": -22.9078838, "lon": -43.1824122}, {"type": "node", "id": 1411267420, "lat": -22.9075923, "lon": -43.1817419}, {"type": "node", "id": 1411279733, "lat": -22.9072636, "lon": -43.1815853, "tags": {"name": "Rio's Hotel", "tourism": "hotel"}}, {"type": "node", "id": 1463421931, "lat": -22.9009994, "lon": -43.1312744}, {"type": "node", "id": 1463421935, "lat": -22.9012326, "lon": -43.1309773}, {"type": "node", "id": 1463421936, "lat": -22.9011569, "lon": -43.1309462}, {"type": "node", "id": 1463421944, "lat": -22.9009264, "lon": -43.1312216}, {"type": "node", "id": 1555954385, "lat": -22.983194, "lon": -43.19064, "tags": {"addr:housenumber": "17", "addr:street": "Rua Francisco S\u00e1", "name": "Portinari Design Hotel", "phone": "+552132228800", "tourism": "hotel", "website": "http://www.portinaridesignhotel.com"}}, {"type": "node", "id": 1746255488, "lat": -22.894543, "lon": -43.296601, "tags": {"name": "Megare Motel", "tourism": "hotel"}}, {"type": "node", "id": 1766683869, "lat": -23.0019836, "lon": -43.3919096, "tags": {"addr:city": "Rio de Janeiro", "addr:housenumber": "1355", "addr:postcode": "22793-295", "addr:street": "Rua Malibu", "name": "Bourbon Barra Premium Residence", "tourism": "hotel", "website": "https://www.bourbon.com.br/hoteis-e-resorts/bourbon-rio-de-janeiro-residence/"}}, {"type": "node", "id": 1770591820, "lat": -22.8011634, "lon": -43.3504679, "tags": {"name": "Vogue Hotel", "tourism": "hotel"}}, {"type": "node", "id": 1885880564, "lat": -22.9686449, "lon": -43.1890949, "tags": {"addr:city": "Rio de Janeiro", "addr:street": "Rua Tonelero", "name": "Mirador", "smoking": "no", "tourism": "hotel"}}, {"type": "node", "id": 1898416801, "lat": -22.9298251, "lon": -43.1793378, "tags": {"name": "Hotel Scorial", "tourism": "hotel"}}, {"type": "node", "id": 1924325343, "lat": -22.9031735, "lon": -43.1343231}, {"type": "node", "id": 1924325344, "lat": -22.9031904, "lon": -43.1351705}, {"type": "node", "id": 1924325345, "lat": -22.9033899, "lon": -43.134318}, {"type": "node", "id": 1924742283, "lat": -22.897913, "lon": -43.1243244}, {"type": "node", "id": 1924742303, "lat": -22.8981941, "lon": -43.1239396}, {"type": "node", "id": 1924742304, "lat": -22.8982303, "lon": -43.1239415}, {"type": "node", "id": 1924742305, "lat": -22.8982828, "lon": -43.1239749}, {"type": "node", "id": 1924742307, "lat": -22.8983009, "lon": -43.1240142}, {"type": "node", "id": 1925250695, "lat": -22.895292, "lon": -43.123402}, {"type": "node", "id": 1955335244, "lat": -22.9028357, "lon": -43.1341801}, {"type": "node", "id": 1955335259, "lat": -22.9028389, "lon": -43.1344629}, {"type": "node", "id": 1955335262, "lat": -22.9034068, "lon": -43.1351654}, {"type": "node", "id": 1955335263, "lat": -22.9031199, "lon": -43.1340995}, {"type": "node", "id": 1955335264, "lat": -22.9036499, "lon": -43.1343712}, {"type": "node", "id": 1955335265, "lat": -22.9032127, "lon": -43.1354126}, {"type": "node", "id": 1955335271, "lat": -22.9031133, "lon": -43.1340598}, {"type": "node", "id": 1955335273, "lat": -22.903508, "lon": -43.1350749}, {"type": "node", "id": 1955335275, "lat": -22.9028454, "lon": -43.1340244}, {"type": "node", "id": 1955335276, "lat": -22.9036855, "lon": -43.1343721}, {"type": "node", "id": 1955335278, "lat": -22.9030106, "lon": -43.1355075}, {"type": "node", "id": 1955335280, "lat": -22.9034026, "lon": -43.1353932}, {"type": "node", "id": 1955335284, "lat": -22.9034138, "lon": -43.1351627}, {"type": "node", "id": 1955335296, "lat": -22.9036164, "lon": -43.1349039}, {"type": "node", "id": 1955335297, "lat": -22.9029908, "lon": -43.1347173}, {"type": "node", "id": 1955335298, "lat": -22.9036869, "lon": -43.1340771}, {"type": "node", "id": 1958722214, "lat": -22.9045879, "lon": -43.1216518}, {"type": "node", "id": 1958722216, "lat": -22.9046844, "lon": -43.1222117}, {"type": "node", "id": 1958722218, "lat": -22.9047978, "lon": -43.1216777}, {"type": "node", "id": 2005491204, "lat": -22.9723425, "lon": -43.3752597}, {"type": "node", "id": 2012130910, "lat": -22.968896, "lon": -43.1845, "tags": {"addr:housenumber": "552", "addr:street": "Avenida Nossa Senhora da Copacabana", "name": "Mar Palace Hatel Copacabana", "tourism": "hotel"}}, {"type": "node", "id": 2170215571, "lat": -22.9649775, "lon": -43.1799239}, {"type": "node", "id": 2170215599, "lat": -22.9650537, "lon": -43.1800363}, {"type": "node", "id": 2170215642, "lat": -22.965176, "lon": -43.1797985}, {"type": "node", "id": 2170215654, "lat": -22.9651616, "lon": -43.17995}, {"type": "node", "id": 2182536361, "lat": -22.9768298, "lon": -43.1919973, "tags": {"addr:housenumber": "73", "addr:street": "Rua Xavier da Silveira", "name": "Copacabana Flat Hotel Resid\u00eancia", "source": "survey", "tourism": "hotel"}}, {"type": "node", "id": 2184276224, "lat": -22.9813984, "lon": -43.1901178, "tags": {"addr:city": "Rio de Janeiro", "addr:housenumber": "48", "addr:postcode": "22081-000", "addr:street": "Rua Sousa Lima", "addr:suburb": "Copacabana", "internet_access": "yes", "internet_access:fee": "no", "name": "Grand Mercure Rio de Janeiro Copacabana", "rooms": "319", "tourism": "hotel"}}, {"type": "node", "id": 2184276665, "lat": -22.9850742, "lon": -43.1896517, "tags": {"name": "Orla Hotel", "tourism": "hotel"}}, {"type": "node", "id": 2184276778, "lat": -22.9826181, "lon": -43.1911947, "tags": {"name": "Copacabana Rio Hotel", "source": "survey", "tourism": "hotel"}}, {"type": "node", "id": 2203274265, "lat": -22.9618545, "lon": -43.1762477}, {"type": "node", "id": 2203274276, "lat": -22.961853, "lon": -43.1760678}, {"type": "node", "id": 2203274292, "lat": -22.9619178, "lon": -43.176215}, {"type": "node", "id": 2203274303, "lat": -22.9617897, "lon": -43.1761007}, {"type": "node", "id": 2203304045, "lat": -22.9629777, "lon": -43.1753444}, {"type": "node", "id": 2203304049, "lat": -22.9628169, "lon": -43.1749737}, {"type": "node", "id": 2203304077, "lat": -22.9626835, "lon": -43.1750419}, {"type": "node", "id": 2203304114, "lat": -22.9628771, "lon": -43.1751125}, {"type": "node", "id": 2203304118, "lat": -22.9628386, "lon": -43.1754156}, {"type": "node", "id": 2203304131, "lat": -22.9627473, "lon": -43.1751888}, {"type": "node", "id": 2263483019, "lat": -23.0134044, "lon": -43.3140692, "tags": {"name": "Sol da Barra", "source": "survey", "tourism": "hotel"}}, {"type": "node", "id": 2284775529, "lat": -23.0097495, "lon": -43.3719584}, {"type": "node", "id": 2284775536, "lat": -23.0099222, "lon": -43.372803}, {"type": "node", "id": 2284775545, "lat": -23.0108748, "lon": -43.3737767}, {"type": "node", "id": 2284775550, "lat": -23.0110034, "lon": -43.3737632}, {"type": "node", "id": 2284775554, "lat": -23.0107788, "lon": -43.373672}, {"type": "node", "id": 2284775556, "lat": -23.0109277, "lon": -43.3728583}, {"type": "node", "id": 2284775558, "lat": -23.0098061, "lon": -43.3724651}, {"type": "node", "id": 2284775560, "lat": -23.0094385, "lon": -43.3714247}, {"type": "node", "id": 2284775562, "lat": -23.010727, "lon": -43.3713468}, {"type": "node", "id": 2284779761, "lat": -23.0273442, "lon": -43.4652149}, {"type": "node", "id": 2284779762, "lat": -23.0270133, "lon": -43.4653451}, {"type": "node", "id": 2284779763, "lat": -23.0267823, "lon": -43.4646521}, {"type": "node", "id": 2284779764, "lat": -23.0271132, "lon": -43.4645219}, {"type": "node", "id": 2318497672, "lat": -22.9828078, "lon": -43.2238017, "tags": {"name": "Monsieur Le-Blond Apart Hotel", "source": "survey", "tourism": "hotel"}}, {"type": "node", "id": 2333211871, "lat": -22.9095621, "lon": -43.1834043, "tags": {"addr:city": "Rio de Janeiro", "addr:housenumber": "68", "addr:street": "Rua do Lavradio", "addr:suburb": "Lapa", "name": "Casa Blanca", "source": "survey", "tourism": "hotel"}}, {"type": "node", "id": 2333211872, "lat": -22.9094247, "lon": -43.1834507, "tags": {"addr:city": "Rio de Janeiro", "addr:housenumber": "62", "addr:postcode": "20230-070", "addr:street": "Rua do Lavradio", "name": "Castelo", "source": "survey", "tourism": "hotel"}}, {"type": "node", "id": 2370914383, "lat": -22.9527483, "lon": -43.1850831}, {"type": "node", "id": 2370914385, "lat": -22.9528282, "lon": -43.1849961}, {"type": "node", "id": 2370914388, "lat": -22.9530597, "lon": -43.1854333}, {"type": "node", "id": 2486714799, "lat": -22.8877834, "lon": -43.1225656, "tags": {"addr:housenumber": "281", "addr:street": "Rua Visconde de Uruguai", "name": "Trianon", "source": "survey", "tourism": "hotel"}}, {"type": "node", "id": 2486753814, "lat": -22.8882484, "lon": -43.1229686, "tags": {"addr:housenumber": "274", "addr:street": "Rua Visconde de Uruguai", "name": "Ponte Nova", "source": "survey", "tourism": "hotel"}}, {"type": "node", "id": 2499008957, "lat": -22.9157181, "lon": -43.1787868, "tags": {"addr:city": "Rio de Janeiro", "addr:housenumber": "69", "addr:postcode": "20241-110", "addr:street": "Rua Joaquim Silva", "addr:suburb": "Lapa", "name": "Hotel Americano", "phone": "+55-21-22247067", "tourism": "hotel"}}, {"type": "node", "id": 2578087407, "lat": -22.9525592, "lon": -43.1899998}, {"type": "node", "id": 2578101833, "lat": -22.9866141, "lon": -43.190047, "tags": {"addr:city": "Rio de Janeiro", "addr:housenumber": "30", "addr:street": "Rua Francisco Otaviano", "name": "Copacabana Praia Hotel", "phone": "+55-21-35055555", "stars": "4", "tourism": "hotel", "website": "http://www.copacabanapraiahotel.com.br/pt/index.php"}}, {"type": "node", "id": 2620450709, "lat": -22.8173294, "lon": -43.2370461, "tags": {"name": "Linx Hotel", "tourism": "hotel"}}, {"type": "node", "id": 2632915310, "lat": -22.9809795, "lon": -43.1901165, "tags": {"name": "Miramar", "operator": "Windsor", "tourism": "hotel", "wheelchair": "yes"}}, {"type": "node", "id": 2652174771, "lat": -22.9236551, "lon": -43.1731769}, {"type": "node", "id": 2652174772, "lat": -22.9237164, "lon": -43.1733614}, {"type": "node", "id": 2652174773, "lat": -22.9237254, "lon": -43.1732939}, {"type": "node", "id": 2652174774, "lat": -22.9238236, "lon": -43.1733094}, {"type": "node", "id": 2652174775, "lat": -22.9238039, "lon": -43.1734752}, {"type": "node", "id": 2652174776, "lat": -22.9235357, "lon": -43.173449}, {"type": "node", "id": 2652174778, "lat": -22.9235703, "lon": -43.1731558}, {"type": "node", "id": 2707541501, "lat": -23.0008904, "lon": -43.3917304}, {"type": "node", "id": 2707541504, "lat": -23.0008915, "lon": -43.3918759}, {"type": "node", "id": 2707541520, "lat": -23.0012096, "lon": -43.3918868}, {"type": "node", "id": 2707541523, "lat": -23.0012129, "lon": -43.3919473}, {"type": "node", "id": 2707541525, "lat": -23.0012173, "lon": -43.391741}, {"type": "node", "id": 2707541528, "lat": -23.0012205, "lon": -43.39169}, {"type": "node", "id": 2707541535, "lat": -23.0012834, "lon": -43.3919482}, {"type": "node", "id": 2707541538, "lat": -23.0012877, "lon": -43.3916925}, {"type": "node", "id": 2707541711, "lat": -23.0021075, "lon": -43.3919918}, {"type": "node", "id": 2707541714, "lat": -23.0021063, "lon": -43.3920537}, {"type": "node", "id": 2707541716, "lat": -23.0021141, "lon": -43.3918463}, {"type": "node", "id": 2707541724, "lat": -23.0021151, "lon": -43.3917973}, {"type": "node", "id": 2747719898, "lat": -22.9701022, "lon": -43.1844198, "tags": {"name": "Windsor Palace", "tourism": "hotel"}}, {"type": "node", "id": 2758085006, "lat": -22.908675, "lon": -43.1695146}, {"type": "node", "id": 2758085007, "lat": -22.9085878, "lon": -43.1692775}, {"type": "node", "id": 2758085011, "lat": -22.9085518, "lon": -43.1690149}, {"type": "node", "id": 2758085012, "lat": -22.9082994, "lon": -43.1690679}, {"type": "node", "id": 2758085013, "lat": -22.9084853, "lon": -43.1696529}, {"type": "node", "id": 2758085014, "lat": -22.9085691, "lon": -43.1696963}, {"type": "node", "id": 2836362375, "lat": -22.9997227, "lon": -43.4167984}, {"type": "node", "id": 2836362388, "lat": -22.9999267, "lon": -43.4177112}, {"type": "node", "id": 2836362389, "lat": -22.9999889, "lon": -43.4178802}, {"type": "node", "id": 2836362390, "lat": -23.0000304, "lon": -43.4167308}, {"type": "node", "id": 2836362391, "lat": -23.0001584, "lon": -43.4176098}, {"type": "node", "id": 2836362392, "lat": -23.000186, "lon": -43.4174821}, {"type": "node", "id": 2860840702, "lat": -22.9308756, "lon": -43.1812268, "tags": {"name": "Hotel Br\u00e1s", "tourism": "hotel"}}, {"type": "node", "id": 2876166398, "lat": -23.0133951, "lon": -43.2982845}, {"type": "node", "id": 2876166399, "lat": -23.0134751, "lon": -43.2978653}, {"type": "node", "id": 2876166400, "lat": -23.0136751, "lon": -43.2983421}, {"type": "node", "id": 2876166901, "lat": -23.0136856, "lon": -43.2984199}, {"type": "node", "id": 2876166902, "lat": -23.0139417, "lon": -43.2980025}, {"type": "node", "id": 2876166903, "lat": -23.0140011, "lon": -43.2981726}, {"type": "node", "id": 2876166904, "lat": -23.0140199, "lon": -43.2981693}, {"type": "node", "id": 2876166905, "lat": -23.0140481, "lon": -43.2983693}, {"type": "node", "id": 2885582426, "lat": -22.9125723, "lon": -43.2106958}, {"type": "node", "id": 2885582429, "lat": -22.9126983, "lon": -43.2102962}, {"type": "node", "id": 2885582432, "lat": -22.9129577, "lon": -43.2104143}, {"type": "node", "id": 2885582433, "lat": -22.9125451, "lon": -43.2106582}, {"type": "node", "id": 2885582434, "lat": -22.9125352, "lon": -43.2106074}, {"type": "node", "id": 2885582435, "lat": -22.9126365, "lon": -43.2107199}, {"type": "node", "id": 2885582437, "lat": -22.9129281, "lon": -43.2107682}, {"type": "node", "id": 2885582438, "lat": -22.9126439, "lon": -43.2103311}, {"type": "node", "id": 2887249202, "lat": -22.8024052, "lon": -43.3635033, "tags": {"name": "Hotel Sagit\u00e1rio", "tourism": "hotel"}}, {"type": "node", "id": 2902083897, "lat": -22.9076337, "lon": -43.1824152}, {"type": "node", "id": 2902083899, "lat": -22.9079465, "lon": -43.1823005}, {"type": "node", "id": 2902084101, "lat": -22.9076386, "lon": -43.182312}, {"type": "node", "id": 2902084104, "lat": -22.907823, "lon": -43.1820389}, {"type": "node", "id": 2902084105, "lat": -22.9077398, "lon": -43.1820583}, {"type": "node", "id": 2902084106, "lat": -22.9077217, "lon": -43.1816987}, {"type": "node", "id": 2902084109, "lat": -22.9075819, "lon": -43.1819061}, {"type": "node", "id": 2902084110, "lat": -22.9075455, "lon": -43.1817811}, {"type": "node", "id": 2902117749, "lat": -22.9750337, "lon": -43.1877748}, {"type": "node", "id": 2902117750, "lat": -22.9748886, "lon": -43.1880128}, {"type": "node", "id": 2902117751, "lat": -22.9748176, "lon": -43.1879726}, {"type": "node", "id": 2902117752, "lat": -22.9747744, "lon": -43.1880531}, {"type": "node", "id": 2902117753, "lat": -22.9750121, "lon": -43.1882207}, {"type": "node", "id": 2902117754, "lat": -22.9750677, "lon": -43.1881168}, {"type": "node", "id": 2902117755, "lat": -22.9750121, "lon": -43.1880765}, {"type": "node", "id": 2902117756, "lat": -22.9751417, "lon": -43.1878485}, {"type": "node", "id": 2906036227, "lat": -22.972784, "lon": -43.3873328}, {"type": "node", "id": 2906036228, "lat": -22.9727847, "lon": -43.3879127}, {"type": "node", "id": 2906036229, "lat": -22.9726947, "lon": -43.3879128}, {"type": "node", "id": 2906036230, "lat": -22.9726947, "lon": -43.387874}, {"type": "node", "id": 2906036231, "lat": -22.9726359, "lon": -43.3878741}, {"type": "node", "id": 2906036232, "lat": -22.9726353, "lon": -43.3874188}, {"type": "node", "id": 2906036233, "lat": -22.9726958, "lon": -43.3874187}, {"type": "node", "id": 2906036234, "lat": -22.9726957, "lon": -43.387333}, {"type": "node", "id": 2930741243, "lat": -22.9235229, "lon": -43.1894238, "tags": {"name": "Casa Beleza", "tourism": "hotel", "website": "https://www.casabeleza.com/"}}, {"type": "node", "id": 2931163322, "lat": -23.0096781, "lon": -43.3264013}, {"type": "node", "id": 2968333619, "lat": -22.8170153, "lon": -43.2366648}, {"type": "node", "id": 2968333620, "lat": -22.8168111, "lon": -43.2369611}, {"type": "node", "id": 2973399324, "lat": -22.9092272, "lon": -43.1847521, "tags": {"addr:city": "Rio de Janeiro", "addr:housenumber": "64", "addr:postcode": "20231-000", "addr:street": "Rua do Senado", "addr:suburb": "Centro", "email": "contato@midwayhotel.com.br", "name": "Hotel Midway", "phone": "+55 21 2252-6562", "tourism": "hotel", "website": "http://www.midwayhotel.com.br/"}}, {"type": "node", "id": 3011367596, "lat": -22.9975549, "lon": -43.2572173}, {"type": "node", "id": 3011367597, "lat": -22.9977153, "lon": -43.2573496}, {"type": "node", "id": 3011367598, "lat": -22.9978668, "lon": -43.2574398}, {"type": "node", "id": 3011367599, "lat": -22.9980232, "lon": -43.2575}, {"type": "node", "id": 3011367600, "lat": -22.9981391, "lon": -43.25753}, {"type": "node", "id": 3011367601, "lat": -22.9985241, "lon": -43.2575058}, {"type": "node", "id": 3011367602, "lat": -22.9984767, "lon": -43.2574592}, {"type": "node", "id": 3011367603, "lat": -22.9983677, "lon": -43.2573731}, {"type": "node", "id": 3011367604, "lat": -22.9982423, "lon": -43.2572704}, {"type": "node", "id": 3011367605, "lat": -22.9981787, "lon": -43.2571979}, {"type": "node", "id": 3011367606, "lat": -22.9981527, "lon": -43.2571218}, {"type": "node", "id": 3011367607, "lat": -22.9981543, "lon": -43.2570563}, {"type": "node", "id": 3011367608, "lat": -22.9981901, "lon": -43.2570014}, {"type": "node", "id": 3011367609, "lat": -22.9982635, "lon": -43.2569254}, {"type": "node", "id": 3011367610, "lat": -22.9983758, "lon": -43.2568227}, {"type": "node", "id": 3011367611, "lat": -22.9984182, "lon": -43.2567537}, {"type": "node", "id": 3011367612, "lat": -22.9984492, "lon": -43.2566635}, {"type": "node", "id": 3011367613, "lat": -22.998441, "lon": -43.2565201}, {"type": "node", "id": 3011367614, "lat": -22.9981869, "lon": -43.2565856}, {"type": "node", "id": 3011367615, "lat": -22.9980224, "lon": -43.2566192}, {"type": "node", "id": 3011367616, "lat": -22.9978448, "lon": -43.2566298}, {"type": "node", "id": 3011367617, "lat": -22.9976519, "lon": -43.2566026}, {"type": "node", "id": 3011367618, "lat": -22.9975369, "lon": -43.2565219}, {"type": "node", "id": 3011367619, "lat": -22.997392, "lon": -43.2563839}, {"type": "node", "id": 3011367620, "lat": -22.9972747, "lon": -43.2562671}, {"type": "node", "id": 3011367621, "lat": -22.9971623, "lon": -43.2561574}, {"type": "node", "id": 3011367622, "lat": -22.9970393, "lon": -43.2560368}, {"type": "node", "id": 3011367623, "lat": -22.9969424, "lon": -43.2559468}, {"type": "node", "id": 3011367624, "lat": -22.9968919, "lon": -43.2559326}, {"type": "node", "id": 3011367625, "lat": -22.9968511, "lon": -43.2559344}, {"type": "node", "id": 3011367626, "lat": -22.996641, "lon": -43.256191}, {"type": "node", "id": 3011367627, "lat": -22.9966394, "lon": -43.2562511}, {"type": "node", "id": 3011367628, "lat": -22.9966557, "lon": -43.2562971}, {"type": "node", "id": 3011367629, "lat": -22.9967339, "lon": -43.2563927}, {"type": "node", "id": 3011367630, "lat": -22.9972584, "lon": -43.2569324}, {"type": "node", "id": 3011367631, "lat": -22.9974783, "lon": -43.2571395}, {"type": "node", "id": 3011367734, "lat": -22.9978033, "lon": -43.258477}, {"type": "node", "id": 3011367735, "lat": -22.9977831, "lon": -43.2582901}, {"type": "node", "id": 3011367736, "lat": -22.9983783, "lon": -43.258214}, {"type": "node", "id": 3011367737, "lat": -22.9983985, "lon": -43.258401}, {"type": "node", "id": 3011367742, "lat": -22.9983291, "lon": -43.2575392}, {"type": "node", "id": 3011392896, "lat": -22.9977481, "lon": -43.2566245}, {"type": "node", "id": 3011392958, "lat": -22.9984283, "lon": -43.2575284}, {"type": "node", "id": 3012123881, "lat": -22.968306, "lon": -43.1801884, "tags": {"addr:city": "Rio de Janeiro", "addr:country": "BR", "addr:housenumber": "1866", "addr:street": "Avenida Atl\u00e2ntica", "name": "Hotel Astoria Palace", "tourism": "hotel", "website": "https://www.astoriapalace.com.br/", "wikidata": "Q4811113", "wikipedia": "en:Astoria Palace Hotel"}}, {"type": "node", "id": 3012123882, "lat": -22.9662865, "lon": -43.1768303, "tags": {"addr:city": "Rio de Janeiro", "addr:country": "BR", "addr:housenumber": "1456", "addr:street": "Avenida Atl\u00e2ntica", "internet_access": "yes", "name": "Hotel Atlantico Praia", "phone": "+55 (21) 2543 4123", "tourism": "hotel", "website": "https://www.atlanticopraia.com.br/", "wikidata": "Q7111298", "wikipedia": "en:Hotel Atlantico Praia"}}, {"type": "node", "id": 3012123883, "lat": -22.9663297, "lon": -43.1769121, "tags": {"addr:city": "Rio de Janeiro", "addr:country": "BR", "addr:housenumber": "1470", "addr:street": "Avenida Atl\u00e2ntica", "name": "Hotel Rio Lancaster", "tourism": "hotel", "website": "http://hotelriolancaster.com.br/"}}, {"type": "node", "id": 3012413400, "lat": -22.9857682, "lon": -43.2074794}, {"type": "node", "id": 3012413401, "lat": -22.986135, "lon": -43.2074832}, {"type": "node", "id": 3012413402, "lat": -22.9861364, "lon": -43.2073215}, {"type": "node", "id": 3012413403, "lat": -22.9857696, "lon": -43.2073177}, {"type": "node", "id": 3077165960, "lat": -22.9655873, "lon": -43.3970086}, {"type": "node", "id": 3077165962, "lat": -22.9656123, "lon": -43.3971817}, {"type": "node", "id": 3077165975, "lat": -22.9659994, "lon": -43.3969384}, {"type": "node", "id": 3077165976, "lat": -22.9660244, "lon": -43.3971116}, {"type": "node", "id": 3199109033, "lat": -22.912701, "lon": -43.1908308, "tags": {"addr:city": "Rio de Janeiro,", "addr:housenumber": "159", "addr:postcode": "20231-031", "addr:street": "Avenida Henrique Valadares", "addr:suburb": "Centro", "name": "Arosa Rio Hotel", "phone": "+552132318031", "tourism": "hotel", "website": "http://www.arosariohotel.com/"}}, {"type": "node", "id": 3247930634, "lat": -22.9288223, "lon": -43.1780926, "tags": {"internet_access": "wlan", "internet_access:fee": "yes", "name": "Hotel 1900", "smoking": "no", "tourism": "hotel", "website": "http://www.hotel1900.com.br"}}, {"type": "node", "id": 3295557708, "lat": -22.9772947, "lon": -43.1903284}, {"type": "node", "id": 3295557709, "lat": -22.977314, "lon": -43.190229}, {"type": "node", "id": 3295557710, "lat": -22.9774728, "lon": -43.1902653}, {"type": "node", "id": 3295557711, "lat": -22.9774535, "lon": -43.1903562}, {"type": "node", "id": 3312991684, "lat": -23.0300912, "lon": -43.4701749}, {"type": "node", "id": 3312991685, "lat": -23.0300754, "lon": -43.4701398}, {"type": "node", "id": 3312991686, "lat": -23.029951, "lon": -43.4702058}, {"type": "node", "id": 3312991687, "lat": -23.0299706, "lon": -43.4702496}, {"type": "node", "id": 3312991688, "lat": -23.0298565, "lon": -43.4703101}, {"type": "node", "id": 3312991689, "lat": -23.0298759, "lon": -43.4703534}, {"type": "node", "id": 3312991690, "lat": -23.0299673, "lon": -43.470305}, {"type": "node", "id": 3312991691, "lat": -23.0299749, "lon": -43.4703218}, {"type": "node", "id": 3312991692, "lat": -23.0301423, "lon": -43.4702331}, {"type": "node", "id": 3312991693, "lat": -23.0301114, "lon": -43.4701642}, {"type": "node", "id": 3324052279, "lat": -22.986628, "lon": -43.2227036}, {"type": "node", "id": 3324052280, "lat": -22.9868809, "lon": -43.2226516}, {"type": "node", "id": 3324052281, "lat": -22.9869046, "lon": -43.2227877}, {"type": "node", "id": 3324052287, "lat": -22.9866361, "lon": -43.2227503}, {"type": "node", "id": 3324138299, "lat": -22.9869346, "lon": -43.1963805}, {"type": "node", "id": 3324138300, "lat": -22.9868531, "lon": -43.1961471}, {"type": "node", "id": 3324138301, "lat": -22.987142, "lon": -43.196072}, {"type": "node", "id": 3324138302, "lat": -22.9871741, "lon": -43.1962008}, {"type": "node", "id": 3324138303, "lat": -22.9871222, "lon": -43.1963724}, {"type": "node", "id": 3325547656, "lat": -22.992151, "lon": -43.2335568}, {"type": "node", "id": 3325547657, "lat": -22.9919841, "lon": -43.2334709}, {"type": "node", "id": 3325547658, "lat": -22.9922429, "lon": -43.232878}, {"type": "node", "id": 3325547659, "lat": -22.9924097, "lon": -43.232964}, {"type": "node", "id": 3437135390, "lat": -22.7963749, "lon": -43.3597, "tags": {"name": "Motel Astra", "tourism": "hotel"}}, {"type": "node", "id": 3489660146, "lat": -22.9818285, "lon": -43.1960462, "tags": {"addr:city": "Rio de Janeiro", "addr:housenumber": "184", "addr:street": "Rua Saint Roman", "addr:suburb": "Copacabana", "name": "Clubhouse Rio", "operator": "Oasis Collection", "smoking": "outside", "tourism": "hotel"}}, {"type": "node", "id": 3626025987, "lat": -22.9775992, "lon": -43.1890242}, {"type": "node", "id": 3626025988, "lat": -22.9773552, "lon": -43.1889415}, {"type": "node", "id": 3626025989, "lat": -22.9772258, "lon": -43.1893919}, {"type": "node", "id": 3626025990, "lat": -22.9774698, "lon": -43.1894746}, {"type": "node", "id": 3638072637, "lat": -22.9076828, "lon": -43.1820789}, {"type": "node", "id": 3638072646, "lat": -22.9079323, "lon": -43.1823698}, {"type": "node", "id": 3708742127, "lat": -22.9847835, "lon": -43.1913243, "tags": {"addr:city": "Rio de Janeiro", "addr:housenumber": "94", "addr:postcode": "22080-002", "addr:street": "Rua Raul Pomp\u00e9ia", "addr:suburb": "Copacabana", "email": "contato@atlanticopalace.com.br", "name": "Atl\u00e2ntico Palace", "phone": "(55 21) 2141-2700", "source": "survey", "tourism": "hotel", "website": "http://www.atlanticopalace.com.br"}}, {"type": "node", "id": 3737267968, "lat": -22.9137769, "lon": -43.1672822}, {"type": "node", "id": 3737267971, "lat": -22.9140134, "lon": -43.1674541}, {"type": "node", "id": 3737267978, "lat": -22.9151576, "lon": -43.1655694}, {"type": "node", "id": 3738891797, "lat": -22.9866517, "lon": -43.2228397}, {"type": "node", "id": 3750579825, "lat": -22.965073, "lon": -43.178758, "tags": {"addr:city": "Rio de Janeiro", "addr:housenumber": "155", "addr:postcode": "22021-010", "addr:street": "Rua Ministro Viveiros de Castro", "name": "Copacabana Mar Hotel", "tourism": "hotel"}}, {"type": "node", "id": 3750581425, "lat": -22.96482, "lon": -43.178821, "tags": {"addr:city": "Rio de Janeiro", "addr:housenumber": "134", "addr:postcode": "22021-010", "addr:street": "Rua Ministro Viveiros de Castro", "brand": "Ibis", "brand:wikidata": "Q920166", "brand:wikipedia": "en:Ibis (hotel)", "name": "Ibis", "tourism": "hotel"}}, {"type": "node", "id": 3798056415, "lat": -22.9797779, "lon": -43.4098635, "tags": {"barrier": "gate", "ref": "C"}}, {"type": "node", "id": 3798474012, "lat": -22.9216906, "lon": -43.1880122, "tags": {"addr:city": "Rio de Janeiro", "addr:street": "Rua Felicio Dos Santos", "addr:suburb": "Santa Teresa", "name": "T\u00e9r\u00e8ze", "phone": "021 3380 0220", "tourism": "hotel", "website": "https://www.tereze.com.br/"}}, {"type": "node", "id": 3815433704, "lat": -22.9738109, "lon": -43.4000939}, {"type": "node", "id": 3815433712, "lat": -22.973916, "lon": -43.4007929}, {"type": "node", "id": 3815433715, "lat": -22.9741288, "lon": -43.4000668}, {"type": "node", "id": 3815433718, "lat": -22.9742619, "lon": -43.400791}, {"type": "node", "id": 3815434066, "lat": -22.9800079, "lon": -43.41012}, {"type": "node", "id": 3815434069, "lat": -22.9801104, "lon": -43.409875}, {"type": "node", "id": 3815434074, "lat": -22.9802555, "lon": -43.4097317}, {"type": "node", "id": 3815434076, "lat": -22.9804481, "lon": -43.4103435}, {"type": "node", "id": 3815434081, "lat": -22.9804901, "lon": -43.409809}, {"type": "node", "id": 3815434083, "lat": -22.9806203, "lon": -43.4099103}, {"type": "node", "id": 3817919971, "lat": -22.9146968, "lon": -43.1824122}, {"type": "node", "id": 3828303325, "lat": -22.9737147, "lon": -43.3722798}, {"type": "node", "id": 3828303326, "lat": -22.9736848, "lon": -43.3721182}, {"type": "node", "id": 3828303327, "lat": -22.9737064, "lon": -43.3721988}, {"type": "node", "id": 3828303328, "lat": -22.9737045, "lon": -43.3717169}, {"type": "node", "id": 3828303333, "lat": -22.9738333, "lon": -43.3721183}, {"type": "node", "id": 3828303334, "lat": -22.9738346, "lon": -43.3718686}, {"type": "node", "id": 3828303336, "lat": -22.9740335, "lon": -43.3721189}, {"type": "node", "id": 3828303337, "lat": -22.9740331, "lon": -43.3718703}, {"type": "node", "id": 3828303340, "lat": -22.9741742, "lon": -43.3721196}, {"type": "node", "id": 3828303341, "lat": -22.974184, "lon": -43.3717252}, {"type": "node", "id": 3828303344, "lat": -22.9742286, "lon": -43.3722362}, {"type": "node", "id": 3828303345, "lat": -22.9742748, "lon": -43.3717236}, {"type": "node", "id": 3828303347, "lat": -22.9743847, "lon": -43.3723388}, {"type": "node", "id": 3828303349, "lat": -22.974407, "lon": -43.371724}, {"type": "node", "id": 3838015108, "lat": -22.9426282, "lon": -43.1816304}, {"type": "node", "id": 3870144469, "lat": -22.9149341, "lon": -43.1654249}, {"type": "node", "id": 3870144470, "lat": -22.9145824, "lon": -43.166053}, {"type": "node", "id": 3870144471, "lat": -22.9142147, "lon": -43.1666656}, {"type": "node", "id": 3870144472, "lat": -22.9138314, "lon": -43.1666683}, {"type": "node", "id": 3874302663, "lat": -22.9139482, "lon": -43.166477}, {"type": "node", "id": 3889503222, "lat": -22.915049, "lon": -43.1657482}, {"type": "node", "id": 4115282589, "lat": -22.939903, "lon": -43.1803441}, {"type": "node", "id": 4119263289, "lat": -22.9679522, "lon": -43.1891991, "tags": {"addr:housenumber": "87", "addr:street": "Rua Anita Garibaldi", "name": "CLH Suites Che Lagarto", "tourism": "hotel"}}, {"type": "node", "id": 4175095298, "lat": -22.9123899, "lon": -43.1835634, "tags": {"addr:housenumber": "35", "addr:street": "Rua do Rezende", "name": "Pouso Real", "tourism": "hotel"}}, {"type": "node", "id": 4175095601, "lat": -22.912398, "lon": -43.1840727, "tags": {"addr:housenumber": "58", "addr:street": "Rua do Rezende", "name": "Andorinha", "tourism": "hotel"}}, {"type": "node", "id": 4175101291, "lat": -22.9123515, "lon": -43.1834098, "tags": {"addr:city": "Rio de Janeiro", "addr:street": "Rua do Rezende", "addr:suburb": "Lapa", "name": "Estadual", "tourism": "hotel"}}, {"type": "node", "id": 4197843293, "lat": -22.9095402, "lon": -43.1887325, "tags": {"addr:city": "Rio de Janeiro", "addr:housenumber": "12", "addr:street": "Rua Vinte de Abril", "addr:suburb": "Centro", "name": "Villa Santana", "phone": "+55 21 2509-7007", "tourism": "hotel", "website": "http://www.hostelvillasantana.com.br"}}, {"type": "node", "id": 4197910089, "lat": -22.9105264, "lon": -43.188382, "tags": {"addr:housenumber": "21", "addr:street": "Rua Carlos Sampaio", "name": "H Rio", "tourism": "hotel"}}, {"type": "node", "id": 4215431970, "lat": -22.9871054, "lon": -43.1907078, "tags": {"brand": "Mercure", "brand:wikidata": "Q1709809", "brand:wikipedia": "en:Mercure (hotel)", "name": "Mercure", "tourism": "hotel"}}, {"type": "node", "id": 4223061989, "lat": -22.916621, "lon": -43.1778656, "tags": {"addr:street": "Rua Conde de Lages", "name": "villa rica", "tourism": "hotel"}}, {"type": "node", "id": 4223560893, "lat": -22.9759377, "lon": -43.190553, "tags": {"addr:housenumber": "75", "addr:street": "Rua Bol\u00edvar", "internet_access": "wlan", "name": "Vilamar Copacabana", "tourism": "hotel"}}, {"type": "node", "id": 4235670691, "lat": -22.9656045, "lon": -43.1787205, "tags": {"addr:housenumber": "1204", "addr:street": "Rua Carvalho de Mendon\u00e7a", "internet_access": "wlan", "name": "Fatima", "tourism": "hotel"}}, {"type": "node", "id": 4236714553, "lat": -22.9795012, "lon": -43.410354}, {"type": "node", "id": 4236714554, "lat": -22.9795143, "lon": -43.4104524}, {"type": "node", "id": 4236714555, "lat": -22.979752, "lon": -43.4098422}, {"type": "node", "id": 4236714557, "lat": -22.9798047, "lon": -43.409885}, {"type": "node", "id": 4236714559, "lat": -22.9800522, "lon": -43.4107359}, {"type": "node", "id": 4236714560, "lat": -22.9800765, "lon": -43.4092878}, {"type": "node", "id": 4236714562, "lat": -22.9804998, "lon": -43.4110873}, {"type": "node", "id": 4236714563, "lat": -22.9811606, "lon": -43.4100864}, {"type": "node", "id": 4240884995, "lat": -22.9651404, "lon": -43.3969663}, {"type": "node", "id": 4240884997, "lat": -22.9651953, "lon": -43.3973939}, {"type": "node", "id": 4240885006, "lat": -22.9659721, "lon": -43.3968287}, {"type": "node", "id": 4240885038, "lat": -22.9663719, "lon": -43.3971851}, {"type": "node", "id": 4240886494, "lat": -22.9804491, "lon": -43.4098693}, {"type": "node", "id": 4240886500, "lat": -22.9806385, "lon": -43.410878}, {"type": "node", "id": 4257951792, "lat": -22.9105606, "lon": -43.1840727, "tags": {"addr:city": "Rio de Janeiro", "addr:housenumber": "430", "addr:postcode": "20231-015", "addr:street": "Avenida Gomes Freire", "addr:suburb": "Lapa", "name": "Hotel Carioca", "tourism": "hotel"}}, {"type": "node", "id": 4257959790, "lat": -22.9114988, "lon": -43.1837738, "tags": {"addr:housenumber": "530", "addr:street": "Avenida Gomes Freire", "name": "Granada Hotel", "tourism": "hotel"}}, {"type": "node", "id": 4258551091, "lat": -22.9091208, "lon": -43.1837499, "tags": {"addr:city": "Rio de Janeiro", "addr:housenumber": "35", "addr:postcode": "20231-000", "addr:street": "Rua do Senado", "addr:suburb": "Lapa", "name": "Hotel Esperan\u00e7a", "tourism": "hotel"}}, {"type": "node", "id": 4259600399, "lat": -22.9453736, "lon": -43.1836902}, {"type": "node", "id": 4261777777, "lat": -22.998731, "lon": -43.4087073}, {"type": "node", "id": 4261777778, "lat": -22.9987333, "lon": -43.4088735}, {"type": "node", "id": 4261778097, "lat": -22.9993411, "lon": -43.4086974}, {"type": "node", "id": 4261778098, "lat": -22.9993434, "lon": -43.4088636}, {"type": "node", "id": 4264205089, "lat": -22.9835392, "lon": -43.1932506, "tags": {"addr:housenumber": "90", "addr:street": "Rua Francisco S\u00e1", "name": "South America Copacabana Hotel", "tourism": "hotel"}}, {"type": "node", "id": 4264487086, "lat": -22.9723267, "lon": -43.3906648}, {"type": "node", "id": 4264487087, "lat": -22.9723282, "lon": -43.3908229}, {"type": "node", "id": 4264487088, "lat": -22.9727357, "lon": -43.3908182}, {"type": "node", "id": 4264487289, "lat": -22.9727342, "lon": -43.3906601}, {"type": "node", "id": 4264678980, "lat": -22.8951208, "lon": -43.2966551, "tags": {"name": "Megara Hotel", "tourism": "hotel"}}, {"type": "node", "id": 4264679594, "lat": -22.9113825, "lon": -43.1883392, "tags": {"addr:housenumber": "106", "addr:street": "Rua Carlos Sampaio", "name": "Hotel Aymor\u00e9", "tourism": "hotel"}}, {"type": "node", "id": 4265007205, "lat": -22.9827583, "lon": -43.4357186}, {"type": "node", "id": 4265007206, "lat": -22.9828816, "lon": -43.4359103}, {"type": "node", "id": 4265007207, "lat": -22.9829063, "lon": -43.4356063}, {"type": "node", "id": 4265007208, "lat": -22.9829561, "lon": -43.4356838}, {"type": "node", "id": 4265007212, "lat": -22.9833139, "lon": -43.4354123}, {"type": "node", "id": 4265007214, "lat": -22.9833874, "lon": -43.4355266}, {"type": "node", "id": 4267629082, "lat": -22.9987647, "lon": -43.408873}, {"type": "node", "id": 4269622089, "lat": -22.9132971, "lon": -43.1861817, "tags": {"addr:housenumber": "107", "addr:street": "Rua do Rezende", "internet_access": "wlan", "internet_access:fee": "customers", "name": "DaysInn Rio de Janeiro Lapa", "name:pt": "DaysInn Rio de Janeiro Lapa", "phone": "+552122178500", "tourism": "hotel", "website": "https://www.wyndhamhotels.com/pt-br/days-inn/rio-de-janeiro-brazil/days-inn-rio-de-janeiro-lapa/overview"}}, {"type": "node", "id": 4273014975, "lat": -22.937289, "lon": -43.6074103}, {"type": "node", "id": 4273014976, "lat": -22.9376267, "lon": -43.6069683}, {"type": "node", "id": 4273014981, "lat": -22.9385169, "lon": -43.6094797}, {"type": "node", "id": 4273014985, "lat": -22.9386815, "lon": -43.6079582}, {"type": "node", "id": 4273016590, "lat": -22.9391406, "lon": -43.608626}, {"type": "node", "id": 4273016592, "lat": -22.9394806, "lon": -43.6121486}, {"type": "node", "id": 4273016594, "lat": -22.9395499, "lon": -43.6088424}, {"type": "node", "id": 4273016595, "lat": -22.9396084, "lon": -43.6123156}, {"type": "node", "id": 4273016598, "lat": -22.9398011, "lon": -43.6124073}, {"type": "node", "id": 4273016601, "lat": -22.9400285, "lon": -43.6123744}, {"type": "node", "id": 4273016606, "lat": -22.9401974, "lon": -43.6122592}, {"type": "node", "id": 4273016612, "lat": -22.9404724, "lon": -43.6097807}, {"type": "node", "id": 4273016618, "lat": -22.9408471, "lon": -43.6098394}, {"type": "node", "id": 4273016626, "lat": -22.9410809, "lon": -43.6099876}, {"type": "node", "id": 4273016629, "lat": -22.9414123, "lon": -43.6105778}, {"type": "node", "id": 4273016630, "lat": -22.9414166, "lon": -43.6108294}, {"type": "node", "id": 4275376289, "lat": -22.9162527, "lon": -43.1810612, "tags": {"tourism": "hotel"}}, {"type": "node", "id": 4291258663, "lat": -22.9923759, "lon": -43.2330414}, {"type": "node", "id": 4291258691, "lat": -22.9920402, "lon": -43.2334998}, {"type": "node", "id": 4291498734, "lat": -22.9841003, "lon": -43.2112026}, {"type": "node", "id": 4291498738, "lat": -22.9841008, "lon": -43.2111945}, {"type": "node", "id": 4291499375, "lat": -22.9840502, "lon": -43.2111911}, {"type": "node", "id": 4291499387, "lat": -22.9840548, "lon": -43.2111087}, {"type": "node", "id": 4291499435, "lat": -22.9840708, "lon": -43.2111098}, {"type": "node", "id": 4291499449, "lat": -22.9840735, "lon": -43.2110631}, {"type": "node", "id": 4291499797, "lat": -22.9841441, "lon": -43.2111081}, {"type": "node", "id": 4291499802, "lat": -22.9841464, "lon": -43.2110675}, {"type": "node", "id": 4291499808, "lat": -22.9841481, "lon": -43.2112058}, {"type": "node", "id": 4291499813, "lat": -22.9841504, "lon": -43.2111656}, {"type": "node", "id": 4291499923, "lat": -22.9841768, "lon": -43.2111673}, {"type": "node", "id": 4291499939, "lat": -22.9841803, "lon": -43.2111105}, {"type": "node", "id": 4291507428, "lat": -22.9854346, "lon": -43.2074536}, {"type": "node", "id": 4291507442, "lat": -22.9854377, "lon": -43.2073938}, {"type": "node", "id": 4291508420, "lat": -22.9853857, "lon": -43.2074507}, {"type": "node", "id": 4291508446, "lat": -22.9853915, "lon": -43.2073366}, {"type": "node", "id": 4291508461, "lat": -22.9853948, "lon": -43.2072726}, {"type": "node", "id": 4291509786, "lat": -22.9854953, "lon": -43.2073962}, {"type": "node", "id": 4291510197, "lat": -22.9854987, "lon": -43.2073566}, {"type": "node", "id": 4291510208, "lat": -22.9855027, "lon": -43.2072795}, {"type": "node", "id": 4291511431, "lat": -22.9856206, "lon": -43.2074372}, {"type": "node", "id": 4291511438, "lat": -22.9856243, "lon": -43.2073651}, {"type": "node", "id": 4291511454, "lat": -22.9856122, "lon": -43.2072814}, {"type": "node", "id": 4291511745, "lat": -22.985679, "lon": -43.2074409}, {"type": "node", "id": 4291511985, "lat": -22.9857361, "lon": -43.2074445}, {"type": "node", "id": 4291512302, "lat": -22.9857438, "lon": -43.2072949}, {"type": "node", "id": 4293334868, "lat": -22.9654354, "lon": -43.179118, "tags": {"name": "Mirasol Hotel", "tourism": "hotel"}}, {"type": "node", "id": 4293707273, "lat": -22.9489369, "lon": -43.1835165, "tags": {"addr:city": "Rio de Janeiro", "addr:housenumber": "30", "addr:postcode": "22260-000", "addr:street": "Rua S\u00e3o Clemente", "addr:suburb": "Botafogo", "name": "Zii Hotel", "phone": "+55 21 3166-9240", "tourism": "hotel", "website": "https://www.ziihotel.com/"}}, {"type": "node", "id": 4295305858, "lat": -22.984285, "lon": -43.1972395}, {"type": "node", "id": 4295305863, "lat": -22.9842878, "lon": -43.1971919}, {"type": "node", "id": 4295306406, "lat": -22.9843689, "lon": -43.1971971}, {"type": "node", "id": 4295306412, "lat": -22.9843733, "lon": -43.1971189}, {"type": "node", "id": 4295306437, "lat": -22.9843905, "lon": -43.1972459}, {"type": "node", "id": 4295306439, "lat": -22.9843922, "lon": -43.1972068}, {"type": "node", "id": 4295306598, "lat": -22.9844284, "lon": -43.1971225}, {"type": "node", "id": 4295306604, "lat": -22.9844302, "lon": -43.1970902}, {"type": "node", "id": 4295306610, "lat": -22.9844329, "lon": -43.1972485}, {"type": "node", "id": 4295306616, "lat": -22.9844347, "lon": -43.197209}, {"type": "node", "id": 4295306643, "lat": -22.9844475, "lon": -43.1970913}, {"type": "node", "id": 4295306649, "lat": -22.9844495, "lon": -43.1970556}, {"type": "node", "id": 4295306992, "lat": -22.9844808, "lon": -43.1970576}, {"type": "node", "id": 4295307051, "lat": -22.9845122, "lon": -43.1972528}, {"type": "node", "id": 4295307052, "lat": -22.9845127, "lon": -43.1972428}, {"type": "node", "id": 4295307076, "lat": -22.9845208, "lon": -43.1970752}, {"type": "node", "id": 4295307081, "lat": -22.9845216, "lon": -43.1970601}, {"type": "node", "id": 4295307512, "lat": -22.9845311, "lon": -43.1972439}, {"type": "node", "id": 4295307544, "lat": -22.9845389, "lon": -43.1970761}, {"type": "node", "id": 4301555205, "lat": -23.0052782, "lon": -43.3201566}, {"type": "node", "id": 4301555206, "lat": -23.0056165, "lon": -43.3193734}, {"type": "node", "id": 4301555207, "lat": -23.0075842, "lon": -43.3204839}, {"type": "node", "id": 4301555208, "lat": -23.0076681, "lon": -43.321369}, {"type": "node", "id": 4318885523, "lat": -22.913476, "lon": -43.1852179}, {"type": "node", "id": 4318893084, "lat": -22.9133536, "lon": -43.1851785}, {"type": "node", "id": 4318893180, "lat": -22.913639, "lon": -43.1850938}, {"type": "node", "id": 4318893215, "lat": -22.9133751, "lon": -43.1852482}, {"type": "node", "id": 4318893228, "lat": -22.9133827, "lon": -43.1851699}, {"type": "node", "id": 4318893432, "lat": -22.9141733, "lon": -43.1849352}, {"type": "node", "id": 4318893461, "lat": -22.914195, "lon": -43.1849288}, {"type": "node", "id": 4318893637, "lat": -22.9136738, "lon": -43.1850835}, {"type": "node", "id": 4318893773, "lat": -22.9138509, "lon": -43.1851056}, {"type": "node", "id": 4318894009, "lat": -22.9139264, "lon": -43.1850085}, {"type": "node", "id": 4318894014, "lat": -22.9139315, "lon": -43.1850814}, {"type": "node", "id": 4318894314, "lat": -22.9142669, "lon": -43.1849074}, {"type": "node", "id": 4318894348, "lat": -22.9143011, "lon": -43.1849801}, {"type": "node", "id": 4318894377, "lat": -22.9143225, "lon": -43.1848909}, {"type": "node", "id": 4318894630, "lat": -22.9143521, "lon": -43.184881}, {"type": "node", "id": 4318895100, "lat": -22.9145384, "lon": -43.1848182}, {"type": "node", "id": 4318895108, "lat": -22.9145651, "lon": -43.1848092}, {"type": "node", "id": 4318895118, "lat": -22.9145884, "lon": -43.1848775}, {"type": "node", "id": 4318904458, "lat": -22.9106148, "lon": -43.1902059}, {"type": "node", "id": 4318904465, "lat": -22.9106193, "lon": -43.1901771}, {"type": "node", "id": 4318904474, "lat": -22.9106263, "lon": -43.1902359}, {"type": "node", "id": 4318904476, "lat": -22.9106292, "lon": -43.1901975}, {"type": "node", "id": 4318904485, "lat": -22.9106401, "lon": -43.1902296}, {"type": "node", "id": 4318904856, "lat": -22.9108332, "lon": -43.1900793}, {"type": "node", "id": 4318904865, "lat": -22.910837, "lon": -43.1900775}, {"type": "node", "id": 4318904882, "lat": -22.9108582, "lon": -43.190132}, {"type": "node", "id": 4318907350, "lat": -22.9144673, "lon": -43.1888649}, {"type": "node", "id": 4318907354, "lat": -22.9144894, "lon": -43.1887757}, {"type": "node", "id": 4318907365, "lat": -22.914501, "lon": -43.1887288}, {"type": "node", "id": 4318907367, "lat": -22.9145045, "lon": -43.1888806}, {"type": "node", "id": 4318907370, "lat": -22.914518, "lon": -43.1887357}, {"type": "node", "id": 4318907489, "lat": -22.9145852, "lon": -43.188763}, {"type": "node", "id": 4318907500, "lat": -22.9146786, "lon": -43.1889538}, {"type": "node", "id": 4318907502, "lat": -22.9146904, "lon": -43.1889229}, {"type": "node", "id": 4318907508, "lat": -22.914717, "lon": -43.1888501}, {"type": "node", "id": 4318907511, "lat": -22.9146987, "lon": -43.1888977}, {"type": "node", "id": 4318907514, "lat": -22.9147262, "lon": -43.1888273}, {"type": "node", "id": 4318907516, "lat": -22.914709, "lon": -43.1888705}, {"type": "node", "id": 4318951737, "lat": -22.9146135, "lon": -43.1821567}, {"type": "node", "id": 4318951740, "lat": -22.9146139, "lon": -43.1822168}, {"type": "node", "id": 4318951742, "lat": -22.914615, "lon": -43.1824151}, {"type": "node", "id": 4318952026, "lat": -22.914688, "lon": -43.1821543}, {"type": "node", "id": 4318952046, "lat": -22.914697, "lon": -43.1823891}, {"type": "node", "id": 4318952047, "lat": -22.9146977, "lon": -43.1823141}, {"type": "node", "id": 4318952049, "lat": -22.914698, "lon": -43.1822773}, {"type": "node", "id": 4318952050, "lat": -22.9146984, "lon": -43.1822356}, {"type": "node", "id": 4318952052, "lat": -22.9146987, "lon": -43.1821987}, {"type": "node", "id": 4318952054, "lat": -22.9146991, "lon": -43.1821539}, {"type": "node", "id": 4320211242, "lat": -22.9236323, "lon": -43.1733644}, {"type": "node", "id": 4336280617, "lat": -22.9702135, "lon": -43.3930876, "tags": {"addr:housenumber": "420 205", "addr:postcode": "22775", "addr:street": "Rua Aroazes", "tourism": "hotel"}}, {"type": "node", "id": 4366984589, "lat": -22.921672, "lon": -43.1868756, "tags": {"addr:housenumber": "986", "addr:street": "Rua Almirante Alexandrino", "name": "Santinhas de Santa", "tourism": "hotel"}}, {"type": "node", "id": 4404772278, "lat": -22.9165199, "lon": -43.1898124}, {"type": "node", "id": 4404772279, "lat": -22.9165491, "lon": -43.1897194}, {"type": "node", "id": 4404772280, "lat": -22.9165899, "lon": -43.1898383}, {"type": "node", "id": 4404772281, "lat": -22.916619, "lon": -43.1897453}, {"type": "node", "id": 4423384191, "lat": -22.9732801, "lon": -43.1900132, "tags": {"addr:city": "Rio de Janeiro", "addr:housenumber": "96", "addr:postcode": "22051", "addr:street": "Rua Constante Ramos", "brand": "Ibis Budget", "brand:wikidata": "Q1458135", "brand:wikipedia": "en:Ibis Budget", "name": "Ibis Budget", "toilets:wheelchair": "yes", "tourism": "hotel", "wheelchair": "yes"}}, {"type": "node", "id": 4439877689, "lat": -22.8113015, "lon": -43.252045, "tags": {"name": "Rio Aeroporto Hotel", "name:pt": "Rio Aeroporto Hotel", "tourism": "hotel"}}, {"type": "node", "id": 4446519232, "lat": -22.9764997, "lon": -43.1917564, "tags": {"addr:city": "Rio de Janeiro", "addr:housenumber": "82", "addr:street": "Rua Xavier da Silveira", "addr:suburb": "Copacabana", "internet_access": "yes", "internet_access:fee": "no", "name": "Ibis Copacabana Posto 5", "operator": "Ibis (Accor Hotels)", "smoking": "outside", "tourism": "hotel"}}, {"type": "node", "id": 4472911719, "lat": -23.0225469, "lon": -43.4837203, "tags": {"addr:housenumber": "140", "addr:street": "Avenida Ailton Henrique da Costa", "name": "Garden House Rio", "tourism": "hotel"}}, {"type": "node", "id": 4475430781, "lat": -23.0213757, "lon": -43.4893874}, {"type": "node", "id": 4475430786, "lat": -23.0210213, "lon": -43.4891635}, {"type": "node", "id": 4475430787, "lat": -23.0210748, "lon": -43.4893688}, {"type": "node", "id": 4475430788, "lat": -23.0213498, "lon": -43.4892933}, {"type": "node", "id": 4475430889, "lat": -23.0209688, "lon": -43.4889217}, {"type": "node", "id": 4475430890, "lat": -23.0206011, "lon": -43.4890338}, {"type": "node", "id": 4475430891, "lat": -23.0207419, "lon": -43.4895501}, {"type": "node", "id": 4476096289, "lat": -22.9454536, "lon": -43.1826649}, {"type": "node", "id": 4505375694, "lat": -22.911368, "lon": -43.1763007, "tags": {"addr:housenumber": "23", "addr:street": "Rua \u00c1lvaro Alvim", "name": "Itajub\u00e1 Hotel", "tourism": "hotel", "website": "https://itajuba-null.riodejaneiro-hotels.net/pt/"}}, {"type": "node", "id": 4515712916, "lat": -23.0209773, "lon": -43.4889586}, {"type": "node", "id": 4517299604, "lat": -22.9107366, "lon": -43.1711483}, {"type": "node", "id": 4517299609, "lat": -22.9105995, "lon": -43.1711877}, {"type": "node", "id": 4527198120, "lat": -22.910838, "lon": -43.1769934, "tags": {"name": "Hotel Lips", "tourism": "hotel"}}, {"type": "node", "id": 4584745291, "lat": -22.9523862, "lon": -43.1761567, "tags": {"name:es": "Departamento botafogo", "tourism": "hotel"}}, {"type": "node", "id": 4648754219, "lat": -22.7615765, "lon": -43.1099925, "tags": {"addr:city": "Rio de Janeiro", "addr:housenumber": "63", "addr:postcode": "20397-000", "addr:street": "Rua Doutor Lacerda", "addr:suburb": "Paquet\u00e1", "name": "Hotel Meu Cantinho", "phone": "+55 21 3397-0405", "tourism": "hotel"}}, {"type": "node", "id": 4648754220, "lat": -22.7532645, "lon": -43.1112752, "tags": {"addr:city": "Rio de Janeiro", "addr:housenumber": "1", "addr:postcode": "20397-090", "addr:street": "Pra\u00e7a S\u00e3o Roque", "addr:suburb": "Paquet\u00e1", "name": "Pousada S\u00e3o Roque", "phone": "+55 21 3397-0317", "tourism": "hotel"}}, {"type": "node", "id": 4648754221, "lat": -22.7525571, "lon": -43.1071851, "tags": {"addr:city": "Rio de Janeiro", "addr:housenumber": "314", "addr:postcode": "20397-180", "addr:street": "Rua Adelaide Alambari", "addr:suburb": "Paquet\u00e1", "name": "Palace Paquet\u00e1", "tourism": "hotel"}}, {"type": "node", "id": 4673359747, "lat": -22.975933, "lon": -43.1932796}, {"type": "node", "id": 4673359748, "lat": -22.9759724, "lon": -43.1930911}, {"type": "node", "id": 4676774891, "lat": -22.9613753, "lon": -43.1751621}, {"type": "node", "id": 4676774892, "lat": -22.9612818, "lon": -43.1749592}, {"type": "node", "id": 4676774893, "lat": -22.9614841, "lon": -43.1748387}, {"type": "node", "id": 4697641312, "lat": -23.0130147, "lon": -43.3168196}, {"type": "node", "id": 4697641313, "lat": -23.0130772, "lon": -43.3165315}, {"type": "node", "id": 4697641314, "lat": -23.0124986, "lon": -43.3163834}, {"type": "node", "id": 4697641315, "lat": -23.0124361, "lon": -43.3166716}, {"type": "node", "id": 4702476304, "lat": -23.0116378, "lon": -43.3219458, "tags": {"name:en": "Windsor", "name:pt": "Windsor", "name:ru": "\u0412\u0438\u043d\u0434\u0441\u043e\u0440", "tourism": "hotel", "wheelchair": "yes"}}, {"type": "node", "id": 4704651211, "lat": -22.9231263, "lon": -43.1750559, "tags": {"internet_access": "wlan", "name": "Pousada baron garden", "name:en": "Hostel baron garden", "name:fr": "Auberge baron garden", "name:pt": "Pousada baron garden", "tourism": "hotel", "website": "https://www.barongarden.com/"}}, {"type": "node", "id": 4715668389, "lat": -22.9131593, "lon": -43.1857686, "tags": {"addr:housenumber": "87", "addr:postcode": "20231-091", "addr:street": "Rua do Rezende", "internet_access": "wlan", "internet_access:fee": "customers", "name": "Hotel Atl\u00e2ntico Prime", "name:en": "Hotel Atl\u00e2ntico Prime", "name:pt": "Hotel Atl\u00e2ntico Prime", "phone": "+552134446800", "tourism": "hotel", "website": "https://atlanticoprime.com.br/"}}, {"type": "node", "id": 4731178522, "lat": -22.9179199, "lon": -43.1810613, "tags": {"addr:city": "Rio de Janeiro", "addr:housenumber": "11", "addr:street": "Rua Dias de Barros", "name": "Sugar Lofy", "tourism": "hotel", "wheelchair": "no"}}, {"type": "node", "id": 4747591311, "lat": -22.8192552, "lon": -43.3167917}, {"type": "node", "id": 4747591313, "lat": -22.8194777, "lon": -43.3166576}, {"type": "node", "id": 4747591314, "lat": -22.8194852, "lon": -43.3157538}, {"type": "node", "id": 4747591315, "lat": -22.8192636, "lon": -43.3157517}, {"type": "node", "id": 4804773430, "lat": -22.981002, "lon": -43.1960796}, {"type": "node", "id": 4804773431, "lat": -22.9809378, "lon": -43.196136}, {"type": "node", "id": 4804773432, "lat": -22.9809748, "lon": -43.1962003}, {"type": "node", "id": 4804773433, "lat": -22.9809427, "lon": -43.1962433}, {"type": "node", "id": 4804773434, "lat": -22.9810094, "lon": -43.1962996}, {"type": "node", "id": 4804773435, "lat": -22.9811205, "lon": -43.1962003}, {"type": "node", "id": 4804786866, "lat": -22.9832876, "lon": -43.1948428}, {"type": "node", "id": 4804786867, "lat": -22.9833152, "lon": -43.1948499}, {"type": "node", "id": 4804786868, "lat": -22.9832559, "lon": -43.1950457}, {"type": "node", "id": 4804786869, "lat": -22.9832316, "lon": -43.1950413}, {"type": "node", "id": 4804786870, "lat": -22.9833096, "lon": -43.1948685}, {"type": "node", "id": 4804786871, "lat": -22.9833572, "lon": -43.1948767}, {"type": "node", "id": 4804786872, "lat": -22.9832905, "lon": -43.1950564}, {"type": "node", "id": 4867992998, "lat": -22.9763321, "lon": -43.4156827, "tags": {"name": "Hotel Riocentro", "tourism": "hotel"}}, {"type": "node", "id": 4875670624, "lat": -22.9589014, "lon": -43.200443, "tags": {"addr:housenumber": "244", "addr:postcode": "22261001", "addr:street": "Rua Humait\u00e1", "name": "American Flat", "name:es": "American Flat", "name:it": "American Flat", "opening_hours": "24/7", "tourism": "hotel"}}, {"type": "node", "id": 4892939848, "lat": -22.9089382, "lon": -43.1694212}, {"type": "node", "id": 4892939849, "lat": -22.9088528, "lon": -43.1691306}, {"type": "node", "id": 4924891009, "lat": -22.9085443, "lon": -43.1691349}, {"type": "node", "id": 4924891010, "lat": -22.9085784, "lon": -43.1692478}, {"type": "node", "id": 4924913838, "lat": -22.9083538, "lon": -43.1692466}, {"type": "node", "id": 4924913839, "lat": -22.9085535, "lon": -43.1691729}, {"type": "node", "id": 4924913841, "lat": -22.9083618, "lon": -43.1692717}, {"type": "node", "id": 4924913842, "lat": -22.9085607, "lon": -43.1691981}, {"type": "node", "id": 5018156474, "lat": -22.9780636, "lon": -43.4178802, "tags": {"name": "Pousada Mans\u00e3o Riocentro", "tourism": "hotel"}}, {"type": "node", "id": 5018156475, "lat": -22.9782043, "lon": -43.4180089, "tags": {"name": "Serra e Mar Riocentro", "tourism": "hotel"}}, {"type": "node", "id": 5018465236, "lat": -23.0088138, "lon": -43.3011566, "tags": {"name": "Ibiza Barra", "tourism": "hotel"}}, {"type": "node", "id": 5018465237, "lat": -23.0088888, "lon": -43.3009831, "tags": {"name": "Marbella Barra", "tourism": "hotel"}}, {"type": "node", "id": 5084801877, "lat": -22.9145831, "lon": -43.18877}, {"type": "node", "id": 5088755833, "lat": -22.9112174, "lon": -43.1910928, "tags": {"addr:city": "Rio de Janeiro", "addr:housenumber": "274", "addr:postcode": "20231-006", "addr:street": "Rua do Senado", "addr:suburb": "Centro", "name": "Cruz de Ouro Hotel", "tourism": "hotel"}}, {"type": "node", "id": 5090291410, "lat": -22.9103467, "lon": -43.188137, "tags": {"addr:city": "Rio de Janeiro", "addr:housenumber": "189", "addr:postcode": "20231-003", "addr:street": "Rua do Senado", "addr:suburb": "Centro", "name": "Senado Rio Hotel", "tourism": "hotel"}}, {"type": "node", "id": 5093488010, "lat": -22.9074733, "lon": -43.1853679, "tags": {"addr:city": "Rio de Janeiro", "addr:housenumber": "52", "addr:postcode": "20231-013", "addr:street": "Avenida Gomes Freire", "addr:suburb": "Centro", "name": "Hotel Primor", "tourism": "hotel"}}, {"type": "node", "id": 5093496124, "lat": -22.9082713, "lon": -43.1847751, "tags": {"addr:city": "Rio de Janeiro", "addr:housenumber": "151", "addr:postcode": "20231-012", "addr:street": "Avenida Gomes Freire", "addr:suburb": "Lapa", "name": "Hotel Hostal", "tourism": "hotel"}}, {"type": "node", "id": 5093497477, "lat": -22.9090224, "lon": -43.1844586, "tags": {"addr:city": "Rio de Janeiro", "addr:housenumber": "242", "addr:postcode": "20231-012", "addr:street": "Avenida Gomes Freire", "addr:suburb": "Lapa", "name": "Hotel Gomes Freire", "tourism": "hotel"}}, {"type": "node", "id": 5093510387, "lat": -22.9151198, "lon": -43.1875486, "tags": {"addr:city": "Rio de Janeiro", "addr:housenumber": "213", "addr:postcode": "20230-011", "addr:street": "Rua Riachuelo", "addr:suburb": "Centro", "name": "Hotel Monte Alegre", "tourism": "hotel"}}, {"type": "node", "id": 5108396721, "lat": -22.9830864, "lon": -43.1956066, "tags": {"tourism": "hotel"}}, {"type": "node", "id": 5118633322, "lat": -22.9775221, "lon": -43.1888239, "tags": {"name:es": "othon palace", "tourism": "hotel"}}, {"type": "node", "id": 5135634652, "lat": -22.9345724, "lon": -43.1952838, "tags": {"name": "The Villa", "tourism": "hotel"}}, {"type": "node", "id": 5138816363, "lat": -22.9780357, "lon": -43.4180564}, {"type": "node", "id": 5138816364, "lat": -22.9781068, "lon": -43.417946}, {"type": "node", "id": 5138816365, "lat": -22.9779869, "lon": -43.4178548}, {"type": "node", "id": 5138816366, "lat": -22.9779157, "lon": -43.4179652}, {"type": "node", "id": 5142775777, "lat": -22.9160422, "lon": -43.1786677, "tags": {"name": "Vi\u00f1a del mar", "tourism": "hotel"}}, {"type": "node", "id": 5177284825, "lat": -22.9022076, "lon": -43.2179754, "tags": {"name": "Xanadu Hotel", "tourism": "hotel"}}, {"type": "node", "id": 5201231546, "lat": -23.0100013, "lon": -43.3713708}, {"type": "node", "id": 5201231547, "lat": -23.0097643, "lon": -43.3713806}, {"type": "node", "id": 5201231548, "lat": -23.0099675, "lon": -43.3713722}, {"type": "node", "id": 5201231549, "lat": -23.0102729, "lon": -43.3713561}, {"type": "node", "id": 5201231550, "lat": -23.0092886, "lon": -43.3713733}, {"type": "node", "id": 5201231551, "lat": -23.009667, "lon": -43.3717426}, {"type": "node", "id": 5354297822, "lat": -22.9144475, "lon": -43.1846574, "tags": {"addr:city": "Rio de Janeiro", "addr:street": "Rua Riachuelo", "addr:suburb": "Lapa", "name": "Vila Gal\u00e9", "name:pt": "Vila Gale", "tourism": "hotel"}}, {"type": "node", "id": 5355427944, "lat": -22.9146266, "lon": -43.1837975, "tags": {"addr:city": "Rio de Janeiro", "addr:housenumber": "105", "addr:street": "Rua Riachuelo", "addr:suburb": "Centro", "name": "Casa Nova Hotel", "phone": "+55 21 3547-5241", "tourism": "hotel", "website": "https://www.casanovahotel.com.br/"}}, {"type": "node", "id": 5362457922, "lat": -22.8971034, "lon": -43.2021053, "tags": {"brand": "Ibis", "brand:wikidata": "Q920166", "internet_access": "wlan", "name": "Ibis Rio porto atlantico", "tourism": "hotel"}}, {"type": "node", "id": 5409776907, "lat": -22.9782132, "lon": -43.418109}, {"type": "node", "id": 5409776908, "lat": -22.9782787, "lon": -43.4180401}, {"type": "node", "id": 5409776909, "lat": -22.9782221, "lon": -43.4179766}, {"type": "node", "id": 5409776910, "lat": -22.9781566, "lon": -43.4180456}, {"type": "node", "id": 5499340758, "lat": -22.9530376, "lon": -43.185432}, {"type": "node", "id": 5499340759, "lat": -22.9527389, "lon": -43.1851173}, {"type": "node", "id": 5499340760, "lat": -22.9530527, "lon": -43.1854407}, {"type": "node", "id": 5499340765, "lat": -22.9531197, "lon": -43.1853842, "tags": {"entrance": "main"}}, {"type": "node", "id": 5627428354, "lat": -22.9761146, "lon": -43.193129}, {"type": "node", "id": 5627428355, "lat": -22.9760801, "lon": -43.1933168}, {"type": "node", "id": 5778983154, "lat": -22.9221185, "lon": -43.1744019, "tags": {"name": "Golden hotel empresa gol", "tourism": "hotel"}}, {"type": "node", "id": 5790263726, "lat": -22.9651022, "lon": -43.1745717, "tags": {"addr:city": "Rio de Janeiro", "addr:housenumber": "1186", "addr:postcode": "22021-000", "addr:street": "Avenida Atl\u00e2ntica", "addr:suburb": "Copacabana", "brand": "Rio Like a Carioca", "description": "Four bedroom apartment, furnished, gorgeous view to Copacabana and Leme Beaches. Don\u00b4t be a turist. Live the Rio de Janeiro Lifestyle. / Apartamento de quatro quartos, mobiliado, linda vista para as praias de Copacabana e Leme.", "email": "victormenezeslage@gmail.com", "internet_access": "yes", "internet_access:fee": "no", "level": "10", "name": "Rio Like a Carioca apartaments", "operator": "Victor Menezes", "phone": "+5521999320649", "rooms": "4", "smoking": "yes", "stars": "5", "tourism": "hotel", "website": "https://riolikeacarioca.wixsite.com/riolikeacarioca"}}, {"type": "node", "id": 5817690207, "lat": -23.0092604, "lon": -43.3512286}, {"type": "node", "id": 5817690208, "lat": -23.0098554, "lon": -43.3512259}, {"type": "node", "id": 5817690209, "lat": -23.0098604, "lon": -43.3508987}, {"type": "node", "id": 5817690210, "lat": -23.0096875, "lon": -43.3509067}, {"type": "node", "id": 5817690211, "lat": -23.0096727, "lon": -43.3510408}, {"type": "node", "id": 5817690212, "lat": -23.0092604, "lon": -43.3510543}, {"type": "node", "id": 5882840685, "lat": -22.9649807, "lon": -43.1799967, "tags": {"name": "Nobile Hotel Copacabana Design", "tourism": "hotel"}}, {"type": "node", "id": 5895049727, "lat": -22.9879843, "lon": -43.1926523}, {"type": "node", "id": 5895049730, "lat": -22.9875578, "lon": -43.1927799}, {"type": "node", "id": 5895049732, "lat": -22.987536, "lon": -43.192694}, {"type": "node", "id": 5895049742, "lat": -22.9879626, "lon": -43.1925664}, {"type": "node", "id": 5897282742, "lat": -22.9878656, "lon": -43.1926878}, {"type": "node", "id": 5940016202, "lat": -22.900873, "lon": -43.555323}, {"type": "node", "id": 5940022510, "lat": -22.9006926, "lon": -43.5553177}, {"type": "node", "id": 5940022511, "lat": -22.9006969, "lon": -43.5553551}, {"type": "node", "id": 5940022512, "lat": -22.9007123, "lon": -43.5554898}, {"type": "node", "id": 5940022672, "lat": -22.9009441, "lon": -43.5553604}, {"type": "node", "id": 5940022673, "lat": -22.9008785, "lon": -43.5553495}, {"type": "node", "id": 5940022712, "lat": -22.9008981, "lon": -43.5555042}, {"type": "node", "id": 5940022713, "lat": -22.900893, "lon": -43.5554759}, {"type": "node", "id": 5940023013, "lat": -22.90096, "lon": -43.5554749}, {"type": "node", "id": 5940023276, "lat": -22.9007072, "lon": -43.5554455}, {"type": "node", "id": 5940023314, "lat": -22.900701, "lon": -43.5553912}, {"type": "node", "id": 5969782182, "lat": -22.8771658, "lon": -43.2710026}, {"type": "node", "id": 5969782183, "lat": -22.8773195, "lon": -43.2706691}, {"type": "node", "id": 5969782184, "lat": -22.877182, "lon": -43.2705944}, {"type": "node", "id": 5969783785, "lat": -22.8770283, "lon": -43.270928}, {"type": "node", "id": 6153496859, "lat": -22.9820146, "lon": -43.4185215}, {"type": "node", "id": 6153496860, "lat": -22.9819677, "lon": -43.4183869}, {"type": "node", "id": 6153496861, "lat": -22.9818955, "lon": -43.418417}, {"type": "node", "id": 6153496862, "lat": -22.9819532, "lon": -43.4185881}, {"type": "node", "id": 6153496863, "lat": -22.9819881, "lon": -43.4185724}, {"type": "node", "id": 6153496864, "lat": -22.9819761, "lon": -43.4185372}, {"type": "node", "id": 6153496865, "lat": -22.9821565, "lon": -43.418835}, {"type": "node", "id": 6153496866, "lat": -22.9820927, "lon": -43.4186756}, {"type": "node", "id": 6153496867, "lat": -22.9821577, "lon": -43.4186404}, {"type": "node", "id": 6153496868, "lat": -22.9822238, "lon": -43.4187984}, {"type": "node", "id": 6153498862, "lat": -22.9821675, "lon": -43.418829}, {"type": "node", "id": 6240874203, "lat": -22.9723896, "lon": -43.3752169}, {"type": "node", "id": 6240874204, "lat": -22.9723239, "lon": -43.3752728}, {"type": "node", "id": 6240874205, "lat": -22.9722988, "lon": -43.3752849}, {"type": "node", "id": 6240874206, "lat": -22.9723666, "lon": -43.3752407}, {"type": "node", "id": 6240874207, "lat": -22.9724048, "lon": -43.3751807}, {"type": "node", "id": 6240874209, "lat": -22.9720099, "lon": -43.3745039}, {"type": "node", "id": 6240874210, "lat": -22.9720099, "lon": -43.3746536}, {"type": "node", "id": 6240874211, "lat": -22.971546, "lon": -43.3746512}, {"type": "node", "id": 6240874212, "lat": -22.9715433, "lon": -43.3752827}, {"type": "node", "id": 6382018546, "lat": -23.0275354, "lon": -43.4796907}, {"type": "node", "id": 6382018547, "lat": -23.0274573, "lon": -43.4794133}, {"type": "node", "id": 6382018548, "lat": -23.0276826, "lon": -43.479348}, {"type": "node", "id": 6382018549, "lat": -23.0277546, "lon": -43.4796319}, {"type": "node", "id": 6904400528, "lat": -22.8956362, "lon": -43.1234806}, {"type": "node", "id": 7011114290, "lat": -22.9174242, "lon": -43.1820993, "tags": {"name": "Terra Brasilis (bonne adresse)", "tourism": "hotel"}}, {"type": "node", "id": 7124643485, "lat": -22.9127468, "lon": -43.1911776, "tags": {"addr:housenumber": "150", "addr:street": "Avenida Henrique Valadares", "name": "Arosa R\u00edo Hotel", "tourism": "hotel"}}, {"type": "node", "id": 7273850938, "lat": -23.0045934, "lon": -43.3279715}, {"type": "node", "id": 7273850939, "lat": -23.0044857, "lon": -43.3275452}, {"type": "node", "id": 7273850940, "lat": -23.0042933, "lon": -43.3271356}, {"type": "node", "id": 7273850941, "lat": -23.0042395, "lon": -43.3276204}, {"type": "node", "id": 7273850942, "lat": -23.0045088, "lon": -43.3280342}, {"type": "node", "id": 7618727608, "lat": -22.9724078, "lon": -43.374508}, {"type": "node", "id": 7777425355, "lat": -22.8720352, "lon": -43.3447223, "tags": {"addr:city": "Rio de Janeiro", "addr:housenumber": "250", "addr:postcode": "21351-110", "addr:street": "R. Clara Nunes", "addr:suburb": "Madureira", "air_conditioning": "yes", "bar": "yes", "internet_access": "yes", "internet_access:fee": "customers", "name": "Hotel Caricia", "tourism": "hotel"}}, {"type": "node", "id": 8078282169, "lat": -22.9137542, "lon": -43.1667043, "tags": {"access": "yes", "door": "sliding", "entrance": "yes", "indoor": "yes", "level": "0", "wheelchair": "yes"}}, {"type": "node", "id": 8114245580, "lat": -22.9203157, "lon": -43.1874014}, {"type": "node", "id": 8114245581, "lat": -22.9203494, "lon": -43.1872957}, {"type": "node", "id": 8114245582, "lat": -22.9202672, "lon": -43.1872648}, {"type": "node", "id": 8114245583, "lat": -22.9202404, "lon": -43.1873487}, {"type": "node", "id": 8114245584, "lat": -22.9202774, "lon": -43.1873626}, {"type": "node", "id": 8114245585, "lat": -22.9202704, "lon": -43.1873844}, {"type": "node", "id": 8151563218, "lat": -22.9715071, "lon": -43.1881426, "tags": {"addr:city": "Rio de Janeiro", "addr:housenumber": "25", "addr:postcode": "22050-020", "addr:street": "Travessa Angrense", "addr:suburb": "Copacabana", "internet_access": "wlan", "name": "Hotel Angrense", "phone": "+55 21 2548-0509", "tourism": "hotel", "website": "https://www.angrensehotel.com.br/index.php"}}, {"type": "node", "id": 8151563221, "lat": -22.9714702, "lon": -43.1878638, "tags": {"addr:city": "Rio de Janeiro", "addr:housenumber": "18", "addr:postcode": "22050-020", "addr:street": "Travessa Angrense", "addr:suburb": "Copacabana", "name": "Pousada Salse", "tourism": "hotel"}}, {"type": "node", "id": 8788618817, "lat": -22.9086611, "lon": -43.1695847, "tags": {"tourism": "hotel"}}, {"type": "node", "id": 8887999469, "lat": -22.9801204, "lon": -43.4093376, "tags": {"access": "permissive", "barrier": "gate"}}, {"type": "node", "id": 8994766330, "lat": -22.8189793, "lon": -43.3161118}, {"type": "node", "id": 9067986471, "lat": -22.8956227, "lon": -43.1235459}, {"type": "node", "id": 9067986472, "lat": -22.8952837, "lon": -43.1234581}, {"type": "node", "id": 9067986479, "lat": -22.895433, "lon": -43.123496}, {"type": "node", "id": 9162859804, "lat": -22.9525345, "lon": -43.1897559}, {"type": "node", "id": 9162859808, "lat": -22.9526164, "lon": -43.189777}, {"type": "node", "id": 9162860102, "lat": -22.9524799, "lon": -43.1897724}, {"type": "node", "id": 9162860169, "lat": -22.9525057, "lon": -43.1897646}, {"type": "node", "id": 9162860170, "lat": -22.9526315, "lon": -43.1899307}, {"type": "node", "id": 9162860171, "lat": -22.952627, "lon": -43.1899159}, {"type": "node", "id": 9162860172, "lat": -22.9526617, "lon": -43.1899036}, {"type": "node", "id": 9162860173, "lat": -22.9526442, "lon": -43.1898598}, {"type": "node", "id": 9162860174, "lat": -22.9526024, "lon": -43.1897354}, {"type": "node", "id": 9162860318, "lat": -22.9525118, "lon": -43.1898666}, {"type": "node", "id": 9162860319, "lat": -22.9525461, "lon": -43.1899678}, {"type": "node", "id": 9162860320, "lat": -22.9525876, "lon": -43.1899874}, {"type": "node", "id": 9162860321, "lat": -22.9525925, "lon": -43.1900005}, {"type": "node", "id": 9162860322, "lat": -22.9526365, "lon": -43.1899813}, {"type": "node", "id": 9162860323, "lat": -22.9526322, "lon": -43.1899697}, {"type": "node", "id": 9162860324, "lat": -22.9526365, "lon": -43.1899678}, {"type": "node", "id": 9162860325, "lat": -22.9526237, "lon": -43.1899335}, {"type": "node", "id": 9208464076, "lat": -22.953858, "lon": -43.1932343}, {"type": "node", "id": 9208464077, "lat": -22.9538538, "lon": -43.1932222}, {"type": "node", "id": 9208464078, "lat": -22.9538563, "lon": -43.1932212}, {"type": "node", "id": 9208464079, "lat": -22.9538975, "lon": -43.1932045}, {"type": "node", "id": 9208464080, "lat": -22.9539009, "lon": -43.1932141}, {"type": "node", "id": 9208464081, "lat": -22.9539181, "lon": -43.1932071}, {"type": "node", "id": 9208464082, "lat": -22.9538955, "lon": -43.1933235}, {"type": "node", "id": 9208464083, "lat": -22.9538962, "lon": -43.1933257}, {"type": "node", "id": 9208464084, "lat": -22.9538791, "lon": -43.1933326}, {"type": "node", "id": 9208464085, "lat": -22.953875, "lon": -43.1933343}, {"type": "node", "id": 9208464086, "lat": -22.9538411, "lon": -43.1932412}, {"type": "node", "id": 9208467029, "lat": -22.95392, "lon": -43.1933136}, {"type": "node", "id": 9208468406, "lat": -22.9539343, "lon": -43.1933542}, {"type": "node", "id": 9208468407, "lat": -22.9539719, "lon": -43.1933388}, {"type": "node", "id": 9208468408, "lat": -22.9539708, "lon": -43.1933357}, {"type": "node", "id": 9208468411, "lat": -22.9539526, "lon": -43.1932839}, {"type": "node", "id": 9208468412, "lat": -22.9539306, "lon": -43.1932213}, {"type": "node", "id": 9208468413, "lat": -22.9539274, "lon": -43.1932226}, {"type": "node", "id": 9208468414, "lat": -22.9539216, "lon": -43.1932057}, {"type": "node", "id": 9208468415, "lat": -22.9539203, "lon": -43.1932062}, {"type": "node", "id": 9208891774, "lat": -22.9498796, "lon": -43.192245}, {"type": "node", "id": 9208891775, "lat": -22.9493519, "lon": -43.1924862}, {"type": "node", "id": 9208891776, "lat": -22.949324, "lon": -43.1924989}, {"type": "node", "id": 9208891777, "lat": -22.9489475, "lon": -43.1926694}, {"type": "node", "id": 9208891778, "lat": -22.9489362, "lon": -43.1926746}, {"type": "node", "id": 9208891779, "lat": -22.9488684, "lon": -43.1925118}, {"type": "node", "id": 9212585010, "lat": -22.9453408, "lon": -43.1831999}, {"type": "node", "id": 9212585011, "lat": -22.9455969, "lon": -43.1827006}, {"type": "node", "id": 9212585012, "lat": -22.945484, "lon": -43.1832355}, {"type": "node", "id": 9212585013, "lat": -22.9452631, "lon": -43.1836637}, {"type": "node", "id": 9212585014, "lat": -22.9453407, "lon": -43.1832815}, {"type": "node", "id": 9212585015, "lat": -22.9454513, "lon": -43.183308}, {"type": "node", "id": 9212586355, "lat": -22.9455781, "lon": -43.1850211}, {"type": "node", "id": 9212586356, "lat": -22.9456538, "lon": -43.1847565}, {"type": "node", "id": 9212586357, "lat": -22.9456502, "lon": -43.1847845}, {"type": "node", "id": 9212586358, "lat": -22.94566, "lon": -43.184786}, {"type": "node", "id": 9212586359, "lat": -22.9456593, "lon": -43.184792}, {"type": "node", "id": 9212586360, "lat": -22.9456792, "lon": -43.184795}, {"type": "node", "id": 9212586361, "lat": -22.9456794, "lon": -43.1847936}, {"type": "node", "id": 9212586362, "lat": -22.9456836, "lon": -43.1847608}, {"type": "node", "id": 9212586363, "lat": -22.9457179, "lon": -43.1847658}, {"type": "node", "id": 9212586364, "lat": -22.945741, "lon": -43.1847691}, {"type": "node", "id": 9212586779, "lat": -22.9456266, "lon": -43.1847525}, {"type": "node", "id": 9212586780, "lat": -22.945613, "lon": -43.1847508}, {"type": "node", "id": 9212586781, "lat": -22.9456123, "lon": -43.1847569}, {"type": "node", "id": 9212588094, "lat": -22.9456062, "lon": -43.1848041}, {"type": "node", "id": 9212588095, "lat": -22.9455971, "lon": -43.184874}, {"type": "node", "id": 9212588099, "lat": -22.9455778, "lon": -43.1850236}, {"type": "node", "id": 9212588100, "lat": -22.9455613, "lon": -43.1851535}, {"type": "node", "id": 9212588959, "lat": -22.9456516, "lon": -43.1854634}, {"type": "node", "id": 9212588960, "lat": -22.9457371, "lon": -43.1847988}, {"type": "node", "id": 9218892316, "lat": -22.9398206, "lon": -43.1804411}, {"type": "node", "id": 9218892317, "lat": -22.9398092, "lon": -43.1804199}, {"type": "node", "id": 9218892318, "lat": -22.9398757, "lon": -43.1803616}, {"type": "node", "id": 9218892319, "lat": -22.9398794, "lon": -43.1803656}, {"type": "node", "id": 9218892321, "lat": -22.9399115, "lon": -43.180355}, {"type": "node", "id": 9218892322, "lat": -22.9399379, "lon": -43.180331}, {"type": "node", "id": 9218892323, "lat": -22.9400407, "lon": -43.1803622}, {"type": "node", "id": 9218892324, "lat": -22.9399884, "lon": -43.1804394}, {"type": "node", "id": 9218892325, "lat": -22.9399747, "lon": -43.1804206}, {"type": "node", "id": 9218892326, "lat": -22.9399438, "lon": -43.180447}, {"type": "node", "id": 9218892327, "lat": -22.9399575, "lon": -43.1804657}, {"type": "node", "id": 9218892328, "lat": -22.939955, "lon": -43.1804678}, {"type": "node", "id": 9218892329, "lat": -22.9399025, "lon": -43.1805126}, {"type": "node", "id": 9218892330, "lat": -22.9398993, "lon": -43.1805082}, {"type": "node", "id": 9218892331, "lat": -22.939885, "lon": -43.1805204}, {"type": "node", "id": 9218892332, "lat": -22.9398745, "lon": -43.180506}, {"type": "node", "id": 9218892333, "lat": -22.9398589, "lon": -43.1805208}, {"type": "node", "id": 9218892334, "lat": -22.9398089, "lon": -43.1804532}, {"type": "node", "id": 9218893228, "lat": -22.9400683, "lon": -43.1803706}, {"type": "node", "id": 9218893246, "lat": -22.9400384, "lon": -43.1803968}, {"type": "node", "id": 9218893755, "lat": -22.9426094, "lon": -43.1816515}, {"type": "node", "id": 9218893756, "lat": -22.9426313, "lon": -43.1816336}, {"type": "node", "id": 9218893757, "lat": -22.9427936, "lon": -43.1814511}, {"type": "node", "id": 9218893758, "lat": -22.9428929, "lon": -43.1815441}, {"type": "node", "id": 9218893759, "lat": -22.9427668, "lon": -43.1816859}, {"type": "node", "id": 9218893760, "lat": -22.9427689, "lon": -43.1816881}, {"type": "node", "id": 9218893761, "lat": -22.942744, "lon": -43.181716}, {"type": "node", "id": 9218893762, "lat": -22.9426977, "lon": -43.1817681}, {"type": "node", "id": 9218893763, "lat": -22.9426931, "lon": -43.1817732}, {"type": "node", "id": 9218893764, "lat": -22.9426263, "lon": -43.1817039}, {"type": "node", "id": 9218893765, "lat": -22.9425933, "lon": -43.1816696}, {"type": "node", "id": 9219680974, "lat": -22.9527511, "lon": -43.1851043}, {"type": "node", "id": 9219680975, "lat": -22.9527757, "lon": -43.1850576}, {"type": "node", "id": 9219680976, "lat": -22.9527729, "lon": -43.1850545}, {"type": "node", "id": 9219680977, "lat": -22.953156, "lon": -43.1853458}, {"type": "node", "id": 9219680978, "lat": -22.9530664, "lon": -43.1854406}, {"type": "node", "id": 9219680979, "lat": -22.9530413, "lon": -43.1854281}, {"type": "node", "id": 9219680980, "lat": -22.9530169, "lon": -43.1854092}, {"type": "node", "id": 9219680981, "lat": -22.9529344, "lon": -43.1853181}, {"type": "node", "id": 9219680982, "lat": -22.9528851, "lon": -43.1852731}, {"type": "node", "id": 9219680983, "lat": -22.9528438, "lon": -43.1852275}, {"type": "node", "id": 9219680984, "lat": -22.9528479, "lon": -43.1852232}, {"type": "node", "id": 9219680985, "lat": -22.9527653, "lon": -43.185132}, {"type": "node", "id": 9219680986, "lat": -22.9527587, "lon": -43.1851391}, {"type": "node", "id": 9219682288, "lat": -22.9529359, "lon": -43.1853165}, {"type": "node", "id": 9219682289, "lat": -22.9528912, "lon": -43.1852666}, {"type": "node", "id": 9234244095, "lat": -22.9517415, "lon": -43.1816846}, {"type": "node", "id": 9234244096, "lat": -22.9517191, "lon": -43.181657}, {"type": "node", "id": 9234245415, "lat": -22.9516972, "lon": -43.1816926}, {"type": "node", "id": 9234245430, "lat": -22.951744, "lon": -43.1816876}, {"type": "node", "id": 9234245431, "lat": -22.9517599, "lon": -43.1817073}, {"type": "node", "id": 9234245432, "lat": -22.9517994, "lon": -43.1817561}, {"type": "node", "id": 9234245433, "lat": -22.9518195, "lon": -43.1817809}, {"type": "node", "id": 9234245434, "lat": -22.951855, "lon": -43.1818247}, {"type": "node", "id": 9234245435, "lat": -22.9518786, "lon": -43.1821389}, {"type": "node", "id": 9234245436, "lat": -22.9517358, "lon": -43.1821232}, {"type": "node", "id": 9234245666, "lat": -22.951914, "lon": -43.1821406}, {"type": "node", "id": 9234245667, "lat": -22.9519412, "lon": -43.1819312}, {"type": "node", "id": 9234248631, "lat": -22.9519195, "lon": -43.1819044}, {"type": "node", "id": 9234248632, "lat": -22.9518784, "lon": -43.1818536}, {"type": "node", "id": 9257110612, "lat": -22.9142981, "lon": -43.1785715, "tags": {"brand": "Selina", "brand:wikidata": "Q110173599", "name": "Selina", "tourism": "hotel"}}, {"type": "node", "id": 9325707556, "lat": -22.96697, "lon": -43.1797661}, {"type": "node", "id": 9350239817, "lat": -22.9193957, "lon": -43.1783317, "tags": {"addr:street": "Rua C\u00e2ndido Mendes", "name": "Hotel Alameda", "tourism": "hotel"}}, {"type": "node", "id": 9484622339, "lat": -22.9087546, "lon": -43.169634}, {"type": "node", "id": 9484622340, "lat": -22.9087243, "lon": -43.1695554}, {"type": "node", "id": 9484622341, "lat": -22.90874, "lon": -43.1695902}, {"type": "node", "id": 9484622342, "lat": -22.9085875, "lon": -43.1691205}, {"type": "node", "id": 9484622347, "lat": -22.9087913, "lon": -43.1691981}, {"type": "node", "id": 9484622348, "lat": -22.9088713, "lon": -43.1694052}, {"type": "node", "id": 9484622349, "lat": -22.9087719, "lon": -43.1694749}, {"type": "node", "id": 9484622350, "lat": -22.9087624, "lon": -43.1694453}, {"type": "node", "id": 9484622351, "lat": -22.9088003, "lon": -43.1694314}, {"type": "node", "id": 9484622352, "lat": -22.9088763, "lon": -43.1692048}, {"type": "node", "id": 9484622353, "lat": -22.9088907, "lon": -43.1692503}, {"type": "node", "id": 9484622369, "lat": -22.9089065, "lon": -43.1694282}, {"type": "node", "id": 9484622370, "lat": -22.9088159, "lon": -43.1691443}, {"type": "node", "id": 9583493344, "lat": -22.961357, "lon": -43.1749078}, {"type": "node", "id": 9583493345, "lat": -22.9613193, "lon": -43.1749388}, {"type": "node", "id": 9583493346, "lat": -22.9613809, "lon": -43.1749596}, {"type": "node", "id": 9583493347, "lat": -22.9613392, "lon": -43.1749822}, {"type": "node", "id": 9585329710, "lat": -22.9667536, "lon": -43.1794814}, {"type": "node", "id": 9585329711, "lat": -22.9667446, "lon": -43.1786406}, {"type": "node", "id": 9585329712, "lat": -22.9671883, "lon": -43.179627}, {"type": "node", "id": 9590586652, "lat": -22.9629428, "lon": -43.1752638}, {"type": "node", "id": 9592313661, "lat": -22.9627746, "lon": -43.175268}, {"type": "node", "id": 9592313699, "lat": -22.962818, "lon": -43.1751527}, {"type": "node", "id": 9592313700, "lat": -22.9628511, "lon": -43.1752289}, {"type": "node", "id": 9592314568, "lat": -22.9618817, "lon": -43.176234}, {"type": "node", "id": 9592358084, "lat": -22.9673138, "lon": -43.1788359}, {"type": "node", "id": 9592358085, "lat": -22.9672051, "lon": -43.1786463}, {"type": "node", "id": 9592358086, "lat": -22.9672637, "lon": -43.1788675}, {"type": "node", "id": 9592358087, "lat": -22.9671657, "lon": -43.1786868}, {"type": "node", "id": 9592358088, "lat": -22.9674226, "lon": -43.1790393}, {"type": "node", "id": 9592358090, "lat": -22.967169, "lon": -43.17959}, {"type": "node", "id": 9592358091, "lat": -22.9667305, "lon": -43.1794956}, {"type": "node", "id": 9592358092, "lat": -22.9665959, "lon": -43.1792483}, {"type": "node", "id": 9592358093, "lat": -22.9665172, "lon": -43.1790909}, {"type": "node", "id": 9592358094, "lat": -22.9665637, "lon": -43.1792356}, {"type": "node", "id": 9592358095, "lat": -22.9665099, "lon": -43.1791331}, {"type": "node", "id": 9592358096, "lat": -22.9665094, "lon": -43.1791128}, {"type": "node", "id": 9592358097, "lat": -22.9665421, "lon": -43.1787758}, {"type": "node", "id": 9592358098, "lat": -22.9665335, "lon": -43.1787599}, {"type": "node", "id": 9592358100, "lat": -22.9670496, "lon": -43.178461}, {"type": "node", "id": 9592360122, "lat": -22.9651124, "lon": -43.1798773}, {"type": "node", "id": 9592360123, "lat": -22.9651883, "lon": -43.1798166}, {"type": "node", "id": 9592360124, "lat": -22.965081, "lon": -43.1798411}, {"type": "node", "id": 9592360125, "lat": -22.9650957, "lon": -43.1798627}, {"type": "node", "id": 9592360126, "lat": -22.9648919, "lon": -43.1797902}, {"type": "node", "id": 9592360127, "lat": -22.9651433, "lon": -43.1796212}, {"type": "node", "id": 9592360128, "lat": -22.9652162, "lon": -43.1797678}, {"type": "node", "id": 9592360129, "lat": -22.9652556, "lon": -43.1798469}, {"type": "node", "id": 9592360130, "lat": -22.9652372, "lon": -43.1795661}, {"type": "node", "id": 9592360131, "lat": -22.9653495, "lon": -43.1797918}, {"type": "node", "id": 9592360132, "lat": -22.9653767, "lon": -43.1794843}, {"type": "node", "id": 9592360133, "lat": -22.9654237, "lon": -43.1795787}, {"type": "node", "id": 9592360134, "lat": -22.9653847, "lon": -43.1796015}, {"type": "node", "id": 9592360135, "lat": -22.9654044, "lon": -43.1796412}, {"type": "node", "id": 9592360136, "lat": -22.9654434, "lon": -43.1796183}, {"type": "node", "id": 9592360137, "lat": -22.9654858, "lon": -43.1797035}, {"type": "node", "id": 9592360138, "lat": -22.9653463, "lon": -43.1797853}, {"type": "node", "id": 9592360139, "lat": -22.9653055, "lon": -43.1797035}, {"type": "node", "id": 9592360140, "lat": -22.9653272, "lon": -43.1796908}, {"type": "node", "id": 9592360141, "lat": -22.965312, "lon": -43.17966}, {"type": "node", "id": 9592360142, "lat": -22.9652903, "lon": -43.1796728}, {"type": "node", "id": 9592360143, "lat": -22.9655045, "lon": -43.1794093}, {"type": "node", "id": 9592360144, "lat": -22.9655508, "lon": -43.1795024}, {"type": "node", "id": 9592360145, "lat": -22.9655179, "lon": -43.1795217}, {"type": "node", "id": 9592360146, "lat": -22.9655394, "lon": -43.1795649}, {"type": "node", "id": 9592360147, "lat": -22.9655704, "lon": -43.1795467}, {"type": "node", "id": 9592360148, "lat": -22.9656117, "lon": -43.1796296}, {"type": "node", "id": 9592360149, "lat": -22.9662492, "lon": -43.1792173}, {"type": "node", "id": 9592360150, "lat": -22.9663298, "lon": -43.1791656}, {"type": "node", "id": 9592360151, "lat": -22.9662432, "lon": -43.1789866}, {"type": "node", "id": 9592360152, "lat": -22.966203, "lon": -43.1789852}, {"type": "node", "id": 9592360153, "lat": -22.9659526, "lon": -43.1791464}, {"type": "node", "id": 9592360154, "lat": -22.9659841, "lon": -43.1792098}, {"type": "node", "id": 9592360155, "lat": -22.9660446, "lon": -43.179167}, {"type": "node", "id": 9592360156, "lat": -22.9661147, "lon": -43.1792939}, {"type": "node", "id": 9592360157, "lat": -22.9661731, "lon": -43.1792601}, {"type": "node", "id": 9592360158, "lat": -22.9661017, "lon": -43.1791177}, {"type": "node", "id": 9592360159, "lat": -22.9661692, "lon": -43.1790754}, {"type": "node", "id": 9592360160, "lat": -22.9658265, "lon": -43.1792204}, {"type": "node", "id": 9592360161, "lat": -22.9660481, "lon": -43.1793385}, {"type": "node", "id": 9592360162, "lat": -22.9659866, "lon": -43.1793746}, {"type": "node", "id": 9592360163, "lat": -22.9659517, "lon": -43.1793043}, {"type": "node", "id": 9592360164, "lat": -22.9658871, "lon": -43.1793422}, {"type": "node", "id": 9592360165, "lat": -22.9657221, "lon": -43.1795648}, {"type": "node", "id": 9592360166, "lat": -22.9656775, "lon": -43.1794751}, {"type": "node", "id": 9592360167, "lat": -22.9656448, "lon": -43.1794943}, {"type": "node", "id": 9592360168, "lat": -22.9656299, "lon": -43.1794643}, {"type": "node", "id": 9592360169, "lat": -22.9656571, "lon": -43.1794483}, {"type": "node", "id": 9592360170, "lat": -22.9656076, "lon": -43.1793488}, {"type": "node", "id": 9592360171, "lat": -22.9655791, "lon": -43.1794858}, {"type": "node", "id": 9592360172, "lat": -22.9656006, "lon": -43.179529}, {"type": "node", "id": 9592360173, "lat": -22.965829, "lon": -43.179502}, {"type": "node", "id": 9592360174, "lat": -22.9657862, "lon": -43.179416}, {"type": "node", "id": 9592360175, "lat": -22.9657501, "lon": -43.1794372}, {"type": "node", "id": 9592360176, "lat": -22.9657329, "lon": -43.1794027}, {"type": "node", "id": 9592360177, "lat": -22.965763, "lon": -43.1793851}, {"type": "node", "id": 9592360178, "lat": -22.9657139, "lon": -43.1792864}, {"type": "node", "id": 9592360179, "lat": -22.9656893, "lon": -43.1794294}, {"type": "node", "id": 9592360180, "lat": -22.9657043, "lon": -43.1794594}, {"type": "node", "id": 9592360181, "lat": -22.9659355, "lon": -43.1794396}, {"type": "node", "id": 9592360182, "lat": -22.9657947, "lon": -43.1793665}, {"type": "node", "id": 9592360183, "lat": -22.9658118, "lon": -43.179401}, {"type": "node", "id": 9592360184, "lat": -22.9665228, "lon": -43.1797312}, {"type": "node", "id": 9592360185, "lat": -22.9666293, "lon": -43.1796672}, {"type": "node", "id": 9592360186, "lat": -22.9667191, "lon": -43.1798433}, {"type": "node", "id": 9592360187, "lat": -22.9666675, "lon": -43.1798744}, {"type": "node", "id": 9592360188, "lat": -22.9666537, "lon": -43.1798473}, {"type": "node", "id": 9592360189, "lat": -22.9665989, "lon": -43.1798803}, {"type": "node", "id": 9592360190, "lat": -22.9663687, "lon": -43.1797935}, {"type": "node", "id": 9592360191, "lat": -22.9665932, "lon": -43.1796493}, {"type": "node", "id": 9592360192, "lat": -22.9665349, "lon": -43.1795422}, {"type": "node", "id": 9592360193, "lat": -22.9663104, "lon": -43.1796864}, {"type": "node", "id": 9592360194, "lat": -22.9664557, "lon": -43.1793967}, {"type": "node", "id": 9592360195, "lat": -22.9663568, "lon": -43.1794602}, {"type": "node", "id": 9592360196, "lat": -22.9663814, "lon": -43.1795053}, {"type": "node", "id": 9592360197, "lat": -22.9663123, "lon": -43.1795497}, {"type": "node", "id": 9592360198, "lat": -22.966287, "lon": -43.1795034}, {"type": "node", "id": 9592360199, "lat": -22.9662059, "lon": -43.1795555}, {"type": "node", "id": 9592360200, "lat": -22.9662857, "lon": -43.1797022}, {"type": "node", "id": 9592360201, "lat": -22.9663469, "lon": -43.1796629}, {"type": "node", "id": 9592361334, "lat": -22.966384, "lon": -43.1794428}, {"type": "node", "id": 9592361350, "lat": -22.9667002, "lon": -43.1798546}, {"type": "node", "id": 9621586068, "lat": -22.9137492, "lon": -43.1666193}, {"type": "node", "id": 9621586070, "lat": -22.9137525, "lon": -43.1666582, "tags": {"entrance": "yes", "level": "1", "wheelchair": "yes"}}, {"type": "node", "id": 9621586071, "lat": -22.9137563, "lon": -43.1667459}, {"type": "node", "id": 9621640722, "lat": -22.9139362, "lon": -43.1670285}, {"type": "node", "id": 9621640726, "lat": -22.9140068, "lon": -43.1669195}, {"type": "node", "id": 9622355147, "lat": -22.9299198, "lon": -43.1793759}, {"type": "node", "id": 9622355148, "lat": -22.9298922, "lon": -43.179408}, {"type": "node", "id": 9622355149, "lat": -22.9298498, "lon": -43.1794042}, {"type": "node", "id": 9622355150, "lat": -22.9297084, "lon": -43.1793754}, {"type": "node", "id": 9622355151, "lat": -22.9297543, "lon": -43.1791796}, {"type": "node", "id": 9622355152, "lat": -22.9298021, "lon": -43.1792007}, {"type": "node", "id": 9622355153, "lat": -22.9298304, "lon": -43.1792256}, {"type": "node", "id": 9622355154, "lat": -22.9298626, "lon": -43.1792122}, {"type": "node", "id": 9624007751, "lat": -22.8175897, "lon": -43.2371088}, {"type": "node", "id": 9624007752, "lat": -22.817413, "lon": -43.2373853}, {"type": "node", "id": 9624007753, "lat": -22.8173849, "lon": -43.2374425}, {"type": "node", "id": 9624007754, "lat": -22.8170992, "lon": -43.2365133}, {"type": "node", "id": 9624007755, "lat": -22.8176509, "lon": -43.2369544}, {"type": "node", "id": 9624007756, "lat": -22.8175724, "lon": -43.2370749}, {"type": "node", "id": 9624007762, "lat": -22.8171911, "lon": -43.2365868}, {"type": "node", "id": 9624007769, "lat": -22.8173167, "lon": -43.2373853}, {"type": "node", "id": 9624007771, "lat": -22.8174255, "lon": -43.237366}, {"type": "node", "id": 9624335849, "lat": -22.9238085, "lon": -43.1734563}, {"type": "node", "id": 9664383525, "lat": -22.9137718, "lon": -43.1666166}, {"type": "node", "id": 9664383526, "lat": -22.9139583, "lon": -43.1668828}, {"type": "node", "id": 9665646803, "lat": -22.914259, "lon": -43.1665918}, {"type": "node", "id": 9665655414, "lat": -22.9145632, "lon": -43.1660395}, {"type": "node", "id": 9665678079, "lat": -22.9148791, "lon": -43.1659202}, {"type": "node", "id": 9665678080, "lat": -22.9147635, "lon": -43.1658344}, {"type": "node", "id": 9665678081, "lat": -22.9146164, "lon": -43.1660725}, {"type": "node", "id": 9665678083, "lat": -22.9140746, "lon": -43.1668114}, {"type": "node", "id": 9665678084, "lat": -22.9141242, "lon": -43.1668575}, {"type": "node", "id": 9665678085, "lat": -22.9141684, "lon": -43.1666329}, {"type": "node", "id": 9665678086, "lat": -22.9143094, "lon": -43.1667291}, {"type": "node", "id": 9665678087, "lat": -22.9146821, "lon": -43.1661042}, {"type": "node", "id": 9665678094, "lat": -22.9139953, "lon": -43.1674408}, {"type": "node", "id": 9665707708, "lat": -22.9140211, "lon": -43.1674413}, {"type": "node", "id": 9665707715, "lat": -22.9139151, "lon": -43.167382}, {"type": "node", "id": 9665737420, "lat": -22.9138932, "lon": -43.1670966}, {"type": "node", "id": 9665739057, "lat": -22.9149502, "lon": -43.1659108}, {"type": "node", "id": 9665739059, "lat": -22.9149848, "lon": -43.1654591}, {"type": "node", "id": 9665739060, "lat": -22.9150882, "lon": -43.1655237, "tags": {"amenity": "loading_dock"}}, {"type": "node", "id": 9665739061, "lat": -22.9142338, "lon": -43.1666766}, {"type": "node", "id": 9665739062, "lat": -22.9147835, "lon": -43.1661851}, {"type": "node", "id": 9665764528, "lat": -22.9146138, "lon": -43.1664643}, {"type": "node", "id": 9665764531, "lat": -22.9148399, "lon": -43.1660923}, {"type": "node", "id": 9665773548, "lat": -22.9138523, "lon": -43.166814}, {"type": "node", "id": 9666816400, "lat": -22.9145195, "lon": -43.1663805}, {"type": "node", "id": 9666816403, "lat": -22.9145793, "lon": -43.1662813}, {"type": "node", "id": 9666816405, "lat": -22.9144043, "lon": -43.1665716}, {"type": "node", "id": 9666816408, "lat": -22.9147331, "lon": -43.166154}, {"type": "node", "id": 9666816409, "lat": -22.9145962, "lon": -43.1662533}, {"type": "node", "id": 9670863837, "lat": -22.906765, "lon": -43.2184302}, {"type": "node", "id": 9670863838, "lat": -22.9067082, "lon": -43.2180029}, {"type": "node", "id": 9670863839, "lat": -22.9059356, "lon": -43.218076}, {"type": "node", "id": 9670863840, "lat": -22.9058346, "lon": -43.2184251}, {"type": "node", "id": 9674168652, "lat": -22.9143443, "lon": -43.1669099}, {"type": "node", "id": 9674168656, "lat": -22.9140285, "lon": -43.1668849}, {"type": "node", "id": 9681502363, "lat": -22.8189822, "lon": -43.3169054}, {"type": "node", "id": 9681502364, "lat": -22.8191945, "lon": -43.3169112}, {"type": "node", "id": 9681502365, "lat": -22.8192114, "lon": -43.3161176}, {"type": "node", "id": 9805392692, "lat": -22.9671498, "lon": -43.1795528}, {"type": "node", "id": 9805392693, "lat": -22.9674615, "lon": -43.1793612}, {"type": "node", "id": 9805392694, "lat": -22.9673187, "lon": -43.1791404}, {"type": "node", "id": 9805392695, "lat": -22.9670185, "lon": -43.1793008}, {"type": "node", "id": 9879773521, "lat": -22.9698993, "lon": -43.1887279, "tags": {"name": "Regency copacabana", "tourism": "hotel"}}, {"type": "node", "id": 9939933528, "lat": -22.9219376, "lon": -43.2483752}, {"type": "node", "id": 9939933531, "lat": -22.9223353, "lon": -43.2482425}, {"type": "node", "id": 9939933532, "lat": -22.9222394, "lon": -43.2482745}, {"type": "node", "id": 9939933535, "lat": -22.9220791, "lon": -43.248328}, {"type": "node", "id": 10596365143, "lat": -22.9955759, "lon": -43.2424733}, {"type": "node", "id": 10596365144, "lat": -22.9956058, "lon": -43.2424307}, {"type": "node", "id": 10596365145, "lat": -22.9957099, "lon": -43.2425125}, {"type": "node", "id": 10596365146, "lat": -22.9957109, "lon": -43.2425394}, {"type": "node", "id": 10596365147, "lat": -22.9956748, "lon": -43.242564}, {"type": "node", "id": 10726083946, "lat": -22.9133312, "lon": -43.1817452, "tags": {"addr:city": "Rio de Janeiro", "addr:housenumber": "200", "addr:postcode": "20230-070", "addr:street": "Rua do Lavradio", "addr:suburb": "Lapa", "name": "Le Chateau Lapa - BoutiqueGastroArte Hotel", "tourism": "hotel"}}, {"type": "node", "id": 10865093896, "lat": -22.9058719, "lon": -43.2185322}, {"type": "node", "id": 10958209428, "lat": -22.7920048, "lon": -43.3672822}, {"type": "node", "id": 10958209429, "lat": -22.7916357, "lon": -43.3670408}, {"type": "node", "id": 10958209430, "lat": -22.791833, "lon": -43.3666859}, {"type": "node", "id": 10958209431, "lat": -22.7920569, "lon": -43.3668324}, {"type": "node", "id": 10958209432, "lat": -22.792074, "lon": -43.3671577}, {"type": "node", "id": 10958209433, "lat": -22.7920655, "lon": -43.366995, "tags": {"entrance": "yes"}}, {"type": "node", "id": 11062747005, "lat": -22.9806739, "lon": -43.1906869, "tags": {"name": "Windsor Martinique", "tourism": "hotel"}}, {"type": "node", "id": 11165158785, "lat": -23.065206, "lon": -43.5675805, "tags": {"addr:city": "rio de janeiro", "addr:housenumber": "9616", "addr:postcode": "23020255", "addr:street": "Estrada Roberto Burle Marx", "addr:suburb": "Barra de Guaratiba", "brand": "Marambaia Caf\u00e9", "email": "marambaiacafe@gmail.com", "internet_access": "wlan", "internet_access:fee": "no", "name": "Pousada Marambaia Caf\u00e9", "rooms": "10", "tourism": "hotel", "website": "https://pousadamarambaiacafe.com.br/"}}, {"type": "node", "id": 11221093167, "lat": -23.0098667, "lon": -43.353948, "tags": {"addr:city": "Rio de Janeiro", "addr:housenumber": "5700", "addr:postcode": "22620-172", "addr:street": "Avenida L\u00facio Costa", "addr:suburb": "Barra da Tijuca", "name": "Riale Brisa Barra Hotel", "tourism": "hotel", "website": "https://rialehoteis.com.br/"}}, {"type": "node", "id": 11306358607, "lat": -23.0319886, "lon": -43.4715275, "tags": {"name": "Mikonos Hotel Resid\u00eancia", "tourism": "hotel", "wheelchair": "limited"}}, {"type": "node", "id": 11396173487, "lat": -22.9107089, "lon": -43.1709605}, {"type": "node", "id": 11396173492, "lat": -22.9105666, "lon": -43.1711314}, {"type": "node", "id": 11396173494, "lat": -22.9106158, "lon": -43.171058}, {"type": "node", "id": 11396173511, "lat": -22.9107447, "lon": -43.1711286}, {"type": "node", "id": 11396173516, "lat": -22.9105951, "lon": -43.1709802}, {"type": "node", "id": 11396173536, "lat": -22.9106002, "lon": -43.1710437}, {"type": "node", "id": 11396173563, "lat": -22.9105484, "lon": -43.1710589}, {"type": "node", "id": 11396173568, "lat": -22.9106966, "lon": -43.1709555}, {"type": "node", "id": 11396192787, "lat": -22.9105546, "lon": -43.1711339}, {"type": "node", "id": 11396192789, "lat": -22.9106195, "lon": -43.1710727}, {"type": "node", "id": 11396192809, "lat": -22.9106035, "lon": -43.1710603}, {"type": "node", "id": 11396192813, "lat": -22.9105346, "lon": -43.1709948}, {"type": "node", "id": 11396192858, "lat": -22.9106495, "lon": -43.1710313}, {"type": "node", "id": 11396192864, "lat": -22.9106339, "lon": -43.1709707}, {"type": "node", "id": 11396192886, "lat": -22.9105386, "lon": -43.1710617}, {"type": "node", "id": 11396192888, "lat": -22.9106547, "lon": -43.1710633}, {"type": "node", "id": 11396192900, "lat": -22.9105823, "lon": -43.171194}, {"type": "node", "id": 11531498569, "lat": -22.9690752, "lon": -43.1818161, "tags": {"addr:housenumber": "2064", "addr:street": "Avenida Atl\u00e2ntica", "name:en": "Arena Copacabana Hotel", "tourism": "hotel"}}, {"type": "node", "id": 11606804639, "lat": -22.9794906, "lon": -43.4103916}, {"type": "node", "id": 11606804640, "lat": -22.9794971, "lon": -43.410422}, {"type": "node", "id": 11606804641, "lat": -22.9800538, "lon": -43.4093929}, {"type": "node", "id": 11606804643, "lat": -22.9801593, "lon": -43.4093878}, {"type": "node", "id": 11606804644, "lat": -22.9801746, "lon": -43.4093698}, {"type": "node", "id": 11606804645, "lat": -22.9801952, "lon": -43.4093549}, {"type": "node", "id": 11606804646, "lat": -22.9802183, "lon": -43.4093486}, {"type": "node", "id": 11606804647, "lat": -22.9802409, "lon": -43.4093476}, {"type": "node", "id": 11606804648, "lat": -22.9802657, "lon": -43.4093512}, {"type": "node", "id": 11606804649, "lat": -22.980684, "lon": -43.4097047}, {"type": "node", "id": 11606804651, "lat": -22.9798214, "lon": -43.4106843}, {"type": "node", "id": 11606804652, "lat": -22.9798448, "lon": -43.4106805}, {"type": "node", "id": 11606804653, "lat": -22.9798348, "lon": -43.4106866}, {"type": "node", "id": 11606804654, "lat": -22.9798905, "lon": -43.4106076}, {"type": "node", "id": 11606804659, "lat": -22.9803806, "lon": -43.4109937, "tags": {"barrier": "gate"}}, {"type": "node", "id": 11606804660, "lat": -22.9801411, "lon": -43.4108057, "tags": {"barrier": "gate"}}, {"type": "node", "id": 11606804662, "lat": -22.9801401, "lon": -43.4098955}, {"type": "node", "id": 11606804663, "lat": -22.9805794, "lon": -43.4099728}, {"type": "node", "id": 11606804664, "lat": -22.9802253, "lon": -43.4101795}, {"type": "node", "id": 11606804665, "lat": -22.980184, "lon": -43.4102441}, {"type": "node", "id": 11866051948, "lat": -22.8175836, "lon": -43.2371185}, {"type": "node", "id": 11874120119, "lat": -22.9721335, "lon": -43.3745052}, {"type": "node", "id": 11874130371, "lat": -22.9721192, "lon": -43.374505}, {"type": "node", "id": 11874130375, "lat": -22.9721469, "lon": -43.3745053}, {"type": "node", "id": 11915867470, "lat": -22.9224808, "lon": -43.1859736, "tags": {"addr:housenumber": "90", "addr:street": "Ladeira do Meireles", "name": "Chez Georges", "tourism": "hotel"}}, {"type": "node", "id": 11930733256, "lat": -22.9999415, "lon": -43.4172161, "tags": {"tourism": "hotel"}}, {"type": "node", "id": 11959152077, "lat": -22.9648634, "lon": -43.1781484, "tags": {"addr:housenumber": "70", "name": "Real Palace Hotel", "tourism": "hotel"}}, {"type": "node", "id": 11978324642, "lat": -22.9722206, "lon": -43.3750829, "tags": {"tourism": "hotel"}}, {"type": "node", "id": 12066567691, "lat": -22.9367077, "lon": -43.1751211, "tags": {"addr:city": "Rio de Janeiro", "addr:housenumber": "30", "addr:postcode": "22250-110", "addr:street": "Rua Cruz Lima", "addr:suburb": "Flamengo", "name": "Argentina Hotel", "tourism": "hotel"}}, {"type": "node", "id": 12072465066, "lat": -22.9741783, "lon": -43.4131341, "tags": {"name": "Qualicom Midas Rio Convention Suites", "tourism": "hotel"}}, {"type": "node", "id": 12072465067, "lat": -22.9754824, "lon": -43.4146888, "tags": {"name": "Rio Stay Barra Hotel", "tourism": "hotel"}}, {"type": "node", "id": 12079373440, "lat": -22.8010586, "lon": -43.3508665, "tags": {"name": "Hotel Presidente Dutra", "tourism": "hotel"}}, {"type": "node", "id": 12084053622, "lat": -22.9139179, "lon": -43.166526}, {"type": "node", "id": 12084053677, "lat": -22.9138783, "lon": -43.16659}, {"type": "node", "id": 12085381309, "lat": -22.9737025, "lon": -43.4001264}, {"type": "node", "id": 12085381310, "lat": -22.9737056, "lon": -43.4002767}, {"type": "node", "id": 12085381311, "lat": -22.9737585, "lon": -43.4002734}, {"type": "node", "id": 12085381312, "lat": -22.9741319, "lon": -43.4003604}, {"type": "node", "id": 12085381313, "lat": -22.9741638, "lon": -43.4004643}, {"type": "node", "id": 12085381314, "lat": -22.9742571, "lon": -43.400466}, {"type": "node", "id": 12086328139, "lat": -22.9139422, "lon": -43.167137}, {"type": "node", "id": 12086328140, "lat": -22.9139017, "lon": -43.167195}, {"type": "node", "id": 12086328141, "lat": -22.9138583, "lon": -43.1671593}, {"type": "node", "id": 12088000177, "lat": -22.9800199, "lon": -43.410011}, {"type": "node", "id": 12088000178, "lat": -22.9801794, "lon": -43.410142}, {"type": "node", "id": 12088000179, "lat": -22.9801343, "lon": -43.4102113}, {"type": "node", "id": 12088000180, "lat": -22.9802665, "lon": -43.410316}, {"type": "node", "id": 12088000181, "lat": -22.9803132, "lon": -43.4102459}, {"type": "node", "id": 12088000182, "lat": -22.9799117, "lon": -43.4106256}, {"type": "node", "id": 12088000183, "lat": -22.9799064, "lon": -43.4105851}, {"type": "node", "id": 12088000184, "lat": -22.9799277, "lon": -43.4106011}, {"type": "node", "id": 12088000185, "lat": -22.9797562, "lon": -43.4105028}, {"type": "node", "id": 12088000186, "lat": -22.9803056, "lon": -43.4103465}, {"type": "node", "id": 12088000187, "lat": -22.9806585, "lon": -43.4100347}, {"type": "node", "id": 12088000188, "lat": -22.9802827, "lon": -43.4102242}, {"type": "node", "id": 12088000189, "lat": -22.9802393, "lon": -43.4102883}, {"type": "node", "id": 12089658534, "lat": -22.9801721, "lon": -43.4101532}, {"type": "node", "id": 12089658535, "lat": -22.9802193, "lon": -43.4101889}, {"type": "node", "id": 12089658536, "lat": -22.980277, "lon": -43.4102325}, {"type": "node", "id": 12089659144, "lat": -22.980166, "lon": -43.4101626}, {"type": "node", "id": 12089659145, "lat": -22.9799947, "lon": -43.4101407}, {"type": "node", "id": 12089659154, "lat": -22.9798849, "lon": -43.4103074}, {"type": "node", "id": 12089659156, "lat": -22.9796023, "lon": -43.410519}, {"type": "node", "id": 12089659160, "lat": -22.979554, "lon": -43.4104824}, {"type": "node", "id": 12089659175, "lat": -22.9795821, "lon": -43.4105037}, {"type": "node", "id": 12091058329, "lat": -22.9271653, "lon": -43.1768541, "tags": {"addr:city": "Rio de Janeiro", "addr:housenumber": "186", "addr:postcode": "22220-000", "addr:street": "Rua do Catete", "addr:suburb": "Catete", "name": "Riale Imperial Flamengo", "stars": "3", "tourism": "hotel", "website": "https://rialehoteis.com.br/hoteis/riale-imperial-flamengo/"}}, {"type": "node", "id": 12092565439, "lat": -22.7941168, "lon": -43.298119, "tags": {"name": "Mont Blanc Su\u00edtes Duque de Caxias", "tourism": "hotel"}}, {"type": "node", "id": 12094180040, "lat": -22.9864469, "lon": -43.2228937, "tags": {"addr:housenumber": "696", "addr:street": "Av. Delfim Moreira", "description": "Situado no Rio de Janeiro, o JANEIRO Hotel fica a 5 minutos a p\u00e9 do Posto 12 -Leblon. Voc\u00ea pode desfrutar de uma bebida no JANEIRO bar ou de refei\u00e7\u00f5es no restaurante do JANEIRO, no local. As unidades oferecem vista do mar e est\u00e3o equipadas com TV de tela", "name": "Janeiro Hotel", "phone": "(21) 2172-1001", "tourism": "hotel", "website": "https://tidd.ly/4ce3A1x"}}, {"type": "node", "id": 12095966983, "lat": -23.0214064, "lon": -43.4895133}, {"type": "node", "id": 12095966984, "lat": -23.020866, "lon": -43.4896713}, {"type": "node", "id": 12095966985, "lat": -23.0208543, "lon": -43.4896561}, {"type": "node", "id": 12095966986, "lat": -23.0208084, "lon": -43.4896341}, {"type": "node", "id": 12095966987, "lat": -23.020782, "lon": -43.4895369}, {"type": "node", "id": 12097555816, "lat": -22.9800859, "lon": -43.4106842}, {"type": "node", "id": 12097555825, "lat": -22.9802982, "lon": -43.4102684}, {"type": "node", "id": 12097555843, "lat": -22.9803992, "lon": -43.4110083}, {"type": "node", "id": 12097555864, "lat": -22.9804807, "lon": -43.4098229}, {"type": "node", "id": 12136501095, "lat": -22.9737484, "lon": -43.3721183}, {"type": "node", "id": 12136501096, "lat": -22.973769, "lon": -43.3721183}, {"type": "node", "id": 12136501097, "lat": -22.9737687, "lon": -43.3721127}, {"type": "node", "id": 12136501098, "lat": -22.9737483, "lon": -43.3721131}, {"type": "node", "id": 12136501099, "lat": -22.9741165, "lon": -43.3721201}, {"type": "node", "id": 12136501100, "lat": -22.9740986, "lon": -43.3721196}, {"type": "node", "id": 12136501101, "lat": -22.9741165, "lon": -43.372114}, {"type": "node", "id": 12136501102, "lat": -22.974099, "lon": -43.372114}, {"type": "node", "id": 12136501103, "lat": -22.9741747, "lon": -43.3720836}, {"type": "node", "id": 12136501104, "lat": -22.9741822, "lon": -43.3720835}, {"type": "node", "id": 12136501105, "lat": -22.9741624, "lon": -43.3717255}, {"type": "node", "id": 12136501106, "lat": -22.9741621, "lon": -43.3716999}, {"type": "node", "id": 12136501107, "lat": -22.9741006, "lon": -43.3717008}, {"type": "node", "id": 12136501108, "lat": -22.9741003, "lon": -43.3717093}, {"type": "node", "id": 12136501109, "lat": -22.973771, "lon": -43.3717071}, {"type": "node", "id": 12136501110, "lat": -22.9737712, "lon": -43.3716969}, {"type": "node", "id": 12136501111, "lat": -22.9737049, "lon": -43.3716972}, {"type": "node", "id": 12136501112, "lat": -22.9737103, "lon": -43.3717171}, {"type": "node", "id": 12136501113, "lat": -22.9737103, "lon": -43.3717258}, {"type": "node", "id": 12136501114, "lat": -22.9736867, "lon": -43.3717262}, {"type": "node", "id": 12136501115, "lat": -22.9737347, "lon": -43.3723427}, {"type": "node", "id": 12136501116, "lat": -22.9737064, "lon": -43.3722798}, {"type": "node", "id": 12136501117, "lat": -22.9737151, "lon": -43.3723186}, {"type": "node", "id": 12136501118, "lat": -22.9737347, "lon": -43.3723183}, {"type": "node", "id": 12136501119, "lat": -22.9740859, "lon": -43.3723438}, {"type": "node", "id": 12136501120, "lat": -22.9740846, "lon": -43.3723052}, {"type": "node", "id": 12136501121, "lat": -22.974092, "lon": -43.372305}, {"type": "node", "id": 12136501122, "lat": -22.974092, "lon": -43.3723178}, {"type": "node", "id": 12136501123, "lat": -22.9741334, "lon": -43.3723182}, {"type": "node", "id": 12136501124, "lat": -22.9741334, "lon": -43.3723049}, {"type": "node", "id": 12136501125, "lat": -22.97414, "lon": -43.3723048}, {"type": "node", "id": 12136501126, "lat": -22.9741402, "lon": -43.3723439}, {"type": "node", "id": 12136501127, "lat": -22.9743288, "lon": -43.3723461}, {"type": "node", "id": 12136501128, "lat": -22.9743287, "lon": -43.3723375}, {"type": "node", "id": 12136501129, "lat": -22.9743849, "lon": -43.3723092}, {"type": "node", "id": 12136501130, "lat": -22.9744053, "lon": -43.3723099}, {"type": "node", "id": 12136501131, "lat": -22.9742737, "lon": -43.3721932}, {"type": "node", "id": 12136501132, "lat": -22.9743016, "lon": -43.3721922}, {"type": "node", "id": 12136501133, "lat": -22.9743015, "lon": -43.372236}, {"type": "node", "id": 12136501134, "lat": -22.9742286, "lon": -43.3722539}, {"type": "node", "id": 12136501135, "lat": -22.9742215, "lon": -43.3722537}, {"type": "node", "id": 12136501136, "lat": -22.9742216, "lon": -43.3722024}, {"type": "node", "id": 12171322480, "lat": -23.0139645, "lon": -43.2980135}, {"type": "node", "id": 12171322481, "lat": -23.0139869, "lon": -43.2980341}, {"type": "node", "id": 12171322482, "lat": -23.0139396, "lon": -43.2980195}, {"type": "node", "id": 12171322483, "lat": -23.0138541, "lon": -43.2980028}, {"type": "node", "id": 12171322484, "lat": -23.0138587, "lon": -43.2979775}, {"type": "node", "id": 12171322485, "lat": -23.0138081, "lon": -43.2979681}, {"type": "node", "id": 12171322486, "lat": -23.0138136, "lon": -43.2979415}, {"type": "node", "id": 12171322487, "lat": -23.0140002, "lon": -43.298057}, {"type": "node", "id": 12171322488, "lat": -23.0140068, "lon": -43.2980801}, {"type": "node", "id": 12171322489, "lat": -23.0139915, "lon": -43.2980828}, {"type": "node", "id": 12329112001, "lat": -22.8809053, "lon": -43.3842612}, {"type": "node", "id": 12329112002, "lat": -22.8807996, "lon": -43.3843036}, {"type": "node", "id": 12329112003, "lat": -22.8807965, "lon": -43.3842946}, {"type": "node", "id": 12329112004, "lat": -22.8807874, "lon": -43.3842983}, {"type": "node", "id": 12329112005, "lat": -22.8807585, "lon": -43.3842133}, {"type": "node", "id": 12329112006, "lat": -22.8807662, "lon": -43.3842102}, {"type": "node", "id": 12329112007, "lat": -22.8807615, "lon": -43.3841963}, {"type": "node", "id": 12329112008, "lat": -22.8807711, "lon": -43.3841925}, {"type": "node", "id": 12329112009, "lat": -22.8807411, "lon": -43.3841043}, {"type": "node", "id": 12329112010, "lat": -22.88073, "lon": -43.3841087}, {"type": "node", "id": 12329112011, "lat": -22.8807279, "lon": -43.3841026}, {"type": "node", "id": 12329112012, "lat": -22.880721, "lon": -43.3841053}, {"type": "node", "id": 12329112013, "lat": -22.8806447, "lon": -43.3838809}, {"type": "node", "id": 12329112014, "lat": -22.8806534, "lon": -43.3838774}, {"type": "node", "id": 12329112015, "lat": -22.880652, "lon": -43.3838735}, {"type": "node", "id": 12329112016, "lat": -22.8806623, "lon": -43.3838694}, {"type": "node", "id": 12329112017, "lat": -22.8806317, "lon": -43.3837798}, {"type": "node", "id": 12329112018, "lat": -22.8806222, "lon": -43.3837836}, {"type": "node", "id": 12329112019, "lat": -22.8806175, "lon": -43.3837699}, {"type": "node", "id": 12329112020, "lat": -22.8806088, "lon": -43.3837734}, {"type": "node", "id": 12329112021, "lat": -22.8805805, "lon": -43.3836905}, {"type": "node", "id": 12329112022, "lat": -22.8805891, "lon": -43.3836871}, {"type": "node", "id": 12329112023, "lat": -22.8805845, "lon": -43.3836736}, {"type": "node", "id": 12329112024, "lat": -22.8806938, "lon": -43.3836296}, {"type": "node", "id": 12329112025, "lat": -22.8807265, "lon": -43.3837254}, {"type": "node", "id": 12329112026, "lat": -22.8807339, "lon": -43.3837224}, {"type": "node", "id": 12329112027, "lat": -22.8807383, "lon": -43.3837351}, {"type": "node", "id": 12329112028, "lat": -22.8807459, "lon": -43.3837321}, {"type": "node", "id": 12329112029, "lat": -22.8807746, "lon": -43.3838161}, {"type": "node", "id": 12329112030, "lat": -22.880764, "lon": -43.3838204}, {"type": "node", "id": 12329112031, "lat": -22.8807677, "lon": -43.383831}, {"type": "node", "id": 12329112032, "lat": -22.8807587, "lon": -43.3838346}, {"type": "node", "id": 12329112033, "lat": -22.8807882, "lon": -43.3839209}, {"type": "node", "id": 12329112034, "lat": -22.8808063, "lon": -43.3839136}, {"type": "node", "id": 12329112035, "lat": -22.8808259, "lon": -43.3839712}, {"type": "node", "id": 12329112036, "lat": -22.8808092, "lon": -43.3839779}, {"type": "node", "id": 12329112037, "lat": -22.8808391, "lon": -43.3840656}, {"type": "node", "id": 12329112038, "lat": -22.8808461, "lon": -43.3840628}, {"type": "node", "id": 12329112039, "lat": -22.8808498, "lon": -43.3840736}, {"type": "node", "id": 12329112040, "lat": -22.8808592, "lon": -43.3840698}, {"type": "node", "id": 12329112041, "lat": -22.8808849, "lon": -43.3841449}, {"type": "node", "id": 12329112042, "lat": -22.8808757, "lon": -43.3841486}, {"type": "node", "id": 12329112043, "lat": -22.8808807, "lon": -43.3841632}, {"type": "node", "id": 12329112044, "lat": -22.8808729, "lon": -43.3841663}, {"type": "node", "id": 12386158201, "lat": -22.9410707, "lon": -43.2062429, "tags": {"addr:housenumber": "1342", "addr:street": "Rua Cosme Velho", "check_date": "2024-11-30", "email": "lesjardinsderio@gmail.com", "internet_access": "yes", "name": "Les Jardins de Rio Boutique Hotel", "phone": "+55 21 3217-1334", "tourism": "hotel", "website": "https://www.lesjardinsderio.com.br/pt/index.html"}}, {"type": "node", "id": 12394913317, "lat": -22.9665392, "lon": -43.1792018}, {"type": "node", "id": 12394913318, "lat": -22.9665235, "lon": -43.1791695}, {"type": "node", "id": 12394913323, "lat": -22.9667498, "lon": -43.1786503}, {"type": "node", "id": 12394913324, "lat": -22.9668403, "lon": -43.1785824}, {"type": "node", "id": 12394913325, "lat": -22.9669107, "lon": -43.1785393}, {"type": "node", "id": 12394913326, "lat": -22.9669061, "lon": -43.1785304}, {"type": "node", "id": 12394913327, "lat": -22.9668356, "lon": -43.1785734}, {"type": "node", "id": 12394913328, "lat": -22.9667825, "lon": -43.1786059}, {"type": "node", "id": 12394913329, "lat": -22.9669599, "lon": -43.1784975}, {"type": "node", "id": 12394913330, "lat": -22.9667875, "lon": -43.1786156}, {"type": "node", "id": 12394913331, "lat": -22.9669649, "lon": -43.1785072}, {"type": "node", "id": 12394913332, "lat": -22.9669905, "lon": -43.178483}, {"type": "node", "id": 12394913333, "lat": -22.9670436, "lon": -43.1784505}, {"type": "node", "id": 12394913334, "lat": -22.9669938, "lon": -43.1784895}, {"type": "node", "id": 12394913335, "lat": -22.9672189, "lon": -43.1788512}, {"type": "node", "id": 12394913336, "lat": -22.967153, "lon": -43.1787235}, {"type": "node", "id": 12394913337, "lat": -22.96716, "lon": -43.1786757}, {"type": "node", "id": 12394913338, "lat": -22.9672578, "lon": -43.1788561}, {"type": "node", "id": 12394913339, "lat": -22.9674709, "lon": -43.1790084}, {"type": "node", "id": 12394913340, "lat": -22.9665213, "lon": -43.1791582}, {"type": "node", "id": 12394913341, "lat": -22.9665263, "lon": -43.1791808}, {"type": "node", "id": 12394913342, "lat": -22.9665321, "lon": -43.1791917}, {"type": "node", "id": 12394913343, "lat": -22.9665482, "lon": -43.1792109}, {"type": "node", "id": 12394913344, "lat": -22.96658, "lon": -43.1792459}, {"type": "node", "id": 12394913345, "lat": -22.96708, "lon": -43.179263}, {"type": "node", "id": 12394913346, "lat": -22.9670895, "lon": -43.1792812}, {"type": "node", "id": 12394913347, "lat": -22.9673495, "lon": -43.1791996}, {"type": "node", "id": 12394913348, "lat": -22.9673706, "lon": -43.1791867}, {"type": "node", "id": 12400955719, "lat": -22.9671894, "lon": -43.178794, "tags": {"entrance": "main"}}, {"type": "node", "id": 12417351901, "lat": -22.9169853, "lon": -43.181791, "tags": {"name": "Casa Geranio", "tourism": "hotel"}}, {"type": "node", "id": 12453387791, "lat": -22.9088794, "lon": -43.1694373}, {"type": "node", "id": 12478420019, "lat": -22.9071995, "lon": -43.1820264}, {"type": "node", "id": 12478420031, "lat": -22.9073592, "lon": -43.1818422}, {"type": "node", "id": 12478420037, "lat": -22.9075067, "lon": -43.1817938}, {"type": "node", "id": 12480783975, "lat": -22.9145752, "lon": -43.1848388}, {"type": "node", "id": 12480783976, "lat": -22.9133632, "lon": -43.1852097}, {"type": "node", "id": 12488710244, "lat": -22.9615665, "lon": -43.1750582}, {"type": "node", "id": 12529855293, "lat": -22.9284795, "lon": -43.1770436, "tags": {"name": "Rio Claro", "tourism": "hotel"}}, {"type": "node", "id": 12612647101, "lat": -22.9644369, "lon": -43.1794703, "tags": {"name": "Conforto em Copacabana- 100m da praia - BR1307 Z4", "tourism": "hotel"}}, {"type": "node", "id": 12618217601, "lat": -22.9800621, "lon": -43.1909303, "tags": {"name": "Pine Travel HQ - for luggage storage", "tourism": "hotel"}}, {"type": "way", "id": 44871094, "nodes": [9208891779, 9208891778, 9208891777, 568894956, 9208891776, 9208891775, 9208891774, 568894953, 568894947, 512851039, 9208891779], "tags": {"IPP:CodEdificio": "2220684", "addr:city": "Rio de Janeiro", "addr:housenumber": "298", "addr:street": "Rua S\u00e3o Clemente", "addr:suburb": "Botafogo", "amenity": "love_hotel", "building": "yes", "ele": "4.67", "height": "10.75", "name": "Hotel Panda", "phone": "+55-21-2537-3134", "source": "data.rio", "tourism": "hotel", "type": "love_hotel", "url": "http://www.pandahotel.com.br/"}}, {"type": "way", "id": 49857356, "nodes": [633485480, 633485481, 9939933531, 9939933532, 9939933535, 9939933528, 633485482, 633485484, 633485486, 633485487, 633485480], "tags": {"addr:city": "Rio de Janeiro", "addr:housenumber": "460", "addr:postcode": "20541-100", "addr:street": "Rua Maxwell", "addr:suburb": "Vila Isabel", "amenity": "love_hotel", "building": "yes", "internet_access": "wlan", "name": "Corinto Hotel", "phone": "+55 21 2570-9696", "smoking": "no", "stars": "5", "tourism": "hotel", "website": "https://corintohotel.com.br/"}}, {"type": "way", "id": 60860745, "nodes": [761862113, 2707541714, 2707541711, 761862114, 761862115, 2707541716, 2707541724, 761862116, 761862113], "tags": {"building": "hotel", "building:levels": "15", "name": "Hotel Meli\u00e1 Barra", "source": "Yahoo", "tourism": "hotel"}}, {"type": "way", "id": 100555349, "nodes": [1162650967, 9325707556, 9585329712, 9592358090, 506849958, 12394913339, 9592358088, 9592358084, 9592358086, 12394913338, 12394913335, 12400955719, 12394913336, 9592358087, 12394913337, 9592358085, 1162650958, 9592358100, 12394913333, 12394913332, 12394913334, 12394913331, 12394913329, 12394913326, 12394913325, 12394913324, 12394913327, 12394913328, 12394913330, 9585329711, 12394913323, 9592358097, 9592358098, 1162650963, 9592358093, 9592358096, 9592358095, 12394913340, 12394913318, 12394913341, 12394913342, 12394913317, 12394913343, 9592358094, 12394913344, 9592358092, 9592358091, 9585329710, 1162650967]}, {"type": "way", "id": 132987439, "nodes": [1463421935, 1463421931, 1463421944, 1463421936, 1463421935], "tags": {"addr:housenumber": "62", "addr:street": "Rua General Os\u00f3rio", "building": "hotel", "name": "Hotel Cantareira", "tourism": "hotel"}}, {"type": "way", "id": 182091010, "nodes": [1924325344, 1924325343, 1924325345, 1955335262, 1924325344], "tags": {"building": "yes", "tourism": "hotel"}}, {"type": "way", "id": 182115722, "nodes": [1400550030, 1924742303, 1924742304, 1924742305, 1924742307, 1924742283, 1400550033, 1400550030], "tags": {"addr:city": "Niter\u00f3i", "addr:housenumber": "118", "addr:postcode": "24210001", "addr:street": "Rua General Andrade Neves", "addr:suburb": "Centro", "building": "yes", "name": "Niter\u00f3i Palace Hotel", "tourism": "hotel"}}, {"type": "way", "id": 184967306, "nodes": [1955335278, 1955335297, 1955335259, 1955335244, 1955335275, 1955335271, 1955335263, 1955335298, 1955335276, 1955335264, 1955335296, 1955335273, 1955335284, 1955335280, 1955335265, 1955335278], "tags": {"area": "yes", "name": "Mercure", "tourism": "hotel"}}, {"type": "way", "id": 185307434, "nodes": [616374511, 1958722214, 1958722218, 1958722216, 616374511], "tags": {"addr:city": "Niter\u00f3i", "addr:country": "BR", "addr:housenumber": "14", "addr:street": "Rua Doutor Paulo Alves", "addr:suburb": "Ing\u00e1", "building": "yes", "name": "H Niter\u00f3i", "phone": "+55-21-3174-5055", "tourism": "hotel", "website": "https://hniteroi.com.br/"}}, {"type": "way", "id": 206935581, "nodes": [2170215599, 2170215654, 9592360122, 9592360123, 2170215642, 9592360125, 9592360124, 2170215571, 2170215599], "tags": {"addr:housenumber": "173", "addr:street": "Rua Barata Ribeiro", "building": "yes", "name": "Hotel Best Western Plus Copacabana Design Hotel", "tourism": "hotel"}}, {"type": "way", "id": 210232751, "nodes": [2203274276, 2203274292, 9592314568, 2203274265, 2203274303, 2203274276], "tags": {"addr:housenumber": "103", "addr:street": "Pra\u00e7a Dem\u00e9trio Ribeiro", "building": "apartments", "name": "Diplomata", "phone": "+55-21-22958282", "source": "Bing; survey", "tourism": "hotel", "website": "http://www.hoteldiplomatacopacabana.com.br/"}}, {"type": "way", "id": 210235881, "nodes": [2203304077, 2203304049, 2203304114, 9590586652, 2203304045, 2203304118, 9592313661, 9592313700, 9592313699, 2203304131, 2203304077], "tags": {"addr:housenumber": "263", "addr:street": "Avenida Princesa Isabel", "building": "yes", "name": "Windsor Plaza", "phone": "+55-21-21955500", "source": "Bing; survey", "tourism": "hotel", "website": "https://www.windsorhoteis.com.br/br/hoteis/windsor-plaza/4/apresentacao.aspx"}}, {"type": "way", "id": 219295619, "nodes": [2284775560, 5201231550, 5201231547, 5201231548, 5201231546, 5201231549, 2284775562, 2284775556, 2284775550, 2284775545, 2284775554, 2284775536, 2284775558, 2284775529, 5201231551, 2284775560], "tags": {"brand": "Grand Hyatt", "brand:wikidata": "Q1425063", "brand:wikipedia": "en:Hyatt", "name": "Grand Hyatt", "tourism": "hotel"}}, {"type": "way", "id": 219296070, "nodes": [2284779763, 2284779762, 2284779761, 2284779764, 2284779763], "tags": {"addr:city": "Rio de Janeiro", "addr:housenumber": "17360", "addr:postcode": "22795-009", "addr:street": "Avenida L\u00facio Costa", "building": "yes", "name": "Premium Design", "operator": "Blue Tree", "phone": "+55 21 3613-9700", "tourism": "hotel", "website": "https://www.bluetree.com.br/"}}, {"type": "way", "id": 228409983, "nodes": [5499340759, 9219680986, 9219680985, 9219680984, 9219680983, 9219680982, 9219682289, 9219682288, 9219680981, 9219680980, 5499340758, 9219680979, 5499340760, 2370914388, 9219680978, 5499340765, 9219680977, 2370914385, 9219680976, 9219680975, 2370914383, 9219680974, 5499340759], "tags": {"IPP:CodEdificio": "2202822", "addr:housenumber": "39", "addr:postcode": "22270-050", "addr:street": "Rua Paulino Fernandes", "brand": "Ibis", "brand:wikidata": "Q920166", "building": "hotel", "ele": "2.58", "email": "h7547-re@accor.com.br", "height": "33.92", "layer": "1", "name": "Ibis Rio de Janeiro Botafogo", "operator": "Accor Hotels", "phone": "+55 21 3515 2999", "source": "data.rio", "tourism": "hotel", "website": "http://www.ibis.com/pt-br/hotel-7547-ibis-rio-de-janeiro-botafogo-opening-june-2013/index.shtml"}}, {"type": "way", "id": 259760384, "nodes": [2652174771, 4320211242, 2652174772, 2652174773, 2652174774, 9624335849, 2652174775, 2652174776, 2652174778, 2652174771], "tags": {"building": "hotel", "name": "Hotel Gl\u00f3ria - Anexo", "tourism": "hotel"}}, {"type": "way", "id": 265098279, "nodes": [2707541535, 2707541523, 2707541520, 2707541504, 2707541501, 2707541525, 2707541528, 2707541538, 2707541535], "tags": {"building": "hotel", "building:levels": "15", "name": "Hotel Meli\u00e1 Barra", "source": "Yahoo", "tourism": "hotel"}}, {"type": "way", "id": 270842385, "nodes": [2758085006, 2758085007, 4924891010, 4924913842, 4924913839, 4924891009, 9484622342, 2758085011, 2758085012, 4924913838, 4924913841, 2758085013, 2758085014, 9484622339, 9484622341, 9484622340, 2758085006], "tags": {"addr:city": "Rio de Janeiro", "addr:housenumber": "280", "addr:postcode": "20020-080", "addr:street": "Avenida Marechal C\u00e2mara", "addr:suburb": "Centro", "brand": "Ibis", "brand:wikidata": "Q920166", "brand:wikipedia": "en:Ibis (hotel)", "building": "yes", "name": "Ibis Santos Dumont", "phone": "+55 21 3506-4500", "stars": "3", "tourism": "hotel", "website": "http://www.ibis.com/pt-br/hotel-5691-ibis-rio-de-janeiro-santos-dumont/index.shtml"}}, {"type": "way", "id": 279432631, "nodes": [2836362389, 2836362391, 2836362392, 2836362390, 2836362375, 2836362388, 2836362389], "tags": {"addr:city": "Rio de Janeiro", "addr:housenumber": "10500", "addr:postcode": "22793082", "addr:street": "Avenida das Am\u00e9ricas", "addr:suburb": "Barra da Tijuca", "building": "yes", "name": "Am\u00e9ricas Barra Hotel & Eventos", "tourism": "hotel"}}, {"type": "way", "id": 283788697, "nodes": [2876166398, 2876166399, 12171322486, 12171322485, 12171322484, 12171322483, 12171322482, 2876166902, 12171322480, 12171322481, 12171322487, 12171322488, 12171322489, 2876166903, 2876166904, 2876166905, 2876166901, 2876166400, 2876166398], "tags": {"brand": "Ibis", "brand:wikidata": "Q920166", "brand:wikipedia": "en:Ibis (hotel)", "name": "Ibis", "tourism": "hotel"}}, {"type": "way", "id": 284851138, "nodes": [2885582432, 2885582429, 2885582438, 2885582434, 2885582433, 2885582426, 2885582435, 2885582437, 2885582432], "tags": {"addr:housenumber": "411", "addr:street": "Rua Joaquim Palhares", "name": "Gallant Hotel", "phone": "+55-21-22930896", "tourism": "hotel", "website": "https://gallant.com.br/"}}, {"type": "way", "id": 286526452, "nodes": [2902083897, 1408488961, 3638072646, 2902083899, 2902084101, 2902083897], "tags": {"addr:housenumber": "19", "addr:postcode": "20060-050", "addr:street": "Rua Pedro I", "building": "hotel", "name": "Rio's Presidente Hotel", "phone": "+552121235900", "tourism": "hotel"}}, {"type": "way", "id": 286526454, "nodes": [2902084105, 2902084104, 2902084106, 1411267420, 3638072637, 2902084105], "tags": {"addr:housenumber": "32", "addr:street": "Rua Silva Jardim", "brand": "Ibis", "brand:wikidata": "Q920166", "building": "hotel", "description": "Torre I", "name": "Ibis Rio de Janeiro Centro", "phone": "+55 21 3511820", "tourism": "hotel", "website": "http://www.ibis.com/gb/hotel-5534-ibis-rio-de-janeiro-centro/index.shtml"}}, {"type": "way", "id": 286526455, "nodes": [12478420019, 2902084109, 2902084110, 12478420037, 12478420031, 559645073, 12478420019], "tags": {"addr:housenumber": "32", "addr:street": "Rua Silva Jardim", "brand": "Ibis Budget", "brand:wikidata": "Q1458135", "building": "hotel", "description": "Torre II", "name": "Ibis Budget Rio de Janeiro Centro", "phone": "+55 2135118500", "tourism": "hotel", "website": "https://www.accorhotels.com/de/hotel-5521-ibis-budget-rio-de-janeiro-centro/index.shtml", "wheelchair": "limited"}}, {"type": "way", "id": 286529757, "nodes": [2902117749, 2902117750, 2902117751, 2902117752, 2902117753, 2902117754, 2902117755, 2902117756, 2902117749], "tags": {"addr:city": "Rio de Janeiro", "addr:housenumber": "2964", "addr:postcode": "22070-000", "addr:street": "Avenida Atl\u00e2ntica", "addr:suburb": "Copacabana", "building": "hotel", "building:levels": "30", "name": "Pestana Rio Atl\u00e2ntica", "phone": "+55 21 2548-6332", "tourism": "hotel", "website": "https://www.pestana.com/en/hotel/pestana-rio"}}, {"type": "way", "id": 286933425, "nodes": [2906036227, 2906036228, 2906036229, 2906036230, 2906036231, 2906036232, 2906036233, 2906036234, 2906036227], "tags": {"addr:city": "Rio de Janeiro", "addr:housenumber": "980", "addr:street": "Avenida Embaixador Abelardo Bueno", "addr:suburb": "Barra da Tijuca", "building": "yes", "name": "Monza Hotel", "tourism": "hotel", "website": "http://www.monzahoteis.com.br/"}}, {"type": "way", "id": 289564629, "nodes": [792140343, 2931163322, 792145674, 792138694, 792140343], "tags": {"addr:city": "Rio de Janeiro", "addr:housenumber": "3150", "addr:postcode": "22630-010", "addr:street": "Avenida L\u00facio Costa", "internet_access": "wlan", "name": "Radisson Hotel Barra", "name:en": "Sheraton Barra Rio de Janeiro", "name:pt": "Radisson Hotel Barra", "old_name": "Sheraton", "opening_hours": "24/7", "phone": "+55 (21) 3139-8000", "tourism": "hotel", "website": "https://www.sheraton-barra.com.br/"}}, {"type": "way", "id": 297278870, "nodes": [3011367596, 3011367597, 3011367598, 3011367599, 3011367600, 3011367742, 3011392958, 3011367601, 3011367602, 3011367603, 3011367604, 3011367605, 3011367606, 3011367607, 3011367608, 3011367609, 3011367610, 3011367611, 3011367612, 3011367613, 3011367614, 3011367615, 3011367616, 3011392896, 3011367617, 3011367618, 3011367619, 3011367620, 3011367621, 3011367622, 3011367623, 3011367624, 3011367625, 3011367626, 3011367627, 3011367628, 3011367629, 3011367630, 3011367631, 3011367596], "tags": {"addr:city": "Rio de Janeiro", "addr:housenumber": "764", "addr:street": "Avenida Niemeyer", "addr:suburb": "S\u00e3o Conrado", "artist_name": "Oscar Niemeyer", "artwork_type": "architecture", "building": "yes", "building:material": "glass", "level": "1", "name": "Gran Meli\u00e1 Nacional Rio de Janeiro", "official_name": "Hotel Gran Meli\u00e1 Nacional", "operator": "Grupo Meli\u00e1", "rooms": "413", "tourism": "hotel", "wikidata": "Q10298619", "wikipedia": "pt:Hotel Nacional"}}, {"type": "way", "id": 297278871, "nodes": [3011367734, 3011367735, 3011367736, 3011367737, 3011367734], "tags": {"addr:city": "Rio de Janeiro", "addr:housenumber": "75", "addr:postcode": "22610-010", "addr:street": "Avenida Aquarela do Brasil", "addr:suburb": "S\u00e3o Conrado", "building": "yes", "name": "Hotel Royal Tulip", "old_name": "Hotel Intercontinental", "phone": "+55 21 3325 2300", "tourism": "hotel", "website": "www.royaltulipriodejaneiro.com"}}, {"type": "way", "id": 297367213, "nodes": [3012413400, 3012413401, 3012413402, 3012413403, 3012413400], "tags": {"addr:city": "Rio de Janeiro", "addr:housenumber": "460", "addr:postcode": "22420-006", "addr:street": "Avenida Vieira Souto", "addr:suburb": "Ipanema", "building": "hotel", "building:levels": "24", "email": "h8941-re@sofitel.com", "name": "Hotel Caesar Park", "operator": "Sofitel", "phone": "+55 21 2525 2525", "tourism": "hotel", "website": "https://www.accorhotels.com/pt/hotel-8941-caesar-park-rio-de-janeiro-ipanema-managed-by-sofitel/index.shtml", "wheelchair": "yes", "wheelchair:description": "2 rooms"}}, {"type": "way", "id": 303362855, "nodes": [3077165962, 3077165960, 3077165975, 3077165976, 3077165962], "tags": {"addr:city": "Rio de Janeiro", "addr:housenumber": "500", "addr:postcode": "22780-160", "addr:street": "Avenida Salvador Allende", "building": "hotel", "internet_access": "wlan", "internet_access:fee": "no", "name": "Quality Rio Olympic Park", "operator": "Atlantica Hotels", "phone": "+55 21 34439999", "smoking": "separated", "tourism": "hotel", "website": "https://www.atlanticahotels.com.br/hotel/rio-de-janeiro/quality-rio-olympic-park"}}, {"type": "way", "id": 322770915, "nodes": [3295557708, 3295557709, 3295557710, 3295557711, 3295557708], "tags": {"addr:city": "Rio de Janeiro", "addr:housenumber": "995", "addr:postcode": "22060-000", "addr:street": "Avenida Nossa Senhora de Copacabana", "addr:suburb": "Copacabana", "building": "yes", "name": "Savoy Othon Travel", "source": "survey", "tourism": "hotel"}}, {"type": "way", "id": 324585922, "nodes": [3312991684, 3312991685, 3312991686, 3312991687, 3312991688, 3312991689, 3312991690, 3312991691, 3312991692, 3312991693, 3312991684], "tags": {"addr:city": "Rio de Janeiro", "addr:housenumber": "18000", "addr:postcode": "22795-030", "addr:street": "Avenida L\u00facio Costa", "addr:suburb": "Recreio dos Bandeirantes", "building": "yes", "email": "reservas@atlanticosulhotel.com.br", "name": "Atl\u00e2ntico Sul Hotel", "phone": "+55 21 3418 9100", "tourism": "hotel", "website": "https://www.atlanticosulhotel.com.br/"}}, {"type": "way", "id": 325797564, "nodes": [3738891797, 3324052287, 3324052279, 3324052280, 3324052281, 3738891797], "tags": {"addr:city": "Rio de Janeiro", "addr:housenumber": "696", "addr:postcode": "22441-012", "addr:street": "Avenida Delfim Moreira", "addr:suburb": "Leblon", "building": "yes", "name": "Marina All Suites", "operator": "Hot\u00e9is Marina", "phone": "+55 21 2172 1100", "tourism": "hotel", "website": "https://www.marinaallsuites.com.br/allsuites/portugues/index.asp", "wikidata": "Q6763779", "wikipedia": "en:Marina All Suites Hotel"}}, {"type": "way", "id": 325804413, "nodes": [3324138299, 3324138300, 3324138301, 3324138302, 3324138303, 3324138299], "tags": {"addr:city": "Rio de Janeiro", "addr:housenumber": "80", "addr:postcode": "22420-000", "addr:street": "Avenida Vieira Souto", "addr:suburb": "Ipanema", "building": "yes", "email": "rio@fasano.com.br", "name": "Fasano", "operator": "Grupo Fasano", "phone": "+55 21 3202 4000", "smoking": "no", "tourism": "hotel", "website": "https://www.fasano.com.br/hotelaria/hotel/2"}}, {"type": "way", "id": 325932239, "nodes": [3325547656, 4291258691, 3325547657, 3325547658, 3325547659, 4291258663, 3325547656], "tags": {"addr:city": "Rio de Janeiro", "addr:housenumber": "121", "addr:postcode": "22450-220", "addr:street": "Avenida Niemeyer", "addr:suburb": "Leblon", "building": "yes", "name": "Sheraton Rio Hotel & Resort", "operator": "Starwood Hotels", "phone": "+55 21 2529 1122", "tourism": "hotel", "website": "http://www.sheraton-rio.com.br/", "wikidata": "Q7494696", "wikipedia": "en:Sheraton Grand Rio Hotel & Resort"}}, {"type": "way", "id": 357286152, "nodes": [3626025987, 3626025988, 3626025989, 3626025990, 3626025987], "tags": {"addr:city": "Rio de Janeiro", "addr:housenumber": "3264", "addr:postcode": "22070-001", "addr:street": "Avenida Atl\u00e2ntica", "addr:suburb": "Copacabana", "building": "hotel", "name": "Rio Othon Palace", "phone": "+55 21 2106-1500", "tourism": "hotel", "website": "https://www.othon.com.br/en/hoteis/hotel-em-copacabana/rio-othon-palace", "wikidata": "Q7335297", "wikimedia_commons": "Category:Rio Othon Palace", "wikipedia": "en:Rio Othon Palace"}}, {"type": "way", "id": 369994575, "nodes": [3737267968, 9665707715, 9665678094, 3737267971, 9665707708, 9674168652, 9665739062, 9665764531, 9665739057, 3889503222, 3737267978, 9665739060, 9665739059, 3870144469, 9665655414, 3870144470, 9665646803, 3870144471, 9665678085, 3874302663, 12084053622, 12084053677, 3870144472, 9664383525, 9621586068, 9621586070, 8078282169, 9621586071, 9665773548, 9664383526, 9621640726, 9621640722, 9665737420, 12086328139, 12086328140, 12086328141, 3737267968], "tags": {"addr:city": "Rio de Janeiro", "addr:street": "Avenida Almirante Silvio de Noronha", "addr:suburb": "Centro", "building": "yes", "building:levels": "2", "name": "Bossa Nova Mall", "operator": "Saphyr", "shop": "mall", "tourism": "hotel", "website": "https://www.saphyr.com.br/"}}, {"type": "way", "id": 378126258, "nodes": [3815433712, 3815433718, 12085381314, 12085381313, 12085381312, 3815433715, 3815433704, 12085381309, 12085381310, 12085381311, 3815433712], "tags": {"addr:city": "Rio de Janeiro", "addr:housenumber": "5001", "addr:postcode": "22775-040", "addr:street": "Avenida Embaixador Abelardo Bueno, 5001", "addr:suburb": "Barra da Tijuca", "building": "yes", "internet_access": "yes", "name": "Courtyard & Residence Inn by Marriott", "name:en": "Courtyard & Residence Inn by Marriott", "operator": "Marriott International", "phone": "+55 21 4560-2700", "rooms": "264", "short_name": "Marriott", "source": "http://www.marriott.com.br/hotels/travel/riocy-courtyard-rio-de-janeiro-barra-da-tijuca/", "tourism": "hotel"}}, {"type": "way", "id": 378126260, "nodes": [3815434066, 12089659145, 12089659154, 12088000185, 11606804654, 12088000183, 12088000184, 12088000182, 4236714559, 12097555816, 12088000186, 12088000180, 12097555825, 12088000181, 3815434076, 12088000187, 11606804663, 3815434083, 3815434081, 12097555864, 4240886494, 3815434074, 11606804662, 3815434069, 12088000177, 12088000178, 12089658534, 12089659144, 12088000179, 3815434066]}, {"type": "way", "id": 379523233, "nodes": [3828303325, 12136501117, 12136501118, 12136501115, 12136501119, 12136501120, 12136501121, 12136501122, 12136501123, 12136501124, 12136501125, 12136501126, 12136501127, 12136501128, 3828303347, 12136501129, 12136501130, 3828303349, 3828303345, 12136501131, 12136501132, 12136501133, 3828303344, 12136501134, 12136501135, 12136501136, 3828303327, 12136501116, 3828303325], "tags": {"addr:city": "Rio de Janeiro", "addr:housenumber": "1511", "addr:postcode": "22775-039", "addr:street": "Avenida Embaixador Abelardo Bueno", "addr:suburb": "Barra da Tijuca", "brand": "Ibis", "brand:wikidata": "Q920166", "brand:wikipedia": "en:Ibis (hotel)", "building": "hotel", "email": "h8176-re@accor.com", "internet_access": "wlan", "name": "Ibis Rio de Janeiro Parque Olimpico", "operator": "Accor", "phone": "+55 21 3721 7701", "tourism": "hotel", "website": "https://all.accor.com/hotel/8176/index.en.shtml"}}, {"type": "way", "id": 379523235, "nodes": [3828303326, 12136501095, 12136501098, 12136501097, 12136501096, 3828303333, 3828303334, 3828303337, 3828303336, 12136501100, 12136501102, 12136501101, 12136501099, 3828303340, 12136501103, 12136501104, 3828303341, 12136501105, 12136501106, 12136501107, 12136501108, 12136501109, 12136501110, 12136501111, 3828303328, 12136501112, 12136501113, 12136501114, 3828303326], "tags": {"brand": "Novotel", "brand:wikidata": "Q420545", "brand:wikipedia": "en:Novotel", "building": "hotel", "name": "Novotel", "operator": "Accor", "tourism": "hotel"}}, {"type": "way", "id": 424211117, "nodes": [4236714562, 4240886500, 4236714563, 11606804649, 11606804648, 11606804647, 11606804646, 11606804645, 11606804644, 11606804643, 8887999469, 4236714560, 11606804641, 4236714555, 3798056415, 4236714557, 4236714553, 11606804639, 11606804640, 4236714554, 12089659160, 12089659175, 12089659156, 11606804651, 11606804653, 11606804652, 11606804654, 12088000182, 4236714559, 11606804660, 11606804659, 12097555843, 4236714562], "tags": {"tourism": "hotel"}}, {"type": "way", "id": 424699680, "nodes": [4240884997, 4240884995, 4240885006, 4240885038, 4240884997], "tags": {"tourism": "hotel"}}, {"type": "way", "id": 426923809, "nodes": [4261777778, 4267629082, 4261778098, 4261778097, 4261777777, 4261777778], "tags": {"building": "hotel", "name": "Encore", "operator": "Ramada", "tourism": "hotel"}}, {"type": "way", "id": 427205751, "nodes": [4264487086, 4264487087, 4264487088, 4264487289, 4264487086], "tags": {"addr:city": "Rio de Janeiro", "addr:housenumber": "2710", "addr:postcode": "22775-040", "addr:street": "Avenida Embaixador Abelardo Bueno", "building": "yes", "name": "Venit Mio Barra Hotel", "phone": "+55 21 3993 9000", "tourism": "hotel"}}, {"type": "way", "id": 427268509, "nodes": [4265007208, 4265007212, 4265007214, 4265007206, 4265007205, 4265007207, 4265007208], "tags": {"building": "yes", "name": "Pousada Lonier", "tourism": "hotel"}}, {"type": "way", "id": 428167427, "nodes": [4273016630, 4273016629, 4273016626, 4273016618, 4273016612, 4273016594, 4273016590, 4273014985, 4273014976, 4273014975, 4273014981, 4273016592, 4273016595, 4273016598, 4273016601, 4273016606, 4273016630], "tags": {"landuse": "recreation_ground", "leisure": "recreation_ground", "name": "Fazenda Marambaia - PMRJ", "tourism": "hotel"}}, {"type": "way", "id": 429948296, "nodes": [4291499387, 4291499435, 4291499449, 4291499802, 4291499797, 4291499939, 4291499923, 4291499813, 4291499808, 4291498734, 4291498738, 4291499375, 4291499387], "tags": {"building": "yes", "ele": "9.63999", "height": "42.93999", "name": "Mar Ipanema Hotel", "tourism": "hotel"}}, {"type": "way", "id": 429950067, "nodes": [4291511438, 4291511454, 4291512302, 4291511985, 4291511745, 4291511431, 4291511438], "tags": {"addr:city": "Rio de Janeiro", "addr:housenumber": "19", "addr:postcode": "22420-040", "addr:street": "Rua Maria Quit\u00e9ria", "addr:suburb": "Ipanema", "building": "yes", "building:levels": "7", "building_1": "hotel", "ele": "8.37", "height": "26.96999", "name": "Everest Park Hotel", "phone": "+55 21 25252200", "tourism": "hotel", "website": "www.everest.com.br"}}, {"type": "way", "id": 429950595, "nodes": [4291508446, 4291508461, 4291510208, 4291510197, 4291509786, 4291507442, 4291507428, 4291508420, 4291508446], "tags": {"addr:city": "Rio de Janeiro", "addr:housenumber": "27", "addr:postcode": "22410-040", "addr:street": "Rua Maria Quit\u00e9ria", "addr:suburb": "Ipanema", "building": "yes", "contact:whatsapp": "+55 21 967460778", "ele": "8.37", "height": "31.72", "name": "Ipanema Inn", "phone": "+55 21 2529-1000", "tourism": "hotel", "website": "https://www.ipanemainn.com.br/"}}, {"type": "way", "id": 430257408, "nodes": [4295306412, 4295306598, 4295306604, 4295306643, 4295306649, 4295306992, 4295307081, 4295307076, 4295307544, 4295307512, 4295307052, 4295307051, 4295306610, 4295306616, 4295306439, 4295306437, 4295305858, 4295305863, 4295306406, 4295306412], "tags": {"addr:city": "Rio de Janeiro", "addr:housenumber": "66", "addr:street": "Rua Visconde de Piraj\u00e1", "addr:suburb": "Ipanema", "building": "yes", "ele": "10.37", "height": "40.8", "name": "Rio Ipanema Hotel Resid\u00eancia", "tourism": "hotel"}}, {"type": "way", "id": 430893892, "nodes": [4301555205, 4301555208, 4301555207, 4301555206, 4301555205], "tags": {"name": "Promenade Apart Hotel", "tourism": "hotel"}}, {"type": "way", "id": 432963769, "nodes": [4318893228, 4318893180, 4318893637, 4318894009, 4318893432, 4318893461, 4318894314, 4318894377, 4318894630, 4318895100, 4318895108, 12480783975, 4318895118, 4318894348, 4318894014, 4318893773, 4318885523, 4318893215, 12480783976, 4318893084, 4318893228], "tags": {"addr:city": "Rio de Janeiro", "addr:housenumber": "124", "addr:postcode": "20230-014", "addr:street": "Rua Riachuelo", "addr:suburb": "Lapa", "building": "yes", "ele": "8.37", "height": "9.28", "name": "Vila Gal\u00e9", "phone": "+55 21 2460-4500", "stars": "4", "tourism": "hotel", "website": "https://www.vilagale.com/pt/hoteis/rio-de-janeiro/vila-gale-rio-de-janeiro"}}, {"type": "way", "id": 432965137, "nodes": [4318907354, 4318907365, 4318907370, 4318907489, 5084801877, 4318907514, 4318907508, 4318907516, 4318907511, 4318907502, 4318907500, 4318907367, 4318907350, 4318907354], "tags": {"addr:city": "Rio de Janeiro", "addr:housenumber": "242", "addr:postcode": "20230-015", "addr:street": "Rua Riachuelo", "addr:suburb": "Centro", "building": "yes", "ele": "10.54", "height": "8.8", "name": "Rede Andrade Lapa Hotel", "top_ele": "19.34", "tourism": "hotel", "website": "https://redeandradelapa.com.br/"}}, {"type": "way", "id": 432965593, "nodes": [4318904465, 4318904856, 4318904865, 4318904882, 4318904485, 4318904474, 4318904458, 4318904476, 4318904465], "tags": {"addr:city": "Rio de Janeiro", "addr:housenumber": "242", "addr:postcode": "20231-006", "addr:street": "Rua do Senado", "addr:suburb": "Centro", "building": "yes", "ele": "9.4", "height": "12.36999", "name": "Paraguai Hotel", "top_ele": "21.76999", "tourism": "hotel"}}, {"type": "way", "id": 432969361, "nodes": [4318951740, 4318951737, 4318952026, 4318952054, 4318952052, 4318952050, 4318952049, 4318952047, 4318952046, 3817919971, 4318951742, 4318951740], "tags": {"addr:city": "Rio de Janeiro", "addr:housenumber": "13", "addr:postcode": "20230-080", "addr:street": "Rua Francisco Muratori", "addr:suburb": "Santa Teresa", "brand": "3", "building": "yes", "ele": "12.86", "height": "9.76", "name": "La Costa", "phone": "+55 21 3233-1524", "top_ele": "22.62", "tourism": "hotel"}}, {"type": "way", "id": 442826149, "nodes": [4404772278, 4404772279, 4404772281, 4404772280, 4404772278], "tags": {"addr:city": "Rio de Janeiro", "addr:housename": "Villa Leonor", "addr:housenumber": "681", "addr:place": "Santa Teresa", "addr:street": "Rua Costa Bastos", "building": "yes", "name": "Villa Leonor", "source": "Bing", "tourism": "hotel", "website": "https://www.villaleonor.com/"}}, {"type": "way", "id": 450624595, "nodes": [4475430786, 4515712916, 4475430889, 4475430890, 4475430891, 12095966987, 12095966986, 12095966985, 12095966984, 12095966983, 4475430781, 4475430788, 4475430787, 4475430786], "tags": {"addr:city": "Rio de Janeiro", "addr:housenumber": "19021", "addr:postcode": "22790-703", "addr:street": "Avenida das Am\u00e9ricas", "addr:suburb": "Recreio dos Bandeirantes", "alt_name": "Ramada Recreio Shopping", "building": "yes", "internet_access": "wlan", "internet_access:fee": "no", "name": "Hotel Ramada", "operator": "Ramada", "phone": "+55 21 3609 3400", "rooms": "192", "tourism": "hotel", "website": "https://www.ramadabrasil.com.br/hoteis/ramada-hotel-e-suites/ramada-hotel-recreio-shopping"}}, {"type": "way", "id": 473167373, "nodes": [4673359747, 4673359748, 5627428354, 5627428355, 4673359747], "tags": {"addr:city": "Rio de Janeiro", "addr:street": "Rua Xavier da Silveira", "addr:suburb": "Copacabana", "building": "yes", "internet_access": "yes", "name": "Hotel Atl\u00e2ntico Rio", "stars": "4", "tourism": "hotel"}}, {"type": "way", "id": 473599579, "nodes": [4676774892, 9583493345, 9583493347, 9583493346, 9583493344, 4676774893, 529749022, 12488710244, 4676774891, 4676774892]}, {"type": "way", "id": 476115618, "nodes": [4697641312, 4697641313, 4697641314, 4697641315, 4697641312], "tags": {"building": "yes", "name": "LSH", "toilets:wheelchair": "yes", "tourism": "hotel", "wheelchair": "yes", "wikidata": "Q38251164", "wikipedia": "en:LSH Hotel"}}, {"type": "way", "id": 481861137, "nodes": [4747591311, 4747591313, 4747591314, 4747591315, 4747591311], "tags": {"building": "yes", "tourism": "hotel"}}, {"type": "way", "id": 488125126, "nodes": [4804773430, 4804773431, 4804773432, 4804773433, 4804773434, 4804773435, 4804773430], "tags": {"building": "yes", "name": "Pousada Casa del Angel", "tourism": "hotel"}}, {"type": "way", "id": 488127254, "nodes": [4804786866, 4804786867, 4804786870, 4804786868, 4804786869, 4804786866], "tags": {"building": "yes", "tourism": "hotel"}}, {"type": "way", "id": 488127255, "nodes": [4804786870, 4804786871, 4804786872, 4804786868, 4804786870], "tags": {"building": "yes", "tourism": "hotel"}}, {"type": "way", "id": 528916269, "nodes": [5138816363, 5138816364, 5138816365, 5138816366, 5138816363], "tags": {"building": "yes", "tourism": "hotel"}}, {"type": "way", "id": 560996733, "nodes": [5409776907, 5409776908, 5409776909, 5409776910, 5409776907], "tags": {"building": "yes", "tourism": "hotel"}}, {"type": "way", "id": 615196998, "nodes": [5817690207, 5817690208, 5817690209, 5817690210, 5817690211, 5817690212, 5817690207], "tags": {"addr:city": "Rio de Janeiro", "addr:housenumber": "5210", "addr:postcode": "22630012", "addr:street": "Av Lucio Costa", "addr:suburb": "Barra Da Tijuca", "brand": "Novotel", "building": "yes", "name": "Novotel Rio de Janeiro Barra da Tijuca Hotel", "tourism": "hotel"}}, {"type": "way", "id": 624273829, "nodes": [5895049732, 5895049742, 5895049727, 5897282742, 5895049730, 5895049732], "tags": {"addr:city": "Rio de Janeiro", "addr:housenumber": "131", "addr:street": "Rua Francisco Otaviano", "addr:suburb": "Ipanema", "building": "yes", "building:levels": "10", "internet_access": "yes", "name": "Arena Ipanema Hotel", "tourism": "hotel", "website": "https://www.arenahotel.com.br/"}}, {"type": "way", "id": 629143447, "nodes": [5940022673, 5940022672, 5940023013, 5940022713, 5940022712, 5940022512, 5940023276, 5940023314, 5940022511, 5940022510, 5940016202, 5940022673], "tags": {"addr:city": "Rio de Janeiro", "addr:housenumber": "600", "addr:street": "Rua Campo Grande", "addr:suburb": "Campo Grande", "building": "hotel", "building:levels": "4", "ele": "39.99", "height": "14.96", "name": "Hotelon", "phone": "+55-21-24139457", "top_ele": "54.95", "tourism": "hotel", "website": "http://hotelon.com.br/site/"}}, {"type": "way", "id": 632251684, "nodes": [5969782182, 5969782183, 5969782184, 5969783785, 5969782182], "tags": {"brand": "Ibis", "brand:wikidata": "Q920166", "building": "yes", "name": "Hotel Ibis Nova Am\u00e9rica", "tourism": "hotel"}}, {"type": "way", "id": 656964310, "nodes": [6153496859, 6153496860, 6153496861, 6153496862, 6153496863, 6153496864, 6153496859], "tags": {"building": "yes", "level": "3", "tourism": "hotel"}}, {"type": "way", "id": 656964311, "nodes": [6153496865, 6153496866, 6153496867, 6153496868, 6153498862, 6153496865], "tags": {"building": "yes", "level": "3", "tourism": "hotel"}}, {"type": "way", "id": 666570261, "nodes": [6240874212, 6240874211, 6240874210, 6240874209, 11874130371, 11874120119, 11874130375, 7618727608, 6240874207, 6240874203, 6240874206, 2005491204, 6240874204, 6240874205, 6240874212], "tags": {"brand": "Hilton", "brand:wikidata": "Q598884", "name": "Hilton", "stars": "5", "tourism": "hotel"}}, {"type": "way", "id": 681492061, "nodes": [6382018546, 6382018547, 6382018548, 6382018549, 6382018546], "tags": {"building": "yes", "tourism": "hotel"}}, {"type": "way", "id": 779042795, "nodes": [7273850938, 7273850939, 7273850940, 7273850941, 7273850942, 7273850938], "tags": {"addr:city": "Rio de Janeiro", "addr:housenumber": "600", "addr:postcode": "22631-470", "addr:street": "Avenida Evandro Lins e Silva", "addr:suburb": "Barra de Tijuca", "brand": "Radisson", "building": "yes", "email": "rhi_babr@radisson.com", "name": "Radisson Hotel Barra Rio de Janeiro", "phone": "+55-21-35129501", "tourism": "hotel", "website": "https://www.radissonhotels.com/en-us/hotels/radisson-barra-de-tijuca"}}, {"type": "way", "id": 871096278, "nodes": [8114245580, 8114245581, 8114245582, 8114245583, 8114245584, 8114245585, 8114245580], "tags": {"addr:city": "Rio de Janeiro", "addr:housenumber": "39", "addr:postcode": "20240-193", "addr:street": "Rua Paschoal Carlos Magno", "building": "yes", "name": "MODERNISTAS, HOSPEDAGEM E ARTE E ANEXO GALERIA DE ARTE", "phone": "+552138528265", "tourism": "hotel"}}, {"type": "way", "id": 980250584, "nodes": [1925250695, 6904400528, 9067986471, 9067986479, 9067986472, 1925250695], "tags": {"building": "yes", "name": "Hotel Central", "tourism": "hotel"}}, {"type": "way", "id": 991725295, "nodes": [9162860325, 9162860324, 9162860323, 9162860322, 9162860321, 9162860320, 2578087407, 9162860319, 9162860318, 9162860102, 9162860169, 9162859804, 9162860174, 9162859808, 9162860173, 9162860172, 9162860171, 9162860170, 9162860325], "tags": {"IPP:CodEdificio": "1577205", "addr:city": "Rio de Janeiro", "addr:housenumber": "305", "addr:postcode": "22271-110", "addr:street": "Rua Sorocaba", "brand": "Mercure", "brand:wikidata": "Q1709809", "building": "yes", "ele": "7.82", "height": "3.78", "name": "Mercure Hotel", "phone": "+55-21-22669200", "stars": "5", "tourism": "hotel", "website": "http://www.mercure.com/pt/hotel-5629-mercure-rio-de-janeiro-botafogo-hotel/index.shtml"}}, {"type": "way", "id": 997262013, "nodes": [9208464086, 9208464085, 9208464084, 9208464083, 9208464082, 9208467029, 9208468406, 9208468407, 9208468408, 9208468411, 9208468412, 9208468413, 9208468414, 9208468415, 9208464081, 9208464080, 9208464079, 9208464078, 9208464077, 9208464076, 9208464086], "tags": {"IPP:CodEdificio": "1575691", "addr:city": "Rio de Janeiro", "addr:housenumber": "122", "addr:street": "Rua Real Grandeza", "addr:suburb": "Botafogo", "building": "yes", "ele": "4.57", "height": "25.94", "name": "Real Hotel", "source": "data.rio", "tourism": "hotel"}}, {"type": "way", "id": 997751143, "nodes": [9212585012, 9212585010, 4476096289, 9212585011, 9212585012], "tags": {"addr:city": "Rio de Janeiro", "addr:housenumber": "330", "addr:postcode": "22250-040", "addr:street": "Praia de Botafogo", "addr:suburb": "Botafogo", "brand": "Novotel", "brand:wikidata": "Q420545", "brand:wikipedia": "en:Novotel", "building": "hotel", "name": "Novotel", "phone": "+55 21 2187 9999", "tourism": "hotel", "website": "https://all.accor.com/hotel/9631/index.pt.shtml"}}, {"type": "way", "id": 997751144, "nodes": [4259600399, 9212585013, 9212585014, 9212585015, 4259600399], "tags": {"addr:city": "Rio de Janeiro", "addr:housenumber": "24", "addr:postcode": "22250-200", "addr:street": "Pra\u00e7a Joia Valansi", "addr:suburb": "Botafogo", "brand": "Ibis Budget", "brand:wikidata": "Q1458135", "brand:wikipedia": "en:Ibis Budget", "building": "hotel", "name": "Ibis Budget Hotel", "phone": "+55 21 2187 9999", "tourism": "hotel", "website": "https://all.accor.com/hotel/9600/index.pt.shtml"}}, {"type": "way", "id": 997751166, "nodes": [512856865, 9212588959, 9212588960, 9212586364, 9212586363, 9212586362, 9212586361, 9212586360, 9212586359, 9212586358, 9212586357, 9212586356, 9212586779, 9212586780, 9212586781, 9212588094, 9212588095, 9212586355, 9212588099, 9212588100, 512856865], "tags": {"IPP:CodEdificio": "1570305", "addr:city": "Rio de Janeiro", "addr:housenumber": "65", "addr:street": "Rua Bambina", "addr:suburb": "Botafogo", "amenity": "love_hotel", "building": "yes", "ele": "2.33", "height": "5.14", "name": "Hotel Bambina", "phone": "+55 21 2539-0713", "source": "data.rio", "tourism": "hotel", "type": "love_hotel", "url": "http://www.bambinahotel.com.br/"}}, {"type": "way", "id": 998441298, "nodes": [9218892334, 9218892333, 9218892332, 9218892331, 9218892330, 9218892329, 9218892328, 9218892327, 9218892326, 9218892325, 9218892324, 9218893246, 9218893228, 9218892323, 9218892322, 9218892321, 4115282589, 9218892319, 9218892318, 9218892317, 9218892316, 9218892334], "tags": {"IPP:CodEdificio": "1570463", "addr:city": "Rio de Janeiro", "addr:housenumber": "1;5;7", "addr:street": "Rua Jornalista Orlando Dantas", "addr:suburb": "Botafogo", "building": "yes", "ele": "3.19", "height": "5.71", "internet_access": "wlan", "name": "Hostel Cafofo", "source": "data.rio", "tourism": "hotel"}}, {"type": "way", "id": 998441593, "nodes": [9218893765, 9218893764, 9218893763, 9218893762, 9218893761, 9218893760, 9218893759, 9218893758, 9218893757, 9218893756, 3838015108, 9218893755, 9218893765], "tags": {"IPP:CodEdificio": "1570145", "addr:city": "Rio de Janeiro", "addr:housenumber": "242", "addr:street": "Praia de Botafogo", "addr:suburb": "Botafogo", "building": "yes", "ele": "6.05", "height": "38.91", "name": "Hotel Yoo2 Rio de Janeiro", "operator": "Intercity Hotels", "source": "data.rio", "tourism": "hotel"}}, {"type": "way", "id": 1000399059, "nodes": [416166041, 9234245436, 9234245435, 9234245666, 9234245667, 9234248631, 9234248632, 9234245434, 9234245433, 9234245432, 9234245431, 9234245430, 9234244095, 9234244096, 9234245415, 416166041], "tags": {"IPP:CodLote": "287D00919", "IPP:CodNP": "676804", "IPP:CodQuadra": "287D022542", "IPP:CodTrecho": "301996", "addr:city": "Rio de Janeiro", "addr:country": "BR", "addr:housenumber": "39", "addr:postcode": "22290-030", "addr:street": "Rua da Passagem", "addr:suburb": "Botafogo", "brand": "Mercure", "brand:wikidata": "Q1709809", "brand:wikipedia": "en:Mercure (hotel)", "name": "Mercure Botafogo Mourisco", "tourism": "hotel", "url": "https://all.accor.com/hotel/8940/index.pt-br.shtml"}}, {"type": "way", "id": 1028772981, "nodes": [2758085006, 2758085007, 9484622347, 9484622370, 4892939849, 9484622352, 9484622353, 4892939848, 9484622369, 12453387791, 9484622348, 9484622351, 9484622350, 9484622349, 2758085006], "tags": {"addr:city": "Rio de Janeiro", "addr:housenumber": "300", "addr:postcode": "20020-080", "addr:street": "Avenida Marechal C\u00e2mara", "addr:suburb": "Centro", "brand": "Novotel", "brand:wikidata": "Q420545", "brand:wikipedia": "en:Novotel", "building": "yes", "internet_access": "wlan", "name": "Novotel Santos Dumont", "phone": "+55 21 3506-8500", "stars": "4", "tourism": "hotel", "website": "http://www.novotel.com/pt-br/hotel-6522-novotel-rj-santos-dumont-/index.shtml"}}, {"type": "way", "id": 1041988845, "nodes": [2170215571, 9592360126, 9592360127, 9592360128, 2170215642, 9592360125, 9592360124, 2170215571], "tags": {"building": "yes", "tourism": "hotel"}}, {"type": "way", "id": 1041988846, "nodes": [9592360129, 9592360128, 9592360127, 9592360130, 9592360142, 9592360139, 9592360138, 9592360131, 9592360129], "tags": {"building": "yes", "tourism": "hotel"}}, {"type": "way", "id": 1041988847, "nodes": [9592360130, 9592360132, 9592360133, 9592360134, 9592360135, 9592360136, 9592360137, 9592360138, 9592360139, 9592360140, 9592360141, 9592360142, 9592360130], "tags": {"building": "yes", "tourism": "hotel"}}, {"type": "way", "id": 1041988848, "nodes": [9592360132, 9592360143, 9592360144, 9592360145, 9592360146, 9592360147, 9592360148, 9592360137, 9592360136, 9592360133, 9592360132], "tags": {"building": "yes", "tourism": "hotel"}}, {"type": "way", "id": 1041988849, "nodes": [9592360149, 9592360150, 9592360151, 9592360152, 9592360153, 9592360154, 9592360155, 9592360156, 9592360157, 9592360158, 9592360159, 9592360149], "tags": {"building": "yes", "tourism": "hotel"}}, {"type": "way", "id": 1041988850, "nodes": [9592360160, 9592360153, 9592360154, 9592360161, 9592360162, 9592360163, 9592360164, 9592360160], "tags": {"building": "yes", "tourism": "hotel"}}, {"type": "way", "id": 1041988851, "nodes": [9592360148, 9592360165, 9592360166, 9592360167, 9592360168, 9592360169, 9592360170, 9592360143, 9592360144, 9592360171, 9592360172, 9592360147, 9592360148], "tags": {"building": "yes", "tourism": "hotel"}}, {"type": "way", "id": 1041988852, "nodes": [9592360165, 9592360173, 9592360174, 9592360175, 9592360176, 9592360177, 9592360178, 9592360170, 9592360169, 9592360179, 9592360180, 9592360166, 9592360165], "tags": {"building": "yes", "tourism": "hotel"}}, {"type": "way", "id": 1041988853, "nodes": [9592360173, 9592360181, 9592360164, 9592360160, 9592360178, 9592360177, 9592360182, 9592360183, 9592360174, 9592360173], "tags": {"building": "yes", "tourism": "hotel"}}, {"type": "way", "id": 1041988854, "nodes": [9592360184, 9592360185, 9592360186, 9592361350, 9592360187, 9592360188, 9592360189, 9592360184], "tags": {"building": "yes", "tourism": "hotel"}}, {"type": "way", "id": 1041988855, "nodes": [9592360190, 9592360191, 9592360192, 9592360201, 9592360193, 9592360190], "tags": {"building": "yes", "tourism": "hotel"}}, {"type": "way", "id": 1041988856, "nodes": [9592360192, 9592360194, 9592361334, 9592360195, 9592360196, 9592360197, 9592360198, 9592360199, 9592360200, 9592360201, 9592360192], "tags": {"building": "yes", "tourism": "hotel"}}, {"type": "way", "id": 1046333322, "nodes": [9622355147, 9622355148, 9622355149, 9622355150, 9622355151, 9622355152, 9622355153, 9622355154, 9622355147], "tags": {"building": "yes", "name": "Hotel Scorial", "tourism": "hotel"}}, {"type": "way", "id": 1046531926, "nodes": [9624007751, 11866051948, 9624007771, 9624007752, 9624007753, 9624007769, 2968333620, 2968333619, 9624007754, 9624007762, 9624007755, 9624007756, 9624007751], "tags": {"building": "yes", "tourism": "hotel"}}, {"type": "way", "id": 1051817393, "nodes": [9665678079, 9665678080, 9665678081, 9665678087, 9666816409, 9666816403, 9666816400, 9666816405, 9665678086, 9665739061, 9665678084, 9665678083, 9674168656, 9621640726, 9621640722, 9665737420, 12086328139, 12086328140, 12086328141, 3737267968, 9665707715, 9665678094, 3737267971, 9665707708, 9674168652, 9665764528, 9665739062, 9666816408, 9665678079], "tags": {"building": "yes", "building:levels": "3", "layer": "1", "name": "Prodigy Santos Dumont", "tourism": "hotel"}}, {"type": "way", "id": 1052309769, "nodes": [9670863837, 9670863838, 9670863839, 9670863840, 10865093896, 9670863837], "tags": {"name": "Hotel Crist\u00f3v\u00e3o", "tourism": "hotel"}}, {"type": "way", "id": 1053486069, "nodes": [9681502363, 9681502364, 9681502365, 8994766330, 9681502363], "tags": {"building": "yes", "tourism": "hotel"}}, {"type": "way", "id": 1068090501, "nodes": [9805392692, 9805392693, 12394913348, 12394913347, 9805392694, 12394913346, 12394913345, 9805392695, 9805392692]}, {"type": "way", "id": 1136720206, "nodes": [10596365143, 10596365144, 10596365145, 10596365146, 10596365147, 10596365143], "tags": {"addr:housenumber": "8", "addr:street": "Rua Armando de Almeida Lima", "addr:suburb": "Vidigal", "building": "yes", "name": "Mirante do Arvr\u00e3o", "phone": "+55 21 99596 0338", "tourism": "hotel", "website": "https://mirantedoarvrao.com.br/wp/"}}, {"type": "way", "id": 1179844880, "nodes": [10958209428, 10958209429, 10958209430, 10958209431, 10958209433, 10958209432, 10958209428], "tags": {"building": "yes", "internet_access": "wlan", "name": "Nobile Inn Rio de Janeiro Dutra", "tourism": "hotel"}}, {"type": "way", "id": 1228858980, "nodes": [11396192858, 11396173536, 11396192809, 11396173494, 11396192789, 11396192888, 11396192858], "tags": {"building:part": "yes", "ele": "8.37", "height": "32.21"}}, {"type": "way", "id": 1228858985, "nodes": [11396173516, 11396192864, 11396173568, 11396173487, 11396173511, 4517299604, 4517299609, 11396192900, 11396173492, 11396192787, 11396192886, 11396173563, 11396192813, 11396173516]}, {"type": "way", "id": 1248710078, "nodes": [12088000188, 11606804664, 12089658535, 11606804665, 12088000189, 12089658536, 12088000188]}, {"type": "way", "id": 1332662431, "nodes": [12329112001, 12329112002, 12329112003, 12329112004, 12329112005, 12329112006, 12329112007, 12329112008, 12329112009, 12329112010, 12329112011, 12329112012, 12329112013, 12329112014, 12329112015, 12329112016, 12329112017, 12329112018, 12329112019, 12329112020, 12329112021, 12329112022, 12329112023, 12329112024, 12329112025, 12329112026, 12329112027, 12329112028, 12329112029, 12329112030, 12329112031, 12329112032, 12329112033, 12329112034, 12329112035, 12329112036, 12329112037, 12329112038, 12329112039, 12329112040, 12329112041, 12329112042, 12329112043, 12329112044, 12329112001], "tags": {"building": "yes", "name": "Hotel de Tr\u00e2nsito dos Oficiais", "tourism": "hotel"}}, {"type": "relation", "id": 13930843, "members": [{"type": "way", "ref": 473599579, "role": "outer"}], "tags": {"addr:city": "Rio de Janeiro", "addr:country": "BR", "addr:housenumber": "392", "addr:street": "Avenida Princesa Isabel", "addr:suburb": "Copacabana", "air_conditioning": "yes", "building": "yes", "check_date": "2023-07-12", "internet_access": "yes", "internet_access:fee": "customers", "name": "Copacabana Hotel", "phone": "+55-21-21321000", "source": "Bing", "stars": "4", "tourism": "hotel", "type": "multipolygon", "website": "http://www.hotelmerlin.com.br/"}}, {"type": "relation", "id": 16787562, "members": [{"type": "way", "ref": 1228858985, "role": "outer"}, {"type": "way", "ref": 1228858980, "role": "inner"}], "tags": {"addr:city": "Rio de Janeiro", "addr:housenumber": "280", "addr:postcode": "20021-060", "addr:street": "Avenida Beira-Mar", "addr:suburb": "Centro", "brand": "B&B Hotels", "brand:wikidata": "Q794939", "building": "commercial", "ele": "8.37", "email": "bra-centraldereservas@hotelbb.com", "height": "32.21", "internet_access": "wlan", "internet_access:fee": "no", "name": "B&B Hotel Santos Dumont", "old_name": "Othon", "phone": "+55 21 970-269-406", "tourism": "hotel", "type": "multipolygon", "website": "https://www.hotel-bb.com/pt/hotel/santos-dumont"}}, {"type": "relation", "id": 17186107, "members": [{"type": "way", "ref": 1248710078, "role": "inner"}, {"type": "way", "ref": 378126260, "role": "outer"}], "tags": {"addr:city": "RIO DE JANEIRO", "addr:housenumber": "6555", "addr:postcode": "22783-127", "addr:street": "Avenida Salvador Allende", "addr:suburb": "BARRA DA TIJUCA", "brand": "LAGUNE BARRA HOTEL", "building": "yes", "contact:facebook": "https://www.facebook.com/profile.php?id=61555998386132", "email": "reservas@lagunebarrahotel.com.br", "image": "https://lirp.cdn-website.com/8cfb8371/dms3rep/multi/opt/lagune_vertical_cmyk-1-60dfd4ea-1920w.png", "internet_access": "yes", "internet_access:fee": "customers", "name": "Lagune Barra Hotel", "phone": "552121137000", "tourism": "hotel", "type": "multipolygon", "website": "https://www.lagunebarrahotel.com.br/", "wheelchair": "yes"}}, {"type": "relation", "id": 18369001, "members": [{"type": "way", "ref": 100555349, "role": "outer"}, {"type": "way", "ref": 1068090501, "role": "inner"}], "tags": {"addr:city": "Rio de Janeiro", "addr:housenumber": "1702", "addr:postcode": "22021-001", "addr:street": "Avenida Atl\u00e2ntica", "addr:suburb": "Copacabana", "brand": "Belmond", "building": "hotel", "building:levels": "6", "internet_access": "wlan", "name": "Hotel Copacabana Palace", "phone": "+55 21 25487070", "price": "toprange", "rooms": "239", "short_name": "Copacabana Palace", "stars": "5", "toilets:wheelchair": "yes", "tourism": "hotel", "type": "multipolygon", "url": "http://www.copacabanapalace.com/", "website": "https://www.belmond.com/pt-br/copacabana-palace-rio-de-janeiro/", "wheelchair": "yes", "wikidata": "Q2637352", "wikimedia_commons": "Category:Copacabana Palace", "wikipedia": "pt:Copacabana Palace"}}]}