{"version": 0.6, "generator": "Overpass API 0.7.62.5 1bd436f1", "osm3s": {"timestamp_osm_base": "2025-04-11T22:26:37Z", "copyright": "The data included in this document is from www.openstreetmap.org. The data is made available under ODbL."}, "elements": [{"type": "node", "id": 3160523110, "lat": 49.2869894, "lon": -123.1320715}, {"type": "node", "id": 3160523111, "lat": 49.2869406, "lon": -123.1319958}, {"type": "node", "id": 3160523112, "lat": 49.2868342, "lon": -123.1321572}, {"type": "node", "id": 3160523113, "lat": 49.2868986, "lon": -123.132257}, {"type": "node", "id": 3160523114, "lat": 49.2869714, "lon": -123.1321466}, {"type": "node", "id": 3160523115, "lat": 49.2869558, "lon": -123.1321224}, {"type": "node", "id": 5827688486, "lat": 49.3800162, "lon": -123.338824, "tags": {"addr:city": "Bowen Island", "addr:housenumber": "1014", "addr:street": "Miller Road", "name": "Bowen Island Historians Museum and Archive", "tourism": "museum", "website": "https://bowenislandmuseum.ca"}}, {"type": "node", "id": 12516891107, "lat": 49.3112814, "lon": -123.080481, "tags": {"addr:housenumber": "115", "addr:street": "West Esplanade", "check_date": "2025-01-19", "name": "Museum Of North Vancouver", "tourism": "museum"}}, {"type": "way", "id": 310612768, "nodes": [3160523110, 3160523111, 3160523112, 3160523113, 3160523114, 3160523115, 3160523110], "tags": {"addr:city": "Vancouver", "addr:housenumber": "1415", "addr:province": "BC", "addr:street": "Barclay Street", "building": "yes", "building:levels": "2", "check_date:opening_hours": "2024-01-19", "fee": "yes", "name": "Roedde House Museum", "opening_hours:url": "https://www.roeddehouse.org/hours-admissions/", "roof:colour": "#595757", "roof:shape": "hipped", "seasonal": "yes", "tourism": "museum", "website": "https://www.roeddehouse.org/", "wheelchair": "yes", "wikidata": "Q18167820"}}]}