{"version": 0.6, "generator": "Overpass API 0.7.62.5 1bd436f1", "osm3s": {"timestamp_osm_base": "2025-04-02T20:40:42Z", "copyright": "The data included in this document is from www.openstreetmap.org. The data is made available under ODbL."}, "elements": [{"type": "node", "id": 290731401, "lat": 49.0874947, "lon": -123.0616913}, {"type": "node", "id": 290731402, "lat": 49.0878384, "lon": -123.0616877}, {"type": "node", "id": 290731403, "lat": 49.0878434, "lon": -123.0628208}, {"type": "node", "id": 290731407, "lat": 49.0874997, "lon": -123.0628244}, {"type": "node", "id": 307349298, "lat": 49.2683387, "lon": -123.2483853}, {"type": "node", "id": 651065382, "lat": 49.2763415, "lon": -123.127109, "tags": {"addr:city": "Vancouver", "addr:housenumber": "1274", "addr:province": "BC", "addr:street": "Granville Street", "amenity": "car_rental", "brand": "Hertz", "brand:wikidata": "Q1543874", "brand:wikipedia": "en:The Hertz Corporation", "name": "Hertz", "opening_hours": "Mo-Su 08:00-16:00", "wheelchair": "yes"}}, {"type": "node", "id": 930643834, "lat": 49.270464, "lon": -123.143024, "tags": {"amenity": "car_rental", "brand": "Enterprise", "brand:wikidata": "Q17085454", "brand:wikipedia": "en:Enterprise Rent-A-Car", "name": "Enterprise", "official_name": "Enterprise Rent-A-Car", "opening_hours": "Mo-Fr 08:00-06:00; Sa 09:00-24:00"}}, {"type": "node", "id": 957183089, "lat": 49.2136508, "lon": -123.1409785}, {"type": "node", "id": 1014250131, "lat": 49.1675219, "lon": -123.136327}, {"type": "node", "id": 1386719167, "lat": 49.2647969, "lon": -123.2157907}, {"type": "node", "id": 1386719176, "lat": 49.2647922, "lon": -123.2156155}, {"type": "node", "id": 1386719208, "lat": 49.2654318, "lon": -123.2160612}, {"type": "node", "id": 1386719218, "lat": 49.2651189, "lon": -123.2159926}, {"type": "node", "id": 1685422406, "lat": 49.2048501, "lon": -123.1291174, "tags": {"amenity": "car_rental", "brand": "Enterprise", "brand:wikidata": "Q17085454", "brand:wikipedia": "en:Enterprise Rent-A-Car", "name": "Enterprise", "official_name": "Enterprise Rent-A-Car"}}, {"type": "node", "id": 1796612723, "lat": 49.2735297, "lon": -123.097864, "tags": {"addr:city": "Vancouver", "addr:housenumber": "1150", "addr:street": "Station Street", "amenity": "bus_station", "bus": "yes", "name": "Vancouver Main Terminal", "public_transport": "station"}}, {"type": "node", "id": 1897394214, "lat": 49.2831781, "lon": -123.121322, "tags": {"addr:city": "Vancouver", "addr:housenumber": "757", "addr:province": "BC", "addr:street": "Hornby Street", "amenity": "car_rental", "brand": "Avis", "brand:wikidata": "Q791136", "brand:wikipedia": "en:Avis Car Rental", "check_date": "2024-09-18", "name": "Avis", "official_name": "Avis Car Rental", "opening_hours": "Mo-Su 08:00-16:30", "operator": "Avis", "wheelchair": "yes"}}, {"type": "node", "id": 2167295946, "lat": 49.1926379, "lon": -123.10135, "tags": {"addr:unit": "128", "amenity": "car_rental", "brand": "Enterprise", "brand:wikidata": "Q17085454", "brand:wikipedia": "en:Enterprise Rent-A-Car", "name": "Enterprise", "official_name": "Enterprise Rent-A-Car"}}, {"type": "node", "id": 3488072344, "lat": 49.2677314, "lon": -123.2478635}, {"type": "node", "id": 3488072624, "lat": 49.2682506, "lon": -123.2482876}, {"type": "node", "id": 3738439089, "lat": 49.2814129, "lon": -123.116115, "tags": {"addr:city": "Vancouver", "addr:housenumber": "501", "addr:province": "BC", "addr:street": "West Georgia Street", "amenity": "car_rental", "check_date": "2023-11-01", "name": "Pacific Car Rentals", "opening_hours": "Mo-Sa 09:00-17:00", "wheelchair": "yes"}}, {"type": "node", "id": 3938307872, "lat": 49.2734181, "lon": -123.0981066, "tags": {"amenity": "car_rental", "brand": "Hertz", "brand:wikidata": "Q1543874", "brand:wikipedia": "en:The Hertz Corporation", "name": "Hertz"}}, {"type": "node", "id": 4084316619, "lat": 49.2822848, "lon": -123.1142562}, {"type": "node", "id": 4084316620, "lat": 49.2822685, "lon": -123.1142806}, {"type": "node", "id": 4084316621, "lat": 49.2821497, "lon": -123.1140943}, {"type": "node", "id": 4084316622, "lat": 49.2821775, "lon": -123.114088}, {"type": "node", "id": 4230812742, "lat": 49.2198543, "lon": -123.0656999, "tags": {"amenity": "bus_station", "bus": "yes", "name": "54th Avenue Loop", "public_transport": "station", "ref": "61800", "website": "https://translink.ca/"}}, {"type": "node", "id": 4230870417, "lat": 49.2101422, "lon": -123.0648116, "tags": {"amenity": "bus_station", "bus": "yes", "name": "Harrison Loop", "public_transport": "station", "website": "https://translink.ca/"}}, {"type": "node", "id": 4270712690, "lat": 49.2034727, "lon": -123.1327815}, {"type": "node", "id": 4280582288, "lat": 49.2716914, "lon": -123.1042968, "tags": {"amenity": "bicycle_rental", "bicycle_rental": "docking_station", "capacity": "20", "name": "Ontario & Seawall", "network": "Mobi", "operator": "Vancouver Bike Share", "ref": "0011"}}, {"type": "node", "id": 4280583689, "lat": 49.270861, "lon": -123.1150229, "tags": {"amenity": "bicycle_rental", "bicycle_rental": "docking_station", "capacity": "18", "name": "Spyglass & Seawall", "network": "Mobi", "operator": "Vancouver Bike Share", "ref": "0009"}}, {"type": "node", "id": 4280583690, "lat": 49.2622822, "lon": -123.1142145, "tags": {"amenity": "bicycle_rental", "bicycle_rental": "docking_station", "capacity": "36", "name": "10th & Cambie", "network": "Mobi", "operator": "Vancouver Bike Share", "ref": "0001"}}, {"type": "node", "id": 4280583692, "lat": 49.275649, "lon": -123.1170024, "tags": {"amenity": "bicycle_rental", "bicycle_rental": "docking_station", "capacity": "20", "name": "Beatty & Nelson", "network": "Mobi", "operator": "Vancouver Bike Share", "ref": "0027"}}, {"type": "node", "id": 4306881751, "lat": 49.2857921, "lon": -123.1209655, "tags": {"amenity": "bicycle_rental", "bicycle_rental": "docking_station", "capacity": "46", "name": "Burrard Station", "network": "Mobi", "ref": "0002"}}, {"type": "node", "id": 4306881752, "lat": 49.2781301, "lon": -123.1305274, "tags": {"amenity": "bicycle_rental", "bicycle_rental": "docking_station", "capacity": "24", "name": "Burrard & Drake", "network": "Mobi", "ref": "0089", "wheelchair": "yes"}}, {"type": "node", "id": 4306881790, "lat": 49.2806397, "lon": -123.1247883, "tags": {"amenity": "bicycle_rental", "bicycle_rental": "docking_station", "capacity": "18", "fee": "yes", "name": "Hornby & Nelson", "network": "Mobi", "ref": "0037", "wheelchair": "yes"}}, {"type": "node", "id": 4306881791, "lat": 49.2802978, "lon": -123.1352757, "tags": {"amenity": "bicycle_rental", "bicycle_rental": "docking_station", "capacity": "20", "name": "Harwood & Bute", "network": "Mobi", "ref": "0088"}}, {"type": "node", "id": 4310365116, "lat": 49.2803018, "lon": -123.1177147, "tags": {"amenity": "bicycle_rental", "bicycle_rental": "docking_station", "capacity": "26", "name": "Richards & Robson", "network": "Mobi", "ref": "0129"}}, {"type": "node", "id": 4312118483, "lat": 49.2799185, "lon": -123.1274469, "tags": {"amenity": "bicycle_rental", "bicycle_rental": "docking_station", "capacity": "15", "fee": "yes", "name": "Helmcken & Burrard", "network": "Mobi", "ref": "0039"}}, {"type": "node", "id": 4312120452, "lat": 49.2797102, "lon": -123.1100831, "tags": {"amenity": "bicycle_rental", "bicycle_rental": "docking_station", "capacity": "26", "name": "Dunsmuir & Beatty", "network": "Mobi", "ref": "0005"}}, {"type": "node", "id": 4312153326, "lat": 49.2853146, "lon": -123.134325, "tags": {"amenity": "bicycle_rental", "bicycle_rental": "docking_station", "capacity": "12", "name": "Comox & Broughton", "network": "Mobi", "ref": "0048"}}, {"type": "node", "id": 4313831741, "lat": 49.2858689, "lon": -123.1272595, "tags": {"amenity": "bicycle_rental", "bicycle_rental": "docking_station", "capacity": "26", "name": "Bute & Robson", "network": "Mobi", "ref": "0036"}}, {"type": "node", "id": 4319939378, "lat": 49.2826816, "lon": -123.107005, "tags": {"amenity": "bicycle_rental", "bicycle_rental": "docking_station", "capacity": "14", "name": "Abbott & Cordova", "network": "Mobi", "ref": "0030"}}, {"type": "node", "id": 4327258587, "lat": 49.2796591, "lon": -123.1162932, "tags": {"amenity": "bicycle_rental", "bicycle_rental": "docking_station", "capacity": "20", "name": "Homer & Robson", "network": "Mobi", "ref": "0025"}}, {"type": "node", "id": 4345324009, "lat": 49.2833805, "lon": -123.1310401, "tags": {"amenity": "bicycle_rental", "bicycle_rental": "docking_station", "capacity": "22", "name": "Bute & Comox", "network": "Mobi", "ref": "0050"}}, {"type": "node", "id": 4346611613, "lat": 49.2738549, "lon": -123.114558, "tags": {"amenity": "bicycle_rental", "bicycle_rental": "docking_station", "capacity": "26", "name": "Marinaside & Cooperage", "network": "Mobi", "ref": "0057"}}, {"type": "node", "id": 4346611615, "lat": 49.2606046, "lon": -123.1134246, "tags": {"amenity": "bicycle_rental", "bicycle_rental": "docking_station", "capacity": "16", "name": "12th & Yukon", "network": "Mobi", "ref": "0007"}}, {"type": "node", "id": 4346611808, "lat": 49.2695442, "lon": -123.1378336, "tags": {"amenity": "bicycle_rental", "bicycle_rental": "docking_station", "capacity": "28", "name": "Anderson & 2nd", "network": "Mobi", "ref": "0066"}}, {"type": "node", "id": 4346800085, "lat": 49.2774968, "lon": -123.114236, "tags": {"amenity": "bicycle_rental", "bicycle_rental": "docking_station", "capacity": "20", "fee": "no", "name": "Beatty & Robson", "network": "Mobi", "ref": "0026"}}, {"type": "node", "id": 4346800491, "lat": 49.2761224, "lon": -123.1145372, "tags": {"amenity": "bicycle_rental", "bicycle_rental": "docking_station", "capacity": "16", "name": "Expo & Smithe", "network": "Mobi", "ref": "0064"}}, {"type": "node", "id": 4346800493, "lat": 49.2757543, "lon": -123.1243609, "tags": {"amenity": "bicycle_rental", "bicycle_rental": "docking_station", "capacity": "14", "name": "Richards & Davie", "network": "Mobi", "ref": "0082"}}, {"type": "node", "id": 4346800789, "lat": 49.2765028, "lon": -123.1189009, "tags": {"amenity": "bicycle_rental", "bicycle_rental": "docking_station", "capacity": "30", "name": "Nelson & Mainland", "network": "Mobi", "ref": "0078"}}, {"type": "node", "id": 4347696030, "lat": 49.2823937, "lon": -123.1185854, "tags": {"amenity": "bicycle_rental", "bicycle_rental": "docking_station", "capacity": "20", "name": "Granville & Georgia", "network": "Mobi", "ref": "0015"}}, {"type": "node", "id": 4348123815, "lat": 49.2780481, "lon": -123.1057008, "tags": {"amenity": "bicycle_rental", "bicycle_rental": "docking_station", "capacity": "16", "name": "Expo & Carrall", "network": "Mobi", "ref": "0054"}}, {"type": "node", "id": 4348124591, "lat": 49.2797995, "lon": -123.1079267, "tags": {"amenity": "bicycle_rental", "bicycle_rental": "docking_station", "capacity": "28", "name": "Keefer & Abbott", "network": "Mobi", "ref": "0053"}}, {"type": "node", "id": 4349324141, "lat": 49.2656102, "lon": -123.1525342, "tags": {"amenity": "bicycle_rental", "bicycle_rental": "docking_station", "capacity": "16", "name": "7th & Arbutus", "network": "Mobi", "ref": "0109"}}, {"type": "node", "id": 4349324142, "lat": 49.2650786, "lon": -123.1194282, "tags": {"amenity": "bicycle_rental", "bicycle_rental": "docking_station", "capacity": "18", "name": "Heather & 7th", "network": "Mobi", "ref": "0081"}}, {"type": "node", "id": 4349328093, "lat": 49.2682673, "lon": -123.1478672, "tags": {"amenity": "bicycle_rental", "bicycle_rental": "docking_station", "capacity": "18", "name": "Cypress & 4th", "network": "Mobi", "ref": "0076"}}, {"type": "node", "id": 4349328095, "lat": 49.2642151, "lon": -123.1178195, "tags": {"amenity": "bicycle_rental", "bicycle_rental": "docking_station", "capacity": "16", "name": "8th & Ash", "network": "Mobi", "ref": "0008"}}, {"type": "node", "id": 4349328096, "lat": 49.268926, "lon": -123.1180979, "tags": {"amenity": "bicycle_rental", "bicycle_rental": "docking_station", "capacity": "12", "name": "Stamp's Landing", "network": "Mobi", "ref": "0010"}}, {"type": "node", "id": 4349328200, "lat": 49.2587688, "lon": -123.1152956, "tags": {"amenity": "bicycle_rental", "bicycle_rental": "docking_station", "capacity": "14", "name": "14th & Cambie", "network": "Mobi", "ref": "0072"}}, {"type": "node", "id": 4349328322, "lat": 49.2575397, "lon": -123.1484736, "tags": {"amenity": "bicycle_rental", "bicycle_rental": "docking_station", "capacity": "20", "name": "Cypress & 16th", "network": "Mobi", "ref": "0115"}}, {"type": "node", "id": 4356556395, "lat": 49.2022069, "lon": -123.1341593, "tags": {"addr:housenumber": "1295", "addr:street": "West 75th Avenue", "amenity": "car_rental", "name": "Wicked Camper Van", "website": "https://www.wickedcampers.ca/"}}, {"type": "node", "id": 4356820948, "lat": 49.2757002, "lon": -123.14245, "tags": {"amenity": "bicycle_rental", "bicycle_rental": "docking_station", "capacity": "28", "name": "Vanier Park", "network": "Mobi", "ref": "0077"}}, {"type": "node", "id": 4357869579, "lat": 49.2777729, "lon": -123.1208527, "tags": {"amenity": "bicycle_rental", "bicycle_rental": "docking_station", "capacity": "30", "name": "Nelson & Richards", "network": "Mobi", "ref": "0079"}}, {"type": "node", "id": 4358246393, "lat": 49.2668059, "lon": -123.1047506, "tags": {"amenity": "bicycle_rental", "bicycle_rental": "docking_station", "brand": "Mobi", "brand:wikidata": "Q26211470", "capacity": "18", "fee": "yes", "name": "Ontario & 5th", "network": "Mobi", "network:wikidata": "Q26211470", "operator": "CycleHop", "operator:type": "private", "operator:wikidata": "Q65121017", "ref": "0073"}}, {"type": "node", "id": 4382756797, "lat": 49.2735492, "lon": -123.1299041, "tags": {"amenity": "bicycle_rental", "bicycle_rental": "docking_station", "capacity": "18", "name": "Beach & Seymour", "network": "Mobi", "ref": "0137"}}, {"type": "node", "id": 4384665137, "lat": 49.2846283, "lon": -123.1086152, "tags": {"amenity": "bicycle_rental", "bicycle_rental": "docking_station", "capacity": "32", "name": "Cambie & Water", "network": "Mobi", "ref": "0052"}}, {"type": "node", "id": 4386255089, "lat": 49.2592367, "lon": -123.1482565, "tags": {"amenity": "bicycle_rental", "bicycle_rental": "docking_station", "capacity": "20", "name": "Cypress & 14th", "network": "Mobi", "ref": "0114"}}, {"type": "node", "id": 4386255090, "lat": 49.2576909, "lon": -123.1532696, "tags": {"amenity": "bicycle_rental", "bicycle_rental": "docking_station", "capacity": "40", "name": "Arbutus & 16th", "network": "Mobi", "ref": "0113"}}, {"type": "node", "id": 4386255098, "lat": 49.2638169, "lon": -123.1052878, "tags": {"amenity": "bicycle_rental", "bicycle_rental": "docking_station", "capacity": "14", "name": "8th & Ontario", "network": "Mobi", "ref": "0107"}}, {"type": "node", "id": 4392917596, "lat": 49.2735635, "lon": -123.1179519, "tags": {"amenity": "bicycle_rental", "bicycle_rental": "docking_station", "capacity": "22", "name": "Marinaside & Davie", "network": "Mobi", "ref": "0017"}}, {"type": "node", "id": 4392992657, "lat": 49.285273, "lon": -123.1417873, "tags": {"amenity": "bicycle_rental", "bicycle_rental": "docking_station", "capacity": "26", "name": "Bidwell & Beach", "network": "Mobi", "ref": "0060"}}, {"type": "node", "id": 4395519395, "lat": 49.2728075, "lon": -123.1477349, "tags": {"amenity": "bicycle_rental", "bicycle_rental": "docking_station", "capacity": "22", "name": "Cypress & Cornwall", "network": "Mobi", "ref": "0065"}}, {"type": "node", "id": 4404884732, "lat": 49.2736703, "lon": -123.1270617, "tags": {"amenity": "bicycle_rental", "bicycle_rental": "docking_station", "capacity": "14", "name": "Pacific & Richards", "network": "Mobi", "ref": "0044"}}, {"type": "node", "id": 4406353763, "lat": 49.2652855, "lon": -123.1381984, "tags": {"amenity": "bicycle_rental", "bicycle_rental": "docking_station", "capacity": "24", "name": "7th & Granville", "network": "Mobi", "ref": "0069"}}, {"type": "node", "id": 4406353764, "lat": 49.2568643, "lon": -123.1051257, "tags": {"amenity": "bicycle_rental", "bicycle_rental": "docking_station", "capacity": "14", "name": "Ontario & 16th", "network": "Mobi", "ref": "0133"}}, {"type": "node", "id": 4406353765, "lat": 49.2702382, "lon": -123.106335, "tags": {"amenity": "bicycle_rental", "bicycle_rental": "docking_station", "capacity": "32", "name": "1st & Manitoba", "network": "Mobi", "ref": "0174"}}, {"type": "node", "id": 4406354309, "lat": 49.2583966, "lon": -123.1007345, "tags": {"amenity": "bicycle_rental", "bicycle_rental": "docking_station", "capacity": "16", "name": "14th & Main", "network": "Mobi", "ref": "0134"}}, {"type": "node", "id": 4406354312, "lat": 49.2699811, "lon": -123.1095854, "tags": {"amenity": "bicycle_rental", "bicycle_rental": "docking_station", "capacity": "24", "fee": "yes", "name": "Columbia & 1st", "network": "Mobi", "ref": "0173"}}, {"type": "node", "id": 4426815002, "lat": 49.2841519, "lon": -123.0999589, "tags": {"amenity": "bicycle_rental", "bicycle_rental": "docking_station", "capacity": "20", "name": "Alexander & Main", "network": "Mobi", "ref": "0150"}}, {"type": "node", "id": 4428165265, "lat": 49.2589687, "lon": -123.1393495, "tags": {"amenity": "bicycle_rental", "bicycle_rental": "docking_station", "capacity": "14", "name": "14th & Granville", "network": "Mobi", "ref": "0071"}}, {"type": "node", "id": 4428166137, "lat": 49.2771762, "lon": -123.1225069, "tags": {"amenity": "bicycle_rental", "bicycle_rental": "docking_station", "capacity": "18", "name": "Richards & Helmcken", "network": "Mobi", "ref": "0138"}}, {"type": "node", "id": 4447006770, "lat": 49.2622734, "lon": -123.12616, "tags": {"amenity": "bicycle_rental", "bicycle_rental": "docking_station", "capacity": "30", "name": "Oak & 10th", "network": "Mobi", "ref": "0112"}}, {"type": "node", "id": 4447006771, "lat": 49.25676, "lon": -123.1200251, "tags": {"amenity": "bicycle_rental", "bicycle_rental": "docking_station", "capacity": "20", "name": "Heather & 16th", "network": "Mobi", "ref": "0130"}}, {"type": "node", "id": 4447006820, "lat": 49.2617669, "lon": -123.1314892, "tags": {"amenity": "bicycle_rental", "bicycle_rental": "docking_station", "capacity": "14", "name": "Alder & 11th", "network": "Mobi", "ref": "0166"}}, {"type": "node", "id": 4467253656, "lat": 49.2759635, "lon": -123.1460073, "tags": {"amenity": "bicycle_rental", "bicycle_rental": "docking_station", "capacity": "16", "name": "Chestnut & McNicoll", "network": "Mobi", "ref": "0147"}}, {"type": "node", "id": 4469433643, "lat": 49.2815126, "lon": -123.1201536, "tags": {"amenity": "bicycle_rental", "bicycle_rental": "docking_station", "capacity": "32", "name": "Robson & Granville", "network": "Mobi", "ref": "0063"}}, {"type": "node", "id": 4469433644, "lat": 49.2823821, "lon": -123.1019125, "tags": {"amenity": "bicycle_rental", "bicycle_rental": "docking_station", "capacity": "14", "name": "Cordova & Columbia", "network": "Mobi", "ref": "0167"}}, {"type": "node", "id": 4477798231, "lat": 49.2781965, "lon": -123.1369457, "tags": {"amenity": "bicycle_rental", "bicycle_rental": "docking_station", "capacity": "36", "name": "Aquatic Centre", "network": "Mobi", "ref": "0083"}}, {"type": "node", "id": 4479894506, "lat": 49.266316, "lon": -123.1161009, "tags": {"alt_name": "2nd & Cambie", "amenity": "bicycle_rental", "bicycle_rental": "docking_station", "capacity": "26", "name": "Olympic Village Station", "network": "Mobi", "ref": "0006"}}, {"type": "node", "id": 4479897938, "lat": 49.2629028, "lon": -123.1481066, "tags": {"amenity": "bicycle_rental", "bicycle_rental": "docking_station", "capacity": "16", "name": "Cypress & Broadway", "network": "Mobi", "ref": "0068"}}, {"type": "node", "id": 4486114839, "lat": 49.2683741, "lon": -123.157433, "tags": {"amenity": "bicycle_rental", "bicycle_rental": "docking_station", "capacity": "18", "fee": "yes", "name": "Vine & 4th", "network": "Mobi", "ref": "0159", "website": "https://www.mobibikes.ca/"}}, {"type": "node", "id": 4487920856, "lat": 49.2827328, "lon": -123.1220614, "tags": {"amenity": "bicycle_rental", "bicycle_rental": "docking_station", "capacity": "30", "name": "Robson & Hornby", "network": "Mobi", "ref": "0019"}}, {"type": "node", "id": 4491734820, "lat": 49.267233, "lon": -123.1531863, "tags": {"amenity": "bicycle_rental", "bicycle_rental": "docking_station", "capacity": "16", "name": "5th & Arbutus", "network": "Mobi", "ref": "0110"}}, {"type": "node", "id": 4531145817, "lat": 49.2744594, "lon": -123.1217156, "tags": {"amenity": "bicycle_rental", "bicycle_rental": "docking_station", "capacity": "16", "fee": "no", "name": "Yaletown-Roundhouse Station", "network": "Mobi", "ref": "0004"}}, {"type": "node", "id": 4535171376, "lat": 49.2793384, "lon": -123.1016344, "tags": {"amenity": "bicycle_rental", "bicycle_rental": "docking_station", "capacity": "14", "name": "Keefer & Columbia", "network": "Mobi", "ref": "0055"}}, {"type": "node", "id": 4536537804, "lat": 49.2625924, "lon": -123.13888, "tags": {"amenity": "bicycle_rental", "bicycle_rental": "docking_station", "capacity": "24", "name": "10th & Granville", "network": "Mobi", "ref": "0070"}}, {"type": "node", "id": 4536553367, "lat": 49.2622196, "lon": -123.1093161, "tags": {"amenity": "bicycle_rental", "bicycle_rental": "docking_station", "capacity": "14", "name": "10th & Columbia", "network": "Mobi", "ref": "0172"}}, {"type": "node", "id": 4559406071, "lat": 49.2820425, "lon": -123.1330451, "tags": {"amenity": "bicycle_rental", "bicycle_rental": "docking_station", "capacity": "20", "name": "Bute & Davie", "network": "Mobi", "ref": "0187", "wheelchair": "yes"}}, {"type": "node", "id": 4597143538, "lat": 49.2592543, "lon": -123.120086, "tags": {"amenity": "bicycle_rental", "bicycle_rental": "docking_station", "capacity": "16", "name": "Heather & 14th", "network": "Mobi", "ref": "0106"}}, {"type": "node", "id": 4608888186, "lat": 49.2733557, "lon": -123.1545317, "tags": {"amenity": "bicycle_rental", "bicycle_rental": "docking_station", "capacity": "36", "name": "Kits Beach", "network": "Mobi", "ref": "0154"}}, {"type": "node", "id": 4686167150, "lat": 49.2620546, "lon": -123.1047007, "tags": {"amenity": "bicycle_rental", "bicycle_rental": "docking_station", "capacity": "20", "name": "10th & Ontario", "network": "Mobi", "ref": "0176"}}, {"type": "node", "id": 4689914569, "lat": 49.2700185, "lon": -123.1001259, "tags": {"amenity": "bicycle_rental", "bicycle_rental": "docking_station", "capacity": "20", "name": "1st & Main", "network": "Mobi", "ref": "0197"}}, {"type": "node", "id": 4693006065, "lat": 49.2717489, "lon": -123.1554804, "tags": {"amenity": "bicycle_rental", "bicycle_rental": "docking_station", "capacity": "20", "name": "York & Yew", "network": "Mobi", "ref": "0204"}}, {"type": "node", "id": 4770560226, "lat": 49.1933933, "lon": -123.17947, "tags": {"addr:housenumber": "3880", "addr:street": "Grant McConachie Way", "amenity": "car_rental", "brand": "Avis", "brand:wikidata": "Q791136", "brand:wikipedia": "en:Avis Car Rental", "check_date": "2024-08-10", "name": "Avis", "name:en": "Avis", "official_name": "Avis Car Rental"}}, {"type": "node", "id": 4778024236, "lat": 49.2589484, "lon": -123.152613, "tags": {"amenity": "bicycle_rental", "bicycle_rental": "docking_station", "capacity": "20", "name": "Arbutus Greenway & 14th", "network": "Mobi", "ref": "0152"}}, {"type": "node", "id": 4778027949, "lat": 49.2584988, "lon": -123.1048152, "tags": {"amenity": "bicycle_rental", "bicycle_rental": "docking_station", "capacity": "16", "name": "14th & Ontario", "network": "Mobi", "ref": "0132"}}, {"type": "node", "id": 4824169873, "lat": 49.2629314, "lon": -123.1433487, "tags": {"amenity": "bicycle_rental", "bicycle_rental": "docking_station", "capacity": "20", "name": "Pine & 10th", "network": "Mobi", "ref": "0205"}}, {"type": "node", "id": 4824171058, "lat": 49.268217, "lon": -123.1030597, "tags": {"amenity": "bicycle_rental", "bicycle_rental": "docking_station", "capacity": "14", "name": "3rd & Quebec", "network": "Mobi", "ref": "0119"}}, {"type": "node", "id": 4824171059, "lat": 49.2636229, "lon": -123.1523941, "tags": {"amenity": "bicycle_rental", "bicycle_rental": "docking_station", "capacity": "20", "name": "Arbutus Greenway & Broadway", "network": "Mobi", "ref": "0208"}}, {"type": "node", "id": 4890776379, "lat": 49.2636196, "lon": -123.099236, "tags": {"amenity": "bicycle_rental", "bicycle_rental": "docking_station", "capacity": "12", "name": "8th & Scotia", "network": "Mobi", "ref": "0206"}}, {"type": "node", "id": 4890852240, "lat": 49.2664513, "lon": -123.1002664, "tags": {"amenity": "bicycle_rental", "bicycle_rental": "docking_station", "capacity": "20", "name": "5th & Main", "network": "Mobi", "ref": "0198"}}, {"type": "node", "id": 4890852241, "lat": 49.2588295, "lon": -123.1313655, "tags": {"amenity": "bicycle_rental", "bicycle_rental": "docking_station", "capacity": "14", "name": "14th & Alder", "network": "Mobi", "ref": "0211"}}, {"type": "node", "id": 4914081070, "lat": 49.2652965, "lon": -123.1458088, "tags": {"amenity": "bicycle_rental", "bicycle_rental": "docking_station", "capacity": "16", "name": "Burrard & 7th", "network": "Mobi", "ref": "0140"}}, {"type": "node", "id": 4914085221, "lat": 49.2667647, "lon": -123.1411494, "tags": {"amenity": "bicycle_rental", "bicycle_rental": "docking_station", "capacity": "16", "name": "Arbutus & Fir", "network": "Mobi", "ref": "0153"}}, {"type": "node", "id": 4949496890, "lat": 49.2837789, "lon": -123.1360038, "tags": {"amenity": "bicycle_rental", "bicycle_rental": "docking_station", "capacity": "16", "fee": "yes", "name": "Broughton & Davie", "network": "Mobi", "operator": "Shaw", "operator:type": "private", "payment:subscription": "yes", "ref": "0087"}}, {"type": "node", "id": 4949496891, "lat": 49.2762901, "lon": -123.1065646, "tags": {"amenity": "bicycle_rental", "bicycle_rental": "docking_station", "capacity": "18", "name": "Carrall & Seawall", "network": "Mobi", "ref": "0218"}}, {"type": "node", "id": 5126380424, "lat": 49.1939172, "lon": -123.123722, "tags": {"amenity": "car_rental", "brand": "Enterprise", "brand:wikidata": "Q17085454", "brand:wikipedia": "en:Enterprise Rent-A-Car", "name": "Enterprise", "official_name": "Enterprise Rent-A-Car"}}, {"type": "node", "id": 5239985745, "lat": 49.2831979, "lon": -123.1204825, "tags": {"amenity": "bicycle_rental", "bicycle_rental": "docking_station", "capacity": "28", "check_date": "2024-09-18", "name": "Vancouver Art Gallery - North Plaza", "network": "Mobi", "ref": "0099"}}, {"type": "node", "id": 5240815608, "lat": 49.2709252, "lon": -123.1259935, "tags": {"amenity": "bicycle_rental", "bicycle_rental": "docking_station", "capacity": "18", "name": "David Lam Park - West", "network": "Mobi", "ref": "0136"}}, {"type": "node", "id": 5290614715, "lat": 49.2667964, "lon": -123.2485101}, {"type": "node", "id": 5290614717, "lat": 49.2669864, "lon": -123.2486992}, {"type": "node", "id": 5290614719, "lat": 49.2671787, "lon": -123.2473442}, {"type": "node", "id": 5290614726, "lat": 49.267402, "lon": -123.2466808}, {"type": "node", "id": 5290614732, "lat": 49.2672464, "lon": -123.2487754}, {"type": "node", "id": 5298708521, "lat": 49.2677813, "lon": -123.1457589, "tags": {"amenity": "bicycle_rental", "bicycle_rental": "docking_station", "capacity": "16", "name": "Burrard & 4th", "network": "Mobi", "ref": "0139"}}, {"type": "node", "id": 5483845609, "lat": 49.2676184, "lon": -123.1277051, "tags": {"amenity": "bicycle_rental", "bicycle_rental": "docking_station", "capacity": "14", "name": "South False Creek Seawall", "network": "Mobi", "ref": "0143"}}, {"type": "node", "id": 5555410110, "lat": 49.2649024, "lon": -123.0812237, "tags": {"amenity": "bicycle_rental", "bicycle_rental": "docking_station", "capacity": "20", "name": "Glen & 6th", "network": "Mobi", "ref": "0237"}}, {"type": "node", "id": 5555410111, "lat": 49.2615005, "lon": -123.0893354, "tags": {"amenity": "bicycle_rental", "bicycle_rental": "docking_station", "capacity": "14", "name": "10th & Fraser", "network": "Mobi", "ref": "0260"}}, {"type": "node", "id": 5555411056, "lat": 49.2649223, "lon": -123.0794519, "tags": {"amenity": "bicycle_rental", "bicycle_rental": "docking_station", "capacity": "28", "name": "Keith & 6th", "network": "Mobi", "ref": "0236"}}, {"type": "node", "id": 5555411057, "lat": 49.2613191, "lon": -123.0852922, "tags": {"amenity": "bicycle_rental", "bicycle_rental": "docking_station", "capacity": "12", "name": "St Catherines & 10th", "network": "Mobi", "ref": "0265"}}, {"type": "node", "id": 5555411149, "lat": 49.2621862, "lon": -123.0814508, "tags": {"amenity": "bicycle_rental", "bicycle_rental": "docking_station", "capacity": "18", "name": "Glen & Broadway", "network": "Mobi", "ref": "0246"}}, {"type": "node", "id": 5555411150, "lat": 49.2623071, "lon": -123.0930671, "tags": {"amenity": "bicycle_rental", "bicycle_rental": "docking_station", "capacity": "14", "name": "St. George & Broadway", "network": "Mobi", "ref": "0248"}}, {"type": "node", "id": 5560800877, "lat": 49.2612322, "lon": -123.0737544, "tags": {"amenity": "bicycle_rental", "bicycle_rental": "docking_station", "capacity": "14", "name": "Woodland & 10th", "network": "Mobi", "ref": "0245"}}, {"type": "node", "id": 5567982962, "lat": 49.2713808, "lon": -123.0693525, "tags": {"amenity": "bicycle_rental", "bicycle_rental": "docking_station", "capacity": "14", "name": "Grant & Commercial", "network": "Mobi", "ref": "0239"}}, {"type": "node", "id": 5567982963, "lat": 49.2641012, "lon": -123.0707016, "tags": {"amenity": "bicycle_rental", "bicycle_rental": "docking_station", "capacity": "42", "name": "Grandview Bike Lane & Commercial", "network": "Mobi", "ref": "0254"}}, {"type": "node", "id": 5567983926, "lat": 49.2731002, "lon": -123.0699248, "tags": {"amenity": "bicycle_rental", "bicycle_rental": "docking_station", "capacity": "22", "name": "Charles & Commercial", "network": "Mobi", "ref": "0235"}}, {"type": "node", "id": 5567983927, "lat": 49.2669734, "lon": -123.0700235, "tags": {"amenity": "bicycle_rental", "bicycle_rental": "docking_station", "capacity": "14", "name": "4th & Commercial", "network": "Mobi", "ref": "0241"}}, {"type": "node", "id": 5567983928, "lat": 49.261412, "lon": -123.0701593, "tags": {"amenity": "bicycle_rental", "bicycle_rental": "docking_station", "capacity": "26", "name": "10th & Commercial", "network": "Mobi", "ref": "0244"}}, {"type": "node", "id": 5567984327, "lat": 49.274881, "lon": -123.0692936, "tags": {"amenity": "bicycle_rental", "bicycle_rental": "docking_station", "capacity": "14", "name": "Napier & Commercial", "network": "Mobi", "ref": "0231"}}, {"type": "node", "id": 5567984328, "lat": 49.2686186, "lon": -123.0700509, "tags": {"amenity": "bicycle_rental", "bicycle_rental": "docking_station", "capacity": "22", "name": "2nd & Commercial", "network": "Mobi", "ref": "0240"}}, {"type": "node", "id": 5567984329, "lat": 49.2632295, "lon": -123.0704772, "tags": {"amenity": "bicycle_rental", "bicycle_rental": "docking_station", "capacity": "38", "name": "8th & Commercial", "network": "Mobi", "ref": "0242"}}, {"type": "node", "id": 5621036160, "lat": 49.2773948, "lon": -123.0704165, "tags": {"amenity": "bicycle_rental", "bicycle_rental": "docking_station", "capacity": "16", "name": "Commercial & Adanac", "network": "Mobi", "ref": "0223"}}, {"type": "node", "id": 5621038440, "lat": 49.2776591, "lon": -123.0735579, "tags": {"amenity": "bicycle_rental", "bicycle_rental": "docking_station", "capacity": "16", "name": "Adanac & McLean", "network": "Mobi", "ref": "0222"}}, {"type": "node", "id": 5621043574, "lat": 49.2810403, "lon": -123.1044111, "tags": {"amenity": "bicycle_rental", "bicycle_rental": "docking_station", "capacity": "18", "name": "Carrall & Hastings", "network": "Mobi", "ref": "0098"}}, {"type": "node", "id": 5625229806, "lat": 49.2840577, "lon": -123.095047, "tags": {"amenity": "bicycle_rental", "bicycle_rental": "docking_station", "capacity": "14", "name": "Alexander & Dunlevy", "network": "Mobi", "ref": "0161"}}, {"type": "node", "id": 5625229807, "lat": 49.2839923, "lon": -123.0911062, "tags": {"amenity": "bicycle_rental", "bicycle_rental": "docking_station", "capacity": "20", "name": "Alexander & Railway", "network": "Mobi", "ref": "0230"}}, {"type": "node", "id": 5629803189, "lat": 49.2707276, "lon": -123.1461997, "tags": {"amenity": "bicycle_rental", "bicycle_rental": "docking_station", "capacity": "16", "name": "1st & Chestnut", "network": "Mobi", "ref": "0108"}}, {"type": "node", "id": 5636471859, "lat": 49.2775071, "lon": -123.0812952, "tags": {"amenity": "bicycle_rental", "bicycle_rental": "docking_station", "capacity": "14", "name": "Glen & Union", "network": "Mobi", "ref": "0221"}}, {"type": "node", "id": 5636472424, "lat": 49.2793622, "lon": -123.0909562, "tags": {"amenity": "bicycle_rental", "bicycle_rental": "docking_station", "capacity": "14", "name": "Keefer & Princess", "network": "Mobi", "ref": "0229"}}, {"type": "node", "id": 5636472425, "lat": 49.2743143, "lon": -123.0984626, "tags": {"amenity": "bicycle_rental", "bicycle_rental": "docking_station", "capacity": "14", "name": "Station & National", "network": "Mobi", "ref": "0234"}}, {"type": "node", "id": 5650752405, "lat": 49.2634568, "lon": -123.0888362, "tags": {"amenity": "bicycle_rental", "bicycle_rental": "docking_station", "capacity": "16", "name": "8th & Fraser", "network": "Mobi", "ref": "0261"}}, {"type": "node", "id": 5710152021, "lat": 49.2758553, "lon": -123.0719018, "tags": {"amenity": "bicycle_rental", "bicycle_rental": "docking_station", "capacity": "14", "name": "Britannia Parking Lot", "network": "Mobi", "ref": "0232"}}, {"type": "node", "id": 5742677667, "lat": 49.2756105, "lon": -123.102698, "tags": {"amenity": "bicycle_rental", "bicycle_rental": "docking_station", "capacity": "18", "name": "Creekside Park North", "network": "Mobi", "ref": "0148"}}, {"type": "node", "id": 5767236985, "lat": 49.2785197, "lon": -123.1000524, "tags": {"amenity": "bicycle_rental", "bicycle_rental": "docking_station", "capacity": "20", "name": "Georgia & Main", "network": "Mobi", "ref": "0199"}}, {"type": "node", "id": 5780659495, "lat": 49.285583, "lon": -123.1126026, "tags": {"amenity": "bicycle_rental", "bicycle_rental": "docking_station", "capacity": "22", "name": "Cordova & Granville", "network": "Mobi", "ref": "0021"}}, {"type": "node", "id": 5791365316, "lat": 49.2565028, "lon": -123.0754794, "tags": {"amenity": "bicycle_rental", "bicycle_rental": "docking_station", "capacity": "14", "name": "15th & Knight", "network": "Mobi", "ref": "0283"}}, {"type": "node", "id": 5791365317, "lat": 49.2587815, "lon": -123.0927683, "tags": {"amenity": "bicycle_rental", "bicycle_rental": "docking_station", "capacity": "16", "name": "13th & St. George", "network": "Mobi", "ref": "0258"}}, {"type": "node", "id": 5791365318, "lat": 49.2620812, "lon": -123.1018465, "tags": {"amenity": "bicycle_rental", "bicycle_rental": "docking_station", "capacity": "18", "name": "10th & Main", "network": "Mobi", "ref": "0074"}}, {"type": "node", "id": 5805917917, "lat": 49.2802712, "lon": -123.0970897, "tags": {"amenity": "bicycle_rental", "bicycle_rental": "docking_station", "capacity": "14", "name": "Pender & Gore", "network": "Mobi", "ref": "0213"}}, {"type": "node", "id": 5805917918, "lat": 49.2806434, "lon": -123.084749, "tags": {"amenity": "bicycle_rental", "bicycle_rental": "docking_station", "capacity": "14", "name": "Campbell & Hastings", "network": "Mobi", "ref": "0227"}}, {"type": "node", "id": 5805917919, "lat": 49.2731187, "lon": -123.0731844, "tags": {"amenity": "bicycle_rental", "bicycle_rental": "docking_station", "capacity": "14", "name": "Charles & Woodland", "network": "Mobi", "ref": "0253"}}, {"type": "node", "id": 5805917920, "lat": 49.2666761, "lon": -123.0734696, "tags": {"amenity": "bicycle_rental", "bicycle_rental": "docking_station", "capacity": "14", "name": "Woodland & 4th", "network": "Mobi", "ref": "0250"}}, {"type": "node", "id": 5805917921, "lat": 49.2644331, "lon": -123.0851365, "tags": {"amenity": "bicycle_rental", "bicycle_rental": "docking_station", "capacity": "20", "name": "St Catherines & 7th", "network": "Mobi", "ref": "0266"}}, {"type": "node", "id": 5805917922, "lat": 49.2635225, "lon": -123.0956253, "tags": {"amenity": "bicycle_rental", "bicycle_rental": "docking_station", "capacity": "18", "name": "8th & Prince Edward", "network": "Mobi", "ref": "0262"}}, {"type": "node", "id": 5805917923, "lat": 49.2674701, "lon": -123.0907444, "tags": {"amenity": "bicycle_rental", "bicycle_rental": "docking_station", "capacity": "16", "name": "Carolina & Great Northern Way", "network": "Mobi", "ref": "0287"}}, {"type": "node", "id": 5805917924, "lat": 49.2546874, "lon": -123.1013355, "tags": {"amenity": "bicycle_rental", "bicycle_rental": "docking_station", "capacity": "16", "name": "18th & Main", "network": "Mobi", "ref": "0255"}}, {"type": "node", "id": 5805917925, "lat": 49.258781, "lon": -123.1271099, "tags": {"amenity": "bicycle_rental", "bicycle_rental": "docking_station", "capacity": "14", "name": "14th & Oak", "network": "Mobi", "ref": "0202"}}, {"type": "node", "id": 5816963080, "lat": 49.2611652, "lon": -123.0660014, "tags": {"amenity": "bicycle_rental", "bicycle_rental": "docking_station", "capacity": "12", "name": "Victoria & 10th", "network": "Mobi", "ref": "0274"}}, {"type": "node", "id": 5816964370, "lat": 49.2666307, "lon": -123.0658618, "tags": {"amenity": "bicycle_rental", "bicycle_rental": "docking_station", "capacity": "16", "name": "Victoria & 4th", "network": "Mobi", "ref": "0273"}}, {"type": "node", "id": 5816964371, "lat": 49.2801793, "lon": -123.0660122, "tags": {"amenity": "bicycle_rental", "bicycle_rental": "docking_station", "capacity": "16", "name": "Pender & Victoria", "network": "Mobi", "ref": "0272"}}, {"type": "node", "id": 5816964471, "lat": 49.2803186, "lon": -123.0700656, "tags": {"amenity": "bicycle_rental", "bicycle_rental": "docking_station", "capacity": "16", "name": "Pender & Commercial", "network": "Mobi", "ref": "0224"}}, {"type": "node", "id": 5825910223, "lat": 49.2808952, "lon": -123.130541, "tags": {"amenity": "bicycle_rental", "bicycle_rental": "docking_station", "capacity": "16", "name": "Thurlow & Pendrell", "network": "Mobi", "ref": "0126", "wheelchair": "yes"}}, {"type": "node", "id": 5835729858, "lat": 49.2839768, "lon": -123.0652119, "tags": {"amenity": "bicycle_rental", "bicycle_rental": "docking_station", "capacity": "16", "name": "Triumph & Victoria", "network": "Mobi", "ref": "0280"}}, {"type": "node", "id": 5835742078, "lat": 49.2832115, "lon": -123.0703905, "tags": {"amenity": "bicycle_rental", "bicycle_rental": "docking_station", "capacity": "16", "name": "Commercial & Pandora", "network": "Mobi", "ref": "0285"}}, {"type": "node", "id": 5864652343, "lat": 49.2736718, "lon": -123.1022542, "tags": {"amenity": "bicycle_rental", "bicycle_rental": "docking_station", "capacity": "16", "name": "Science World", "network": "Mobi", "ref": "0193"}}, {"type": "node", "id": 5864652344, "lat": 49.2801197, "lon": -123.0741648, "tags": {"amenity": "bicycle_rental", "bicycle_rental": "docking_station", "capacity": "16", "name": "McLean & Pender", "network": "Mobi", "ref": "0225"}}, {"type": "node", "id": 5864653242, "lat": 49.2737663, "lon": -123.0927082, "tags": {"amenity": "bicycle_rental", "bicycle_rental": "docking_station", "capacity": "14", "name": "Thornton & National", "network": "Mobi", "ref": "0233"}}, {"type": "node", "id": 5864653247, "lat": 49.2707346, "lon": -123.0736192, "tags": {"amenity": "bicycle_rental", "bicycle_rental": "docking_station", "capacity": "12", "name": "Woodland & Graveley", "network": "Mobi", "ref": "0252"}}, {"type": "node", "id": 5864740723, "lat": 49.2567266, "lon": -123.0965455, "tags": {"amenity": "bicycle_rental", "bicycle_rental": "docking_station", "capacity": "14", "name": "Prince Edward & 16th", "network": "Mobi", "ref": "0256"}}, {"type": "node", "id": 5864740944, "lat": 49.2567901, "lon": -123.0656984, "tags": {"amenity": "bicycle_rental", "bicycle_rental": "docking_station", "capacity": "18", "name": "15th & Victoria", "network": "Mobi", "ref": "0278"}}, {"type": "node", "id": 5864740945, "lat": 49.2652155, "lon": -123.0906761, "tags": {"amenity": "bicycle_rental", "bicycle_rental": "docking_station", "capacity": "16", "name": "6th & Carolina", "network": "Mobi", "ref": "0298"}}, {"type": "node", "id": 5864741511, "lat": 49.2581393, "lon": -123.096343, "tags": {"amenity": "bicycle_rental", "bicycle_rental": "docking_station", "capacity": "14", "name": "Prince Edward & 14th", "network": "Mobi", "ref": "0257"}}, {"type": "node", "id": 5864741512, "lat": 49.2652349, "lon": -123.0954559, "tags": {"amenity": "bicycle_rental", "bicycle_rental": "docking_station", "capacity": "16", "name": "6th & Prince Edward", "network": "Mobi", "ref": "0297"}}, {"type": "node", "id": 5889638218, "lat": 49.2642309, "lon": -123.0738623, "tags": {"amenity": "bicycle_rental", "bicycle_rental": "docking_station", "capacity": "12", "name": "7th & Woodland", "network": "Mobi", "ref": "0249"}}, {"type": "node", "id": 6227590609, "lat": 49.2346729, "lon": -123.1860535}, {"type": "node", "id": 6227590610, "lat": 49.2346721, "lon": -123.1855216}, {"type": "node", "id": 6227590611, "lat": 49.2342724, "lon": -123.1855231}, {"type": "node", "id": 6227590612, "lat": 49.2342732, "lon": -123.186055}, {"type": "node", "id": 6328176146, "lat": 49.2672182, "lon": -123.2488614}, {"type": "node", "id": 6328176147, "lat": 49.2671263, "lon": -123.2487783}, {"type": "node", "id": 6328176148, "lat": 49.2673209, "lon": -123.2485495}, {"type": "node", "id": 6328176149, "lat": 49.2676007, "lon": -123.2477536}, {"type": "node", "id": 6331822234, "lat": 49.087754, "lon": -123.0616886}, {"type": "node", "id": 6386674505, "lat": 49.2647883, "lon": -123.2153525}, {"type": "node", "id": 6410851965, "lat": 49.2682698, "lon": -123.2475153}, {"type": "node", "id": 6410851966, "lat": 49.2684441, "lon": -123.2476471}, {"type": "node", "id": 6410851967, "lat": 49.2686632, "lon": -123.2477861}, {"type": "node", "id": 6410851969, "lat": 49.2687049, "lon": -123.248411}, {"type": "node", "id": 6410851984, "lat": 49.2688542, "lon": -123.2475705}, {"type": "node", "id": 6410852489, "lat": 49.2678191, "lon": -123.2471477}, {"type": "node", "id": 6410852490, "lat": 49.2678652, "lon": -123.2471932}, {"type": "node", "id": 6410852493, "lat": 49.2681073, "lon": -123.2474005}, {"type": "node", "id": 6410873242, "lat": 49.2689446, "lon": -123.2476157}, {"type": "node", "id": 6410873246, "lat": 49.2679646, "lon": -123.2472811}, {"type": "node", "id": 6417091566, "lat": 49.268891, "lon": -123.2475902}, {"type": "node", "id": 6431927541, "lat": 49.265471, "lon": -123.2153074}, {"type": "node", "id": 6431927542, "lat": 49.2654854, "lon": -123.215949}, {"type": "node", "id": 6431944130, "lat": 49.2611458, "lon": -123.0974366, "tags": {"amenity": "bicycle_rental", "bicycle_rental": "docking_station", "capacity": "16", "name": "11th & Kingsway", "network": "Mobi", "ref": "0179"}}, {"type": "node", "id": 6543616507, "lat": 49.2703309, "lon": -123.1027341, "tags": {"amenity": "bicycle_rental", "bicycle_rental": "docking_station", "capacity": "20", "check_date": "2022-12-31", "name": "Quebec & 1st", "network": "Mobi", "opening_hours": "24/7", "operator": "Shaw", "ref": "0177"}}, {"type": "node", "id": 6546611867, "lat": 49.2651767, "lon": -123.1310129, "tags": {"amenity": "bicycle_rental", "bicycle_rental": "docking_station", "capacity": "16", "name": "7th & Alder", "network": "Mobi", "ref": "0192"}}, {"type": "node", "id": 6546655553, "lat": 49.2589114, "lon": -123.1095676, "tags": {"amenity": "bicycle_rental", "bicycle_rental": "docking_station", "capacity": "14", "name": "Columbia & 14th", "network": "Mobi", "ref": "0180"}}, {"type": "node", "id": 6546674495, "lat": 49.2650434, "lon": -123.1237691, "tags": {"amenity": "bicycle_rental", "bicycle_rental": "docking_station", "capacity": "14", "name": "7th & Laurel", "network": "Mobi", "ref": "0191"}}, {"type": "node", "id": 6553378485, "lat": 49.1932787, "lon": -123.1795173, "tags": {"amenity": "car_rental", "brand": "Hertz", "brand:wikidata": "Q1543874", "brand:wikipedia": "en:The Hertz Corporation", "check_date": "2024-08-10", "name": "Hertz"}}, {"type": "node", "id": 6571708483, "lat": 49.2580237, "lon": -123.0833488, "tags": {"amenity": "bicycle_rental", "bicycle_rental": "docking_station", "capacity": "14", "name": "Windsor & 14th", "network": "Mobi", "ref": "0281"}}, {"type": "node", "id": 6571720143, "lat": 49.2579521, "lon": -123.0895274, "tags": {"amenity": "bicycle_rental", "bicycle_rental": "docking_station", "capacity": "16", "name": "14th & Fraser", "network": "Mobi", "ref": "0282"}}, {"type": "node", "id": 6720179986, "lat": 49.2776095, "lon": -123.095793, "tags": {"amenity": "bicycle_rental", "bicycle_rental": "docking_station", "capacity": "14", "name": "Union & Dunlevy", "network": "Mobi", "ref": "0212"}}, {"type": "node", "id": 6751491071, "lat": 49.2685853, "lon": -123.2477385}, {"type": "node", "id": 6751491072, "lat": 49.2681718, "lon": -123.2474488}, {"type": "node", "id": 6751491074, "lat": 49.2683939, "lon": -123.2476123}, {"type": "node", "id": 6751491082, "lat": 49.2685097, "lon": -123.247694}, {"type": "node", "id": 6751491083, "lat": 49.2682172, "lon": -123.2474823}, {"type": "node", "id": 6751491084, "lat": 49.2680523, "lon": -123.2473545}, {"type": "node", "id": 6751564885, "lat": 49.2679077, "lon": -123.2472357}, {"type": "node", "id": 6821503058, "lat": 49.2772762, "lon": -123.0873497, "tags": {"amenity": "bicycle_rental", "bicycle_rental": "docking_station", "capacity": "16", "name": "Hawks & Union", "network": "Mobi", "ref": "0219"}}, {"type": "node", "id": 6821527269, "lat": 49.2792153, "lon": -123.0874912, "tags": {"amenity": "bicycle_rental", "bicycle_rental": "docking_station", "capacity": "16", "name": "Keefer & Hawks", "network": "Mobi", "ref": "0228"}}, {"type": "node", "id": 6874840991, "lat": 49.2687689, "lon": -123.2478539}, {"type": "node", "id": 6874840992, "lat": 49.2686953, "lon": -123.2484018}, {"type": "node", "id": 6874840993, "lat": 49.2687499, "lon": -123.2482563}, {"type": "node", "id": 6942401537, "lat": 49.1937517, "lon": -123.12126, "tags": {"addr:city": "Richmond", "addr:housenumber": "9231", "addr:province": "BC", "addr:street": "Beckwith Road", "amenity": "car_rental", "name": "Routes", "website": "https://routes.ca/"}}, {"type": "node", "id": 6991395238, "lat": 49.2619701, "lon": -123.0973416, "tags": {"amenity": "bicycle_rental", "bicycle_rental": "docking_station", "capacity": "20", "name": "10th & Kingsway", "network": "Mobi", "ref": "0186"}}, {"type": "node", "id": 7073766819, "lat": 49.2752543, "lon": -123.1325611, "tags": {"amenity": "bicycle_rental", "bicycle_rental": "docking_station", "capacity": "18", "name": "Beach & Hornby", "network": "Mobi", "ref": "0045"}}, {"type": "node", "id": 7092087336, "lat": 49.2777049, "lon": -123.0917253, "tags": {"amenity": "bicycle_rental", "bicycle_rental": "docking_station", "capacity": "12", "name": "Princess & Union", "network": "Mobi", "ref": "0215"}}, {"type": "node", "id": 7187169835, "lat": 49.1954293, "lon": -123.1255038}, {"type": "node", "id": 7187169838, "lat": 49.1948341, "lon": -123.1268612}, {"type": "node", "id": 7187169840, "lat": 49.1948595, "lon": -123.1270813}, {"type": "node", "id": 7187169841, "lat": 49.1948044, "lon": -123.1273268}, {"type": "node", "id": 7187169842, "lat": 49.1948052, "lon": -123.1274553}, {"type": "node", "id": 7187169843, "lat": 49.1948321, "lon": -123.1275735}, {"type": "node", "id": 7187169844, "lat": 49.19486, "lon": -123.1276541}, {"type": "node", "id": 7187169845, "lat": 49.1949277, "lon": -123.1277026}, {"type": "node", "id": 7187169846, "lat": 49.1949909, "lon": -123.1276861}, {"type": "node", "id": 7187169847, "lat": 49.1950773, "lon": -123.1275727}, {"type": "node", "id": 7187169848, "lat": 49.1951483, "lon": -123.1274599}, {"type": "node", "id": 7187169849, "lat": 49.1952951, "lon": -123.1271768}, {"type": "node", "id": 7187169850, "lat": 49.1957932, "lon": -123.1260111}, {"type": "node", "id": 7187169851, "lat": 49.1959831, "lon": -123.1256763}, {"type": "node", "id": 7246742050, "lat": 49.2848699, "lon": -123.128767, "tags": {"amenity": "bicycle_rental", "bicycle_rental": "docking_station", "capacity": "14", "name": "Bute & Barclay", "network": "Mobi", "ref": "0300"}}, {"type": "node", "id": 7246755698, "lat": 49.2639535, "lon": -123.1126594, "tags": {"amenity": "bicycle_rental", "bicycle_rental": "docking_station", "capacity": "14", "name": "8th & Yukon", "network": "Mobi", "ref": "0170"}}, {"type": "node", "id": 7246760802, "lat": 49.2825174, "lon": -123.1246795, "tags": {"amenity": "bicycle_rental", "bicycle_rental": "docking_station", "capacity": "20", "name": "Smithe & Burrard", "network": "Mobi", "ref": "0217"}}, {"type": "node", "id": 7278855513, "lat": 49.2676068, "lon": -123.246835}, {"type": "node", "id": 7332674671, "lat": 49.1921031, "lon": -123.1420543}, {"type": "node", "id": 7332674672, "lat": 49.1912051, "lon": -123.1421666}, {"type": "node", "id": 7332674673, "lat": 49.1912017, "lon": -123.1419795}, {"type": "node", "id": 7332674674, "lat": 49.1918917, "lon": -123.1410706}, {"type": "node", "id": 7332674675, "lat": 49.1921415, "lon": -123.1411562}, {"type": "node", "id": 7597493737, "lat": 49.1946439, "lon": -123.1309839, "tags": {"amenity": "bicycle_rental", "capacity": "10", "fee": "yes", "network": "U-bicycle"}}, {"type": "node", "id": 7619092341, "lat": 49.2045746, "lon": -123.128066, "tags": {"addr:city": "Vancouver", "addr:housenumber": "8910", "addr:street": "Shaughnessy Street", "amenity": "motorcycle_rental", "brand": "EagleRider", "brand:wikidata": "Q5324992", "brand:wikipedia": "en:EagleRider", "name": "EagleRider", "website": "https://www.eaglerider.com/vancouver"}}, {"type": "node", "id": 7714992712, "lat": 49.213644, "lon": -123.1404952}, {"type": "node", "id": 7715212974, "lat": 49.2030609, "lon": -123.1337873}, {"type": "node", "id": 7715212975, "lat": 49.2030171, "lon": -123.1340101}, {"type": "node", "id": 7715212976, "lat": 49.2029627, "lon": -123.134651}, {"type": "node", "id": 7715212977, "lat": 49.2027048, "lon": -123.1338566}, {"type": "node", "id": 7715212978, "lat": 49.2027058, "lon": -123.1335202}, {"type": "node", "id": 7715212979, "lat": 49.2027454, "lon": -123.1331945}, {"type": "node", "id": 7715212980, "lat": 49.2028033, "lon": -123.1329853}, {"type": "node", "id": 7855886605, "lat": 49.268656, "lon": -123.2484887}, {"type": "node", "id": 7855886609, "lat": 49.2677699, "lon": -123.2470207}, {"type": "node", "id": 7855886610, "lat": 49.2677102, "lon": -123.246963}, {"type": "node", "id": 7855886611, "lat": 49.2678395, "lon": -123.2470811}, {"type": "node", "id": 7855886614, "lat": 49.2686813, "lon": -123.2484837}, {"type": "node", "id": 7855889338, "lat": 49.2686093, "lon": -123.2486077}, {"type": "node", "id": 7855921262, "lat": 49.266822, "lon": -123.248432}, {"type": "node", "id": 7855938499, "lat": 49.2671491, "lon": -123.2487986}, {"type": "node", "id": 7855938500, "lat": 49.266934, "lon": -123.2486387}, {"type": "node", "id": 7855938518, "lat": 49.2668811, "lon": -123.2485892}, {"type": "node", "id": 7884886196, "lat": 49.2844582, "lon": -123.1111846, "tags": {"amenity": "bicycle_rental", "bicycle_rental": "docking_station", "capacity": "24", "name": "Richards & Cordova", "network": "Mobi", "ref": "0124"}}, {"type": "node", "id": 7972394551, "lat": 49.0359526, "lon": -123.0684622, "tags": {"amenity": "bus_station", "bus": "yes", "name": "South Delta Exchange", "network": "Translink", "operator": "Coast Mountain Bus Company", "public_transport": "station", "wikidata": "Q28550662"}}, {"type": "node", "id": 8017468332, "lat": 49.1677784, "lon": -123.1363216}, {"type": "node", "id": 8017468333, "lat": 49.1677742, "lon": -123.1350022}, {"type": "node", "id": 8017468334, "lat": 49.1677701, "lon": -123.134318}, {"type": "node", "id": 8026846615, "lat": 49.1675193, "lon": -123.134313}, {"type": "node", "id": 8104401131, "lat": 49.1697109, "lon": -123.1347525, "tags": {"amenity": "car_rental", "name": "A-Plus Rent-a-Car"}}, {"type": "node", "id": 8975399019, "lat": 49.2640753, "lon": -123.1137038, "tags": {"addr:housenumber": "451", "addr:street": "West 8th Avenue", "amenity": "car_rental", "brand": "Avis", "brand:wikidata": "Q791136", "brand:wikipedia": "en:Avis Car Rental", "name": "Avis", "official_name": "Avis Car Rental"}}, {"type": "node", "id": 9025466925, "lat": 49.2856836, "lon": -123.1118234, "tags": {"amenity": "bicycle_rental", "name": "Van City Bikes"}}, {"type": "node", "id": 9064828417, "lat": 49.2599774, "lon": -123.2511503, "tags": {"amenity": "bicycle_rental", "bicycle_rental": "dropoff_point"}}, {"type": "node", "id": 9177375430, "lat": 49.2809374, "lon": -123.1153534, "tags": {"amenity": "bicycle_rental", "bicycle_rental": "docking_station", "capacity": "18", "name": "Georgia & Homer", "network": "Mobi", "ref": "0305"}}, {"type": "node", "id": 9225765442, "lat": 49.2702636, "lon": -123.1349844, "tags": {"amenity": "bicycle_rental", "bicycle_rental": "docking_station", "capacity": "32", "name": "Granville Island", "network": "Mobi", "ref": "0189"}}, {"type": "node", "id": 9351596465, "lat": 49.0916299, "lon": -123.087359, "tags": {"addr:housenumber": "4889", "addr:postcode": "V4K 2T9", "addr:street": "Delta Street", "amenity": "car_rental", "name": "Accent Leasing & Sales", "website": "https://accent.ca/"}}, {"type": "node", "id": 9351597787, "lat": 49.0906226, "lon": -123.0840493, "tags": {"amenity": "bicycle_rental", "name": "Ray's Cycle Service"}}, {"type": "node", "id": 9627729263, "lat": 49.2832577, "lon": -123.1422531, "tags": {"amenity": "bicycle_rental", "bicycle_rental": "docking_station", "capacity": "22", "name": "Beach & Cardero", "network": "Mobi", "ref": "0142"}}, {"type": "node", "id": 9800503599, "lat": 49.265446, "lon": -123.2160314}, {"type": "node", "id": 9804714344, "lat": 49.2654713, "lon": -123.2153203}, {"type": "node", "id": 9804714345, "lat": 49.265367, "lon": -123.2160722}, {"type": "node", "id": 9804714346, "lat": 49.2652616, "lon": -123.216065}, {"type": "node", "id": 9856611354, "lat": 49.2527004, "lon": -123.101258, "tags": {"amenity": "bicycle_rental", "bicycle_rental": "docking_station", "brand": "Mobi", "brand:wikidata": "Q26211470", "capacity": "16", "check_date": "2024-09-24", "name": "20th & Main", "network": "Mobi", "network:wikidata": "Q26211470", "operator": "CycleHop", "operator:type": "private", "operator:wikidata": "Q65121017", "ref": "0561"}}, {"type": "node", "id": 9956044564, "lat": 49.2791766, "lon": -123.119232, "tags": {"amenity": "bicycle_rental", "bicycle_rental": "docking_station", "capacity": "18"}}, {"type": "node", "id": 10013695142, "lat": 49.2855326, "lon": -123.138385, "tags": {"amenity": "bicycle_rental", "bicycle_rental": "docking_station", "capacity": "18", "name": "Cardero & Davie", "network": "Mobi", "ref": "0040"}}, {"type": "node", "id": 10065900745, "lat": 49.167521, "lon": -123.1356251}, {"type": "node", "id": 10119844505, "lat": 49.252656, "lon": -123.067972, "tags": {"amenity": "bicycle_rental", "bicycle_rental": "docking_station", "capacity": "18", "check_date": "2024-07-21", "name": "Commercial & 20th", "network": "Mobi", "ref": "0352"}}, {"type": "node", "id": 10119996110, "lat": 49.2513632, "lon": -123.115664, "tags": {"amenity": "bicycle_rental", "bicycle_rental": "docking_station", "brand": "Mobi", "brand:wikidata": "Q26211470", "capacity": "16", "name": "22nd & Cambie", "network": "Mobi", "network:wikidata": "Q26211470", "operator": "CycleHop", "operator:type": "private", "operator:wikidata": "Q65121017", "ref:gbfs": "mobibikes:0532"}}, {"type": "node", "id": 10148370381, "lat": 49.2595423, "lon": -123.114742, "tags": {"amenity": "bicycle_rental", "bicycle_rental": "docking_station", "capacity": "14", "name": "13th & Cambie", "network": "Mobi", "ref": "0311"}}, {"type": "node", "id": 10148385167, "lat": 49.249185, "lon": -123.1161503, "tags": {"amenity": "bicycle_rental", "bicycle_rental": "docking_station", "capacity": "20", "name": "King Edward & Cambie", "network": "Mobi", "ref": "0524"}}, {"type": "node", "id": 10148396657, "lat": 49.2433945, "lon": -123.104914, "tags": {"amenity": "bicycle_rental", "bicycle_rental": "docking_station", "capacity": "22", "name": "30th & Ontario", "network": "Mobi", "ref": "0557"}}, {"type": "node", "id": 10148404239, "lat": 49.2451129, "lon": -123.1162559, "tags": {"amenity": "bicycle_rental", "bicycle_rental": "docking_station", "capacity": "20", "name": "29th & Cambie", "network": "Mobi", "ref": "0526"}}, {"type": "node", "id": 10148406205, "lat": 49.2548234, "lon": -123.1148079, "tags": {"amenity": "bicycle_rental", "bicycle_rental": "docking_station", "capacity": "24", "name": "18th & Cambie", "network": "Mobi", "ref": "0531"}}, {"type": "node", "id": 10148421788, "lat": 49.249712, "lon": -123.1050223, "tags": {"amenity": "bicycle_rental", "bicycle_rental": "docking_station", "capacity": "12", "name": "Ontario & 23rd", "network": "Mobi", "ref": "0554"}}, {"type": "node", "id": 10205269394, "lat": 49.272223, "lon": -123.097988, "tags": {"amenity": "bicycle_rental", "bicycle_rental": "docking_station", "brand": "Mobi", "brand:wikidata": "Q26211470", "capacity": "18", "name": "Station & Terminal", "network": "Mobi", "network:wikidata": "Q26211470", "operator": "CycleHop", "operator:wikidata": "Q65121017", "ref": "0354"}}, {"type": "node", "id": 10684379400, "lat": 49.2660412, "lon": -123.113084, "tags": {"amenity": "bicycle_rental", "bicycle_rental": "docking_station", "capacity": "18", "name": "Yukon & 6th", "network": "Mobi"}}, {"type": "node", "id": 10793458438, "lat": 49.2549154, "lon": -123.1202069, "tags": {"amenity": "bicycle_rental", "bicycle_rental": "docking_station", "capacity": "15", "name": "18th & Heather", "network": "Mobi"}}, {"type": "node", "id": 10872744817, "lat": 49.2594325, "lon": -123.1456168, "tags": {"amenity": "bicycle_rental", "bicycle_rental": "docking_station", "capacity": "17", "name": "Burrard and 14th", "network": "Mobi", "ref": "0210"}}, {"type": "node", "id": 10885438194, "lat": 49.2710514, "lon": -123.1915178, "tags": {"amenity": "bicycle_rental", "capacity": "34", "name": "Jericho beach", "network": "Mobi"}}, {"type": "node", "id": 11051990295, "lat": 49.281178, "lon": -123.139029, "tags": {"amenity": "bicycle_rental", "bicycle_rental": "docking_station", "capacity": "20", "name": "Beach & Broughton", "network": "Mobi", "ref": "0084"}}, {"type": "node", "id": 11121016105, "lat": 49.2030008, "lon": -123.1344137}, {"type": "node", "id": 11121016106, "lat": 49.2029892, "lon": -123.1346302}, {"type": "node", "id": 11638826389, "lat": 49.2138812, "lon": -123.1404893}, {"type": "node", "id": 11638826390, "lat": 49.2139142, "lon": -123.1405041}, {"type": "node", "id": 11638826391, "lat": 49.2139354, "lon": -123.140526}, {"type": "node", "id": 11638826392, "lat": 49.2139518, "lon": -123.1405634}, {"type": "node", "id": 11638826393, "lat": 49.2139559, "lon": -123.1409741}, {"type": "node", "id": 11663437101, "lat": 49.194896, "lon": -123.127687}, {"type": "node", "id": 11663437102, "lat": 49.1948014, "lon": -123.1272281}, {"type": "node", "id": 11663437108, "lat": 49.1949611, "lon": -123.1276991}, {"type": "node", "id": 11663437109, "lat": 49.1950356, "lon": -123.1276403}, {"type": "node", "id": 11663437110, "lat": 49.1954976, "lon": -123.1267337}, {"type": "node", "id": 11663437111, "lat": 49.1954954, "lon": -123.1266756}, {"type": "node", "id": 11663437112, "lat": 49.1948437, "lon": -123.1271273}, {"type": "node", "id": 11663437113, "lat": 49.1948188, "lon": -123.1275152}, {"type": "node", "id": 11663437122, "lat": 49.1953933, "lon": -123.1255373}, {"type": "node", "id": 11663437123, "lat": 49.1953506, "lon": -123.1256621}, {"type": "node", "id": 11663437124, "lat": 49.1953222, "lon": -123.1257379}, {"type": "node", "id": 11663437125, "lat": 49.1954105, "lon": -123.1255147}, {"type": "node", "id": 11663437126, "lat": 49.1954646, "lon": -123.1255002}, {"type": "node", "id": 11663437127, "lat": 49.1955582, "lon": -123.1255152}, {"type": "node", "id": 11663437128, "lat": 49.1954675, "lon": -123.1255007}, {"type": "node", "id": 11663437129, "lat": 49.1955184, "lon": -123.1255088}, {"type": "node", "id": 11759301488, "lat": 49.2509251, "lon": -123.1012728, "tags": {"amenity": "bicycle_rental", "bicycle_rental": "docking_station", "brand": "Mobi", "brand:wikidata": "Q26211470", "capacity": "9", "fee": "yes", "name": "22nd & Main", "network": "Mobi", "network:wikidata": "Q26211470", "operator": "CycleHop", "operator:type": "private", "operator:wikidata": "Q65121017", "ref": "0563"}}, {"type": "node", "id": 12040611300, "lat": 49.2803059, "lon": -123.1159068, "tags": {"amenity": "bicycle_rental", "bicycle_rental": "dropoff_point"}}, {"type": "node", "id": 12178688767, "lat": 49.2663876, "lon": -123.1093966, "tags": {"amenity": "bicycle_rental", "bicycle_rental": "docking_station", "brand": "Mobi", "brand:wikidata": "Q26211470", "capacity": "18", "check_date": "2024-09-15", "fee": "yes", "name": "Columbia & 5th", "network": "Mobi", "network:wikidata": "Q26211470", "operator": "CycleHop", "operator:type": "private", "operator:wikidata": "Q65121017", "ref": "0165"}}, {"type": "node", "id": 12214884772, "lat": 49.2834816, "lon": -123.1035738, "tags": {"amenity": "bicycle_rental", "bicycle_rental": "docking_station", "capacity": "24", "network": "Mobi"}}, {"type": "node", "id": 12242824348, "lat": 49.2454836, "lon": -123.1205664, "tags": {"amenity": "bicycle_rental", "bicycle_rental": "docking_station", "capacity": "21", "name": "Heather & 29th", "network": "Mobi", "ref": "0516"}}, {"type": "node", "id": 12479100841, "lat": 49.2664153, "lon": -123.1203985}, {"type": "node", "id": 12479100842, "lat": 49.2661155, "lon": -123.1204805}, {"type": "node", "id": 12479100843, "lat": 49.2661244, "lon": -123.1198989}, {"type": "node", "id": 12479100844, "lat": 49.2664847, "lon": -123.1198832}, {"type": "node", "id": 12479100845, "lat": 49.266486, "lon": -123.1202445}, {"type": "node", "id": 12479100846, "lat": 49.266306, "lon": -123.1204373}, {"type": "node", "id": 12479100847, "lat": 49.2664429, "lon": -123.1203733}, {"type": "node", "id": 12479100848, "lat": 49.2664827, "lon": -123.1202781}, {"type": "node", "id": 12479100849, "lat": 49.2664726, "lon": -123.1203199}, {"type": "node", "id": 12479100850, "lat": 49.2664604, "lon": -123.1203483}, {"type": "node", "id": 12703104723, "lat": 49.1482588, "lon": -123.1198745, "tags": {"amenity": "bicycle_rental", "authentication:app": "yes", "bicycle_rental": "dropoff_point", "fee": "yes", "network": "Lime", "operator": "Lime", "operator:type": "private", "payment:app": "yes", "rental": "ebike"}}, {"type": "node", "id": 12703104724, "lat": 49.1536598, "lon": -123.125101, "tags": {"amenity": "bicycle_rental", "authentication:app": "yes", "bicycle_rental": "dropoff_point", "fee": "yes", "network": "Lime", "operator": "Lime", "operator:type": "private", "payment:app": "yes", "rental": "ebike"}}, {"type": "node", "id": 12703104725, "lat": 49.1627906, "lon": -123.1224917, "tags": {"amenity": "bicycle_rental", "authentication:app": "yes", "bicycle_rental": "dropoff_point", "fee": "yes", "network": "Lime", "operator": "Lime", "operator:type": "private", "payment:app": "yes", "rental": "ebike"}}, {"type": "node", "id": 12703104726, "lat": 49.166362, "lon": -123.1243749, "tags": {"amenity": "bicycle_rental", "authentication:app": "yes", "bicycle_rental": "dropoff_point", "fee": "yes", "network": "Lime", "operator": "Lime", "operator:type": "private", "payment:app": "yes", "rental": "ebike"}}, {"type": "node", "id": 12703104727, "lat": 49.1625903, "lon": -123.1307734, "tags": {"amenity": "bicycle_rental", "authentication:app": "yes", "bicycle_rental": "dropoff_point", "fee": "yes", "network": "Lime", "operator": "Lime", "operator:type": "private", "payment:app": "yes", "rental": "ebike"}}, {"type": "node", "id": 12703104728, "lat": 49.1625407, "lon": -123.1364378, "tags": {"amenity": "bicycle_rental", "authentication:app": "yes", "bicycle_rental": "dropoff_point", "covered": "no", "fee": "yes", "network": "Lime", "operator": "Lime", "operator:type": "private", "payment:app": "yes", "rental": "ebike"}}, {"type": "node", "id": 12703104729, "lat": 49.1629118, "lon": -123.1431875, "tags": {"amenity": "bicycle_rental", "authentication:app": "yes", "bicycle_rental": "dropoff_point", "covered": "no", "fee": "yes", "network": "Lime", "operator": "Lime", "operator:type": "private", "payment:app": "yes", "rental": "ebike"}}, {"type": "node", "id": 12703104730, "lat": 49.1628889, "lon": -123.1461664, "tags": {"amenity": "bicycle_rental", "authentication:app": "yes", "bicycle_rental": "dropoff_point", "covered": "no", "fee": "yes", "network": "Lime", "operator": "Lime", "operator:type": "private", "payment:app": "yes", "rental": "ebike"}}, {"type": "node", "id": 12703104731, "lat": 49.1671996, "lon": -123.1475538, "tags": {"amenity": "bicycle_rental", "authentication:app": "yes", "bicycle_rental": "dropoff_point", "covered": "no", "fee": "yes", "network": "Lime", "operator": "Lime", "operator:type": "private", "payment:app": "yes", "rental": "ebike"}}, {"type": "node", "id": 12703104732, "lat": 49.1672508, "lon": -123.1405302, "tags": {"amenity": "bicycle_rental", "authentication:app": "yes", "bicycle_rental": "dropoff_point", "covered": "no", "fee": "yes", "network": "Lime", "operator": "Lime", "operator:type": "private", "payment:app": "yes", "rental": "ebike"}}, {"type": "node", "id": 12703104733, "lat": 49.1667013, "lon": -123.1363385, "tags": {"amenity": "bicycle_rental", "authentication:app": "yes", "bicycle_rental": "dropoff_point", "covered": "no", "fee": "yes", "network": "Lime", "operator": "Lime", "operator:type": "private", "payment:app": "yes", "rental": "ebike"}}, {"type": "node", "id": 12703104734, "lat": 49.1689143, "lon": -123.1362034, "tags": {"amenity": "bicycle_rental", "authentication:app": "yes", "bicycle_rental": "dropoff_point", "covered": "no", "fee": "yes", "network": "Lime", "operator": "Lime", "operator:type": "private", "payment:app": "yes", "rental": "ebike"}}, {"type": "node", "id": 12703104735, "lat": 49.1697767, "lon": -123.136299, "tags": {"amenity": "bicycle_rental", "authentication:app": "yes", "bicycle_rental": "dropoff_point", "covered": "no", "fee": "yes", "network": "Lime", "operator": "Lime", "operator:type": "private", "payment:app": "yes", "rental": "ebike"}}, {"type": "node", "id": 12703104736, "lat": 49.1703164, "lon": -123.136086, "tags": {"amenity": "bicycle_rental", "authentication:app": "yes", "bicycle_rental": "dropoff_point", "covered": "no", "fee": "yes", "network": "Lime", "operator": "Lime", "operator:type": "private", "payment:app": "yes", "rental": "ebike"}}, {"type": "node", "id": 12703104737, "lat": 49.1712549, "lon": -123.1369447, "tags": {"amenity": "bicycle_rental", "authentication:app": "yes", "bicycle_rental": "dropoff_point", "covered": "no", "fee": "yes", "network": "Lime", "operator": "Lime", "operator:type": "private", "payment:app": "yes", "rental": "ebike"}}, {"type": "node", "id": 12703104738, "lat": 49.1718114, "lon": -123.1363772, "tags": {"amenity": "bicycle_rental", "authentication:app": "yes", "bicycle_rental": "dropoff_point", "covered": "no", "fee": "yes", "network": "Lime", "operator": "Lime", "operator:type": "private", "payment:app": "yes", "rental": "ebike"}}, {"type": "node", "id": 12703104739, "lat": 49.1721527, "lon": -123.1369758, "tags": {"amenity": "bicycle_rental", "authentication:app": "yes", "bicycle_rental": "dropoff_point", "covered": "no", "fee": "yes", "network": "Lime", "operator": "Lime", "operator:type": "private", "payment:app": "yes", "rental": "ebike"}}, {"type": "node", "id": 12703104740, "lat": 49.17218, "lon": -123.136444, "tags": {"amenity": "bicycle_rental", "authentication:app": "yes", "bicycle_rental": "dropoff_point", "covered": "no", "fee": "yes", "network": "Lime", "operator": "Lime", "operator:type": "private", "payment:app": "yes", "rental": "ebike"}}, {"type": "node", "id": 12703104741, "lat": 49.1719335, "lon": -123.1398362, "tags": {"amenity": "bicycle_rental", "authentication:app": "yes", "bicycle_rental": "dropoff_point", "covered": "no", "fee": "yes", "network": "Lime", "operator": "Lime", "operator:type": "private", "payment:app": "yes", "rental": "ebike"}}, {"type": "node", "id": 12703104742, "lat": 49.1740658, "lon": -123.1364116, "tags": {"amenity": "bicycle_rental", "authentication:app": "yes", "bicycle_rental": "dropoff_point", "covered": "no", "fee": "yes", "network": "Lime", "operator": "Lime", "operator:type": "private", "payment:app": "yes", "rental": "ebike"}}, {"type": "node", "id": 12703104743, "lat": 49.17521, "lon": -123.1365759, "tags": {"amenity": "bicycle_rental", "authentication:app": "yes", "bicycle_rental": "dropoff_point", "covered": "no", "fee": "yes", "network": "Lime", "operator": "Lime", "operator:type": "private", "payment:app": "yes", "rental": "ebike"}}, {"type": "node", "id": 12703104744, "lat": 49.1772419, "lon": -123.1363874, "tags": {"amenity": "bicycle_rental", "authentication:app": "yes", "bicycle_rental": "dropoff_point", "covered": "no", "fee": "yes", "network": "Lime", "operator": "Lime", "operator:type": "private", "payment:app": "yes", "rental": "ebike"}}, {"type": "node", "id": 12703104745, "lat": 49.1772072, "lon": -123.1363061, "tags": {"amenity": "bicycle_rental", "authentication:app": "yes", "bicycle_rental": "dropoff_point", "covered": "no", "fee": "yes", "network": "Lime", "operator": "Lime", "operator:type": "private", "payment:app": "yes", "rental": "ebike"}}, {"type": "node", "id": 12703104746, "lat": 49.1781705, "lon": -123.1363664, "tags": {"amenity": "bicycle_rental", "authentication:app": "yes", "bicycle_rental": "dropoff_point", "covered": "no", "fee": "yes", "network": "Lime", "operator": "Lime", "operator:type": "private", "payment:app": "yes", "rental": "ebike"}}, {"type": "node", "id": 12703104747, "lat": 49.1786019, "lon": -123.1363928, "tags": {"amenity": "bicycle_rental", "authentication:app": "yes", "bicycle_rental": "dropoff_point", "covered": "no", "fee": "yes", "network": "Lime", "operator": "Lime", "operator:type": "private", "payment:app": "yes", "rental": "ebike"}}, {"type": "node", "id": 12703104748, "lat": 49.1795854, "lon": -123.1364001, "tags": {"amenity": "bicycle_rental", "authentication:app": "yes", "bicycle_rental": "dropoff_point", "covered": "no", "fee": "yes", "network": "Lime", "operator": "Lime", "operator:type": "private", "payment:app": "yes", "rental": "ebike"}}, {"type": "node", "id": 12703104749, "lat": 49.1811003, "lon": -123.136394, "tags": {"amenity": "bicycle_rental", "authentication:app": "yes", "bicycle_rental": "dropoff_point", "covered": "no", "fee": "yes", "network": "Lime", "operator": "Lime", "operator:type": "private", "payment:app": "yes", "rental": "ebike"}}, {"type": "node", "id": 12703104750, "lat": 49.1845182, "lon": -123.1385655, "tags": {"amenity": "bicycle_rental", "authentication:app": "yes", "bicycle_rental": "dropoff_point", "covered": "no", "fee": "yes", "network": "Lime", "operator": "Lime", "operator:type": "private", "payment:app": "yes", "rental": "ebike"}}, {"type": "node", "id": 12703104751, "lat": 49.1848238, "lon": -123.1360173, "tags": {"amenity": "bicycle_rental", "authentication:app": "yes", "bicycle_rental": "dropoff_point", "covered": "no", "fee": "yes", "network": "Lime", "operator": "Lime", "operator:type": "private", "payment:app": "yes", "rental": "ebike"}}, {"type": "node", "id": 12703104752, "lat": 49.1830081, "lon": -123.1337247, "tags": {"amenity": "bicycle_rental", "authentication:app": "yes", "bicycle_rental": "dropoff_point", "covered": "no", "fee": "yes", "network": "Lime", "operator": "Lime", "operator:type": "private", "payment:app": "yes", "rental": "ebike"}}, {"type": "node", "id": 12703104753, "lat": 49.184787, "lon": -123.1311075, "tags": {"amenity": "bicycle_rental", "authentication:app": "yes", "bicycle_rental": "dropoff_point", "covered": "no", "fee": "yes", "network": "Lime", "operator": "Lime", "operator:type": "private", "payment:app": "yes", "rental": "ebike"}}, {"type": "node", "id": 12703104754, "lat": 49.1775889, "lon": -123.1243879, "tags": {"amenity": "bicycle_rental", "authentication:app": "yes", "bicycle_rental": "dropoff_point", "covered": "no", "fee": "yes", "network": "Lime", "operator": "Lime", "operator:type": "private", "payment:app": "yes", "rental": "ebike"}}, {"type": "node", "id": 12703104755, "lat": 49.1794334, "lon": -123.1248485, "tags": {"amenity": "bicycle_rental", "authentication:app": "yes", "bicycle_rental": "dropoff_point", "covered": "no", "fee": "yes", "network": "Lime", "operator": "Lime", "operator:type": "private", "payment:app": "yes", "rental": "ebike"}}, {"type": "node", "id": 12703104756, "lat": 49.1794395, "lon": -123.1258711, "tags": {"amenity": "bicycle_rental", "authentication:app": "yes", "bicycle_rental": "dropoff_point", "covered": "no", "fee": "yes", "network": "Lime", "operator": "Lime", "operator:type": "private", "payment:app": "yes", "rental": "ebike"}}, {"type": "node", "id": 12703104757, "lat": 49.1794192, "lon": -123.1258719, "tags": {"amenity": "bicycle_rental", "authentication:app": "yes", "bicycle_rental": "dropoff_point", "covered": "no", "fee": "yes", "network": "Lime", "operator": "Lime", "operator:type": "private", "payment:app": "yes", "rental": "ebike"}}, {"type": "node", "id": 12703104758, "lat": 49.178973, "lon": -123.1184668, "tags": {"amenity": "bicycle_rental", "authentication:app": "yes", "bicycle_rental": "dropoff_point", "covered": "no", "fee": "yes", "network": "Lime", "operator": "Lime", "operator:type": "private", "payment:app": "yes", "rental": "ebike"}}, {"type": "node", "id": 12703104759, "lat": 49.1832798, "lon": -123.1200362, "tags": {"amenity": "bicycle_rental", "authentication:app": "yes", "bicycle_rental": "dropoff_point", "covered": "no", "fee": "yes", "network": "Lime", "operator": "Lime", "operator:type": "private", "payment:app": "yes", "rental": "ebike"}}, {"type": "node", "id": 12703104760, "lat": 49.1845219, "lon": -123.1247754, "tags": {"amenity": "bicycle_rental", "authentication:app": "yes", "bicycle_rental": "dropoff_point", "covered": "no", "fee": "yes", "network": "Lime", "operator": "Lime", "operator:type": "private", "payment:app": "yes", "rental": "ebike"}}, {"type": "node", "id": 12703104761, "lat": 49.1891134, "lon": -123.1279129, "tags": {"amenity": "bicycle_rental", "authentication:app": "yes", "bicycle_rental": "dropoff_point", "covered": "no", "fee": "yes", "network": "Lime", "operator": "Lime", "operator:type": "private", "payment:app": "yes", "rental": "ebike"}}, {"type": "node", "id": 12703104762, "lat": 49.1886336, "lon": -123.1324345, "tags": {"amenity": "bicycle_rental", "authentication:app": "yes", "bicycle_rental": "dropoff_point", "covered": "no", "fee": "yes", "network": "Lime", "operator": "Lime", "operator:type": "private", "payment:app": "yes", "rental": "ebike"}}, {"type": "node", "id": 12703104763, "lat": 49.1890498, "lon": -123.1326755, "tags": {"amenity": "bicycle_rental", "authentication:app": "yes", "bicycle_rental": "dropoff_point", "covered": "no", "fee": "yes", "network": "Lime", "operator": "Lime", "operator:type": "private", "payment:app": "yes", "rental": "ebike"}}, {"type": "node", "id": 12703104764, "lat": 49.1908265, "lon": -123.132963, "tags": {"amenity": "bicycle_rental", "authentication:app": "yes", "bicycle_rental": "dropoff_point", "covered": "no", "fee": "yes", "network": "Lime", "operator": "Lime", "operator:type": "private", "payment:app": "yes", "rental": "ebike"}}, {"type": "node", "id": 12703104765, "lat": 49.192148, "lon": -123.1280486, "tags": {"amenity": "bicycle_rental", "authentication:app": "yes", "bicycle_rental": "dropoff_point", "covered": "no", "fee": "yes", "network": "Lime", "operator": "Lime", "operator:type": "private", "payment:app": "yes", "rental": "ebike"}}, {"type": "node", "id": 12703104766, "lat": 49.1948074, "lon": -123.1279024, "tags": {"amenity": "bicycle_rental", "authentication:app": "yes", "bicycle_rental": "dropoff_point", "covered": "no", "fee": "yes", "network": "Lime", "operator": "Lime", "operator:type": "private", "payment:app": "yes", "rental": "ebike"}}, {"type": "node", "id": 12703104767, "lat": 49.1992111, "lon": -123.1137776, "tags": {"amenity": "bicycle_rental", "authentication:app": "yes", "bicycle_rental": "dropoff_point", "covered": "no", "fee": "yes", "network": "Lime", "operator": "Lime", "operator:type": "private", "payment:app": "yes", "rental": "ebike"}}, {"type": "node", "id": 12703104768, "lat": 49.1760834, "lon": -123.1454793, "tags": {"amenity": "bicycle_rental", "authentication:app": "yes", "bicycle_rental": "dropoff_point", "covered": "no", "fee": "yes", "network": "Lime", "operator": "Lime", "operator:type": "private", "payment:app": "yes", "rental": "ebike"}}, {"type": "node", "id": 12703104769, "lat": 49.1741137, "lon": -123.1438671, "tags": {"amenity": "bicycle_rental", "authentication:app": "yes", "bicycle_rental": "dropoff_point", "covered": "no", "fee": "yes", "network": "Lime", "operator": "Lime", "operator:type": "private", "payment:app": "yes", "rental": "ebike"}}, {"type": "node", "id": 12703104770, "lat": 49.1737401, "lon": -123.1473239, "tags": {"amenity": "bicycle_rental", "authentication:app": "yes", "bicycle_rental": "dropoff_point", "covered": "no", "fee": "yes", "network": "Lime", "operator": "Lime", "operator:type": "private", "payment:app": "yes", "rental": "ebike"}}, {"type": "node", "id": 12703104771, "lat": 49.17438, "lon": -123.1499688, "tags": {"amenity": "bicycle_rental", "authentication:app": "yes", "bicycle_rental": "dropoff_point", "covered": "no", "fee": "yes", "network": "Lime", "operator": "Lime", "operator:type": "private", "payment:app": "yes", "rental": "ebike"}}, {"type": "node", "id": 12703104772, "lat": 49.16255, "lon": -123.1518163, "tags": {"amenity": "bicycle_rental", "authentication:app": "yes", "bicycle_rental": "dropoff_point", "covered": "no", "fee": "yes", "network": "Lime", "operator": "Lime", "operator:type": "private", "payment:app": "yes", "rental": "ebike"}}, {"type": "node", "id": 12703104773, "lat": 49.1625506, "lon": -123.1647441, "tags": {"amenity": "bicycle_rental", "authentication:app": "yes", "bicycle_rental": "dropoff_point", "covered": "no", "fee": "yes", "network": "Lime", "operator": "Lime", "operator:type": "private", "payment:app": "yes", "rental": "ebike"}}, {"type": "node", "id": 12703104774, "lat": 49.1621402, "lon": -123.1697748, "tags": {"amenity": "bicycle_rental", "authentication:app": "yes", "bicycle_rental": "dropoff_point", "covered": "no", "fee": "yes", "network": "Lime", "operator": "Lime", "operator:type": "private", "payment:app": "yes", "rental": "ebike"}}, {"type": "node", "id": 12703104775, "lat": 49.1556909, "lon": -123.1700532, "tags": {"amenity": "bicycle_rental", "authentication:app": "yes", "bicycle_rental": "dropoff_point", "covered": "no", "fee": "yes", "network": "Lime", "operator": "Lime", "operator:type": "private", "payment:app": "yes", "rental": "ebike"}}, {"type": "node", "id": 12703104776, "lat": 49.1524217, "lon": -123.1696797, "tags": {"amenity": "bicycle_rental", "authentication:app": "yes", "bicycle_rental": "dropoff_point", "covered": "no", "fee": "yes", "network": "Lime", "operator": "Lime", "operator:type": "private", "payment:app": "yes", "rental": "ebike"}}, {"type": "node", "id": 12703104777, "lat": 49.1443003, "lon": -123.1702885, "tags": {"amenity": "bicycle_rental", "authentication:app": "yes", "bicycle_rental": "dropoff_point", "covered": "no", "fee": "yes", "network": "Lime", "operator": "Lime", "operator:type": "private", "payment:app": "yes", "rental": "ebike"}}, {"type": "node", "id": 12703104778, "lat": 49.1333586, "lon": -123.1700995, "tags": {"amenity": "bicycle_rental", "authentication:app": "yes", "bicycle_rental": "dropoff_point", "covered": "no", "fee": "yes", "network": "Lime", "operator": "Lime", "operator:type": "private", "payment:app": "yes", "rental": "ebike"}}, {"type": "node", "id": 12703104779, "lat": 49.1175897, "lon": -123.157572, "tags": {"amenity": "bicycle_rental", "authentication:app": "yes", "bicycle_rental": "dropoff_point", "covered": "no", "fee": "yes", "network": "Lime", "operator": "Lime", "operator:type": "private", "payment:app": "yes", "rental": "ebike"}}, {"type": "node", "id": 12703104780, "lat": 49.1230678, "lon": -123.1788266, "tags": {"amenity": "bicycle_rental", "authentication:app": "yes", "bicycle_rental": "dropoff_point", "covered": "no", "fee": "yes", "network": "Lime", "operator": "Lime", "operator:type": "private", "payment:app": "yes", "rental": "ebike"}}, {"type": "node", "id": 12703104781, "lat": 49.1252839, "lon": -123.1788184, "tags": {"amenity": "bicycle_rental", "authentication:app": "yes", "bicycle_rental": "dropoff_point", "covered": "no", "fee": "yes", "network": "Lime", "operator": "Lime", "operator:type": "private", "payment:app": "yes", "rental": "ebike"}}, {"type": "node", "id": 12703104782, "lat": 49.1263551, "lon": -123.1874334, "tags": {"amenity": "bicycle_rental", "authentication:app": "yes", "bicycle_rental": "dropoff_point", "covered": "no", "fee": "yes", "network": "Lime", "operator": "Lime", "operator:type": "private", "payment:app": "yes", "rental": "ebike"}}, {"type": "node", "id": 12703104783, "lat": 49.1263215, "lon": -123.1870152, "tags": {"amenity": "bicycle_rental", "authentication:app": "yes", "bicycle_rental": "dropoff_point", "covered": "no", "fee": "yes", "network": "Lime", "operator": "Lime", "operator:type": "private", "payment:app": "yes", "rental": "ebike"}}, {"type": "way", "id": 26525472, "nodes": [290731401, 6331822234, 290731402, 290731403, 290731407, 290731401], "tags": {"amenity": "bus_station", "bus": "yes", "name": "Ladner Exchange", "public_transport": "station", "wheelchair": "yes", "wikidata": "Q19879672"}}, {"type": "way", "id": 406355328, "nodes": [4084316619, 4084316620, 4084316621, 4084316622, 4084316619], "tags": {"amenity": "bicycle_rental", "bicycle_rental": "docking_station", "capacity": "34", "name": "Dunsmuir & Richards", "network": "Mobi", "ref": "0012"}}, {"type": "way", "id": 517643070, "nodes": [6410852489, 6410852490, 6751564885, 6410873246, 6751491084, 6410852493, 6751491072, 6751491083, 6410851965, 6751491074, 6410851966, 6751491082, 6751491071, 6410851967, 6874840991, 6410851984]}, {"type": "way", "id": 665352221, "nodes": [6227590609, 6227590610, 6227590611, 6227590612, 6227590609], "tags": {"amenity": "bus_station", "bus": "yes", "name": "Dunbar Loop", "network": "TransLink", "operator": "Coast Mountain Bus Company", "public_transport": "station", "start_date": "1950-05-22", "website": "https://infomaps.translink.ca/System_Maps/exchange_maps/dunbar.pdf"}}, {"type": "way", "id": 686216161, "nodes": [6431927541, 6386674505, 1386719176, 1386719167, 1386719218, 9804714346, 9804714345, 1386719208, 9800503599, 6431927542, 9804714344, 6431927541], "tags": {"amenity": "bus_station", "bus": "yes", "name": "Blanca Loop", "public_transport": "station"}}, {"type": "way", "id": 734086380, "nodes": [6328176149, 6328176148, 5290614732, 6328176146, 7855938499, 6328176147, 5290614717, 7855938500, 7855938518, 5290614715, 7855921262, 5290614719, 5290614726, 7278855513, 7855886610, 7855886609, 7855886611, 6410852489]}, {"type": "way", "id": 734086382, "nodes": [6410851984, 6417091566, 6410873242, 6874840993, 6874840992, 6410851969, 7855886614, 7855886605, 7855889338, 307349298, 3488072624, 3488072344, 6328176149]}, {"type": "way", "id": 769877738, "nodes": [7187169835, 11663437125, 11663437122, 11663437123, 11663437124, 7187169838, 7187169840, 11663437112, 11663437102, 7187169841, 7187169842, 11663437113, 7187169843, 7187169844, 11663437101, 7187169845, 11663437108, 7187169846, 11663437109, 7187169847, 7187169848, 7187169849, 11663437110, 11663437111, 7187169850, 7187169851, 11663437127, 11663437129, 11663437128, 11663437126, 7187169835], "tags": {"amenity": "bus_station", "bus": "yes", "name": "Bridgeport Station", "public_transport": "station", "wheelchair": "yes"}}, {"type": "way", "id": 784865710, "nodes": [7332674671, 7332674672, 7332674673, 7332674674, 7332674675, 7332674671], "tags": {"amenity": "bus_station", "building": "no", "bus": "yes", "name": "Airport Station", "public_transport": "station", "wikidata": "Q4698952"}}, {"type": "way", "id": 826335012, "nodes": [4270712690, 7715212974, 7715212975, 11121016105, 11121016106, 7715212976, 7715212977, 7715212978, 7715212979, 7715212980, 4270712690], "tags": {"amenity": "bus_station", "building": "no", "bus": "yes", "name": "Marpole Loop", "network": "Translink", "phone": "+1-604-953-3333", "public_transport": "station", "website": "https://translink.ca/"}}, {"type": "way", "id": 860237979, "nodes": [8017468332, 8017468333, 8017468334, 8026846615, 10065900745, 1014250131, 8017468332], "tags": {"addr:city": "Richmond", "addr:housenumber": "6302", "addr:province": "BC", "addr:street": "Number 3 Road", "amenity": "bus_station", "bus": "yes", "name": "Richmond-Brighouse Exchange", "network": "Translink", "operator": "Coast Mountain Bus Company/Translink", "public_transport": "station"}}, {"type": "way", "id": 1252115056, "nodes": [957183089, 7714992712, 11638826389, 11638826390, 11638826391, 11638826392, 11638826393, 957183089], "tags": {"addr:housenumber": "7907", "addr:street": "Granville Street", "amenity": "bus_station", "name": "63rd Avenue Loop", "network": "Translink", "operator": "Coast Mountain Bus Company", "public_transport": "station", "trolleybus": "yes", "wheelchair": "yes"}}, {"type": "way", "id": 1349064239, "nodes": [12479100841, 12479100846, 12479100842, 12479100843, 12479100844, 12479100845, 12479100848, 12479100849, 12479100850, 12479100847, 12479100841], "tags": {"amenity": "bus_station", "bus": "yes", "name": "Heather Square", "network": "Translink", "operator": "Coast Mountain Bus Company", "public_transport": "station"}}, {"type": "relation", "id": 10150537, "members": [{"type": "way", "ref": 517643070, "role": "outer"}, {"type": "way", "ref": 734086382, "role": "outer"}, {"type": "way", "ref": 734086380, "role": "outer"}], "tags": {"amenity": "bus_station", "bus": "yes", "internet_access": "wlan", "internet_access:fee": "no", "level": "0", "name": "UBC Bus Exchange", "network": "TransLink", "operator": "Coast Mountain Bus Company", "public_transport": "station", "type": "multipolygon", "wheelchair": "yes", "wikidata": "Q7863804", "wikipedia": "en:UBC Exchange"}}]}