{"version": 0.6, "generator": "Overpass API 0.7.62.5 1bd436f1", "osm3s": {"timestamp_osm_base": "2025-04-11T22:33:44Z", "copyright": "The data included in this document is from www.openstreetmap.org. The data is made available under ODbL."}, "elements": [{"type": "node", "id": 2793876851, "lat": 49.0531224, "lon": -122.3293022}, {"type": "node", "id": 2793876852, "lat": 49.0531416, "lon": -122.3284417}, {"type": "node", "id": 2793876857, "lat": 49.0533278, "lon": -122.3284512}, {"type": "node", "id": 2793876860, "lat": 49.0533105, "lon": -122.3293099}, {"type": "node", "id": 3049892280, "lat": 49.053127, "lon": -122.3290737}, {"type": "node", "id": 3049892282, "lat": 49.0531368, "lon": -122.3286596}, {"type": "node", "id": 3049892297, "lat": 49.0533151, "lon": -122.3290498}, {"type": "node", "id": 3049892302, "lat": 49.0535269, "lon": -122.3288962, "tags": {"artist_name": "Norm Williams, Dean Lauz\u00e9, Barry Makela", "artwork_type": "sculpture", "name": "Unity", "start_date": "2001-04-21", "tourism": "artwork", "website": "https://www.tourismabbotsford.ca/Monuments"}}, {"type": "node", "id": 3049892307, "lat": 49.0533221, "lon": -122.3287153}, {"type": "node", "id": 3052982193, "lat": 49.048782, "lon": -122.3042782, "tags": {"amenity": "bench", "artist_name": "Norm Williams", "artwork_type": "sculpture", "backrest": "yes", "name": "Valley Feed Bag bench", "start_date": "2001", "tourism": "artwork", "website": "https://www.tourismabbotsford.ca/Benches"}}, {"type": "node", "id": 3063883207, "lat": 49.0434496, "lon": -122.3094216}, {"type": "node", "id": 3063883208, "lat": 49.0434589, "lon": -122.3093696}, {"type": "node", "id": 3063883209, "lat": 49.0434209, "lon": -122.3093537}, {"type": "node", "id": 3063883210, "lat": 49.0434116, "lon": -122.3094057}, {"type": "node", "id": 3100719265, "lat": 49.0527338, "lon": -122.3541442, "tags": {"artwork_type": "statue", "description": "Fish", "material": "ceramic", "tourism": "artwork"}}, {"type": "node", "id": 3142885777, "lat": 49.0420788, "lon": -122.3043045, "tags": {"artwork_type": "mural", "name": "Stream of Dreams", "start_date": "2009", "tourism": "artwork", "website": "https://www.streamofdreams.org/index.php?pgid=100&id=280"}}, {"type": "node", "id": 3176160092, "lat": 49.0356406, "lon": -122.3375632, "tags": {"artist_name": "Manjit Sandhu", "artwork_type": "sculpture", "name": "Raspberries", "note": "https://vdz.ca/media/file/4369bc30-5489-4c4a-89ab-ca88c401b096", "source": "http://www.abbynews.com/news/125012219.html", "tourism": "artwork"}}, {"type": "node", "id": 3176238732, "lat": 49.0335582, "lon": -122.292848, "tags": {"artist_name": "Raphael Silver", "artwork_type": "sculpture", "name": "Salmon Monument", "source": "http://www.abbynews.com/news/116401929.html", "tourism": "artwork"}}, {"type": "node", "id": 3176240271, "lat": 49.043062, "lon": -122.3008814, "tags": {"artist_name": "Bruce Voyce", "artwork_type": "sculpture", "name": "The Page Turner", "source": "http://www.abbynews.com/news/148294845.html", "tourism": "artwork", "website": "https://brucevoyce.com/art_cat/interactive/"}}, {"type": "node", "id": 3248656861, "lat": 49.0491529, "lon": -122.2902052, "tags": {"amenity": "bench", "artist_name": "Vladimir Chved", "artwork_type": "statue", "name": "Three Men Telling Tall Tales Bench 1999", "operator": "Dream Art Productions inc. (604)702 1129", "start_date": "1999", "tourism": "artwork", "website": "https://www.tourismabbotsford.ca/Benches"}}, {"type": "node", "id": 3297409680, "lat": 49.0457739, "lon": -122.2878072, "tags": {"artist_name": "Dean Lauz\u00e9", "artwork_type": "mural", "name": "Games Legacy", "start_date": "1994", "tourism": "artwork", "website": "https://www.tourismabbotsford.ca/Murals"}}, {"type": "node", "id": 3305141761, "lat": 49.0487688, "lon": -122.2891869, "tags": {"artist_name": "Kimi Creations", "artwork_type": "mural", "information": "map", "name": "Cartoon Map", "start_date": "2005", "tourism": "artwork", "website": "https://www.tourismabbotsford.ca/Murals"}}, {"type": "node", "id": 3310851583, "lat": 49.0499932, "lon": -122.290217, "tags": {"amenity": "bench", "artwork_type": "sculpture", "description": "Inspired by all who are dedicated to the care and protection of our natural environment", "material": "wood", "tourism": "artwork", "website": "https://www.tourismabbotsford.ca/Benches"}}, {"type": "node", "id": 3310851584, "lat": 49.0478988, "lon": -122.2904894, "tags": {"amenity": "bench", "artist_name": "Brian C. Davidson", "artwork_type": "sculpture", "inscription": "Expressions bench sponsored by Abbotsford Arts Council 1999", "name": "Expressions", "tourism": "artwork", "website": "https://www.tourismabbotsford.ca/Benches"}}, {"type": "node", "id": 3310851585, "lat": 49.0486962, "lon": -122.2915555, "tags": {"artist_name": "D'Arts", "artwork_type": "mural", "name": "Baseball", "tourism": "artwork", "website": "https://lauze.com/portfolio/portfolio_pages/baseball.html"}}, {"type": "node", "id": 3340809893, "lat": 49.0526675, "lon": -122.3176918, "tags": {"artwork_type": "mural", "tourism": "artwork", "website": "https://lauze.com/portfolio/murals/public-commercial/inspiration-park"}}, {"type": "node", "id": 3440123619, "lat": 49.0511778, "lon": -122.3115905, "tags": {"artist_name": "Doug Cariou", "artwork_type": "mural", "name": "Cry for Africa", "tourism": "artwork", "website": "http://cyrusart.com/cryforafrica/cryforafrica.html"}}, {"type": "node", "id": 3445121993, "lat": 49.0528774, "lon": -122.3269419, "tags": {"artwork_type": "sculpture", "tourism": "artwork"}}, {"type": "node", "id": 3567491991, "lat": 49.0295346, "lon": -122.2854029, "tags": {"crossing": "uncontrolled", "crossing:island": "no", "crossing:markings": "zebra", "highway": "crossing", "tactile_paving": "no", "traffic_calming": "hump"}}, {"type": "node", "id": 3569202495, "lat": 49.045744, "lon": -122.2901782}, {"type": "node", "id": 3569208295, "lat": 49.0457027, "lon": -122.290101}, {"type": "node", "id": 3569228195, "lat": 49.0456964, "lon": -122.2891809}, {"type": "node", "id": 3582334895, "lat": 49.0488691, "lon": -122.2886721, "tags": {"amenity": "bench", "artist_name": "Norm Williams", "artwork_type": "sculpture", "description": "The Abbotsford News", "name": "STRAUSS AND GALLO WATCHING THE FARM", "tourism": "artwork", "website": "https://www.tourismabbotsford.ca/Benches"}}, {"type": "node", "id": 3587066493, "lat": 49.0494648, "lon": -122.2892041, "tags": {"artist_name": "Dean Lauz\u00e9", "artwork_type": "mural", "name": "Karl's Meats", "start_date": "2013-04-24", "tourism": "artwork", "website": "https://www.tourismabbotsford.ca/Murals"}}, {"type": "node", "id": 3611835099, "lat": 49.0500839, "lon": -122.3347082, "tags": {"artist_name": "Dan", "artwork_type": "mural", "name": "Indo-Canadian Meat Shop", "tourism": "artwork"}}, {"type": "node", "id": 3621152693, "lat": 49.0460146, "lon": -122.2914095, "tags": {"artist_name": "Tammy Cripps", "artwork_type": "mural", "name": "Non-Slip", "start_date": "2005", "tourism": "artwork", "website": "https://www.tourismabbotsford.ca/Murals"}}, {"type": "node", "id": 3771950557, "lat": 49.05046, "lon": -122.288805, "tags": {"artist_name": "Dean Lauz\u00e9", "artwork_type": "mural", "name": "Mill Lake 1908", "tourism": "artwork"}}, {"type": "node", "id": 3772666657, "lat": 49.0492178, "lon": -122.2867934, "tags": {"artwork_type": "mural", "tourism": "artwork"}}, {"type": "node", "id": 3781042003, "lat": 49.0546093, "lon": -122.3291658, "tags": {"artist_name": "D'Arts - Dean Lauz\u00e9, Christina Lauz\u00e9", "artwork_type": "sculpture", "description": "A MONUMENT TO FARMWORKERS", "historic": "monument", "material": "metal, plastic,epoxy,urethane,fibreglass,Bondo,gold", "name": "The Golden Tree", "tourism": "artwork", "website": "https://www.goldentree.ca/"}}, {"type": "node", "id": 3825606559, "lat": 49.0506112, "lon": -122.310238, "tags": {"artwork_type": "sculpture", "tourism": "artwork"}}, {"type": "node", "id": 3942775857, "lat": 49.0426435, "lon": -122.2799477, "tags": {"artwork_type": "statue", "description": "polar bear", "tourism": "artwork"}}, {"type": "node", "id": 3962495660, "lat": 49.0510344, "lon": -122.3069935, "tags": {"artwork_type": "statue", "tourism": "artwork"}}, {"type": "node", "id": 4278567289, "lat": 49.0623812, "lon": -122.3257242, "tags": {"artist_name": "McDonald & Ross Construction", "artwork_type": "sculpture", "historic": "memorial", "name": "Jane Swan Memorial", "source": "http://tourismabby.hoolahoop.net/Statues", "start_date": "2005-02", "tourism": "artwork"}}, {"type": "node", "id": 4310331692, "lat": 49.0492699, "lon": -122.3040595, "tags": {"artwork_type": "mural", "description": "Impact Society mural", "tourism": "artwork"}}, {"type": "node", "id": 4310357289, "lat": 49.0493032, "lon": -122.3038293, "tags": {"artwork_type": "mural", "description": "Impact Society mural", "tourism": "artwork"}}, {"type": "node", "id": 4826324921, "lat": 49.0151095, "lon": -122.2655719, "tags": {"artwork_type": "sculpture", "description": "inukshuk", "tourism": "artwork"}}, {"type": "node", "id": 4895015521, "lat": 49.0533089, "lon": -122.3543505, "tags": {"artwork_type": "mural", "tourism": "artwork"}}, {"type": "node", "id": 5351053224, "lat": 49.024029, "lon": -122.2649438, "tags": {"artist_name": "Dean Lauz\u00e9 / D'Arts assisted by Josh & Christina Lauz\u00e9", "artwork_type": "mural", "length": "160'", "lit": "yes", "name": "Valley Farm Life Mid 1900's", "start_date": "2018-01-12", "tourism": "artwork"}}, {"type": "node", "id": 5476769521, "lat": 49.0473964, "lon": -122.2885004, "tags": {"artist_name": "Ericka Walker", "artwork_type": "mural", "name": "There are so Many Reasons...", "tourism": "artwork"}}, {"type": "node", "id": 6580198903, "lat": 49.0416581, "lon": -122.3153186, "tags": {"tourism": "artwork"}}, {"type": "node", "id": 6689950910, "lat": 49.0493132, "lon": -122.2899786, "tags": {"artwork_type": "mural", "name": "for men may come, and men may go, but I go on forever", "tourism": "artwork"}}, {"type": "node", "id": 6689950925, "lat": 49.0493641, "lon": -122.2898392, "tags": {"artist_name": "Brayden Eshuis", "artwork_type": "mural", "name": "i-Lead Abby", "tourism": "artwork"}}, {"type": "node", "id": 6689950957, "lat": 49.047888, "lon": -122.2902682, "tags": {"artwork_type": "sculpture", "name": "Gosling's Truck", "tourism": "artwork"}}, {"type": "node", "id": 7474723724, "lat": 49.0508253, "lon": -122.3064632, "tags": {"artwork_subject": "globe", "artwork_type": "sculpture", "material": "metal", "tourism": "artwork"}}, {"type": "node", "id": 7603187811, "lat": 49.0295742, "lon": -122.2854274}, {"type": "node", "id": 8250863612, "lat": 49.0295046, "lon": -122.2853849}, {"type": "way", "id": 274708394, "nodes": [2793876851, 2793876860, 3049892297, 3049892307, 2793876857, 2793876852, 3049892282, 3049892280, 2793876851], "tags": {"area": "yes", "artwork_type": "mosaic", "highway": "pedestrian", "name": "Thunderbird Square", "tourism": "artwork"}}, {"type": "way", "id": 302145179, "nodes": [3063883207, 3063883208, 3063883209, 3063883210, 3063883207], "tags": {"artwork_type": "mural", "building": "shed", "tourism": "artwork"}}, {"type": "way", "id": 352108353, "nodes": [3569202495, 3569208295, 3569228195], "tags": {"artwork_type": "mural", "name": "Welcome", "tourism": "artwork"}}, {"type": "way", "id": 416830262, "nodes": [8250863612, 3567491991, 7603187811], "tags": {"artwork_type": "mural", "crossing": "uncontrolled", "crossing:island": "no", "crossing:markings": "zebra", "footway": "crossing", "highway": "footway", "name": "Rainbow Crosswalk", "tactile_paving": "no", "tourism": "artwork", "traffic_calming": "hump"}}]}