{"version": 0.6, "generator": "Overpass API 0.7.62.5 1bd436f1", "osm3s": {"timestamp_osm_base": "2025-03-22T01:13:24Z", "copyright": "The data included in this document is from www.openstreetmap.org. The data is made available under ODbL."}, "elements": [{"type": "node", "id": 275183554, "lat": 51.7863345, "lon": 14.9694018, "tags": {"name": "Duet", "tourism": "hotel"}}, {"type": "node", "id": 275183903, "lat": 51.7876516, "lon": 14.9699867, "tags": {"name": "Zemsz", "tourism": "hotel"}}, {"type": "node", "id": 979578007, "lat": 51.546551, "lon": 14.720978, "tags": {"addr:city": "Bad Muskau", "addr:country": "DE", "addr:housenumber": "8", "addr:postcode": "02953", "addr:street": "Schlo\u00dfstra\u00dfe", "bett_and_bike:ref": "SAC-3988", "bettundbike": "yes", "internet_access": "wlan", "name": "Kulturhotel F\u00fcrst P\u00fcckler", "operator": "Ringhotels", "phone": "+49 35771 533 0", "rooms": "105", "stars": "4", "toilets:wheelchair": "yes", "tourism": "hotel", "website": "https://www.kulturhotel-fuerst-pueckler-park.de/", "wheelchair": "yes"}}, {"type": "node", "id": 2123827232, "lat": 51.6340281, "lon": 15.1424646, "tags": {"addr:city": "\u017bary", "addr:housenumber": "13", "addr:postcode": "68-200", "addr:street": "Jana D\u0142ugosza", "name": "Hotel Jank\u00f3w", "tourism": "hotel"}}, {"type": "node", "id": 2430301949, "lat": 51.6262434, "lon": 15.1449163}, {"type": "node", "id": 2730676161, "lat": 51.7463923, "lon": 14.6328349}, {"type": "node", "id": 2730676162, "lat": 51.746437, "lon": 14.632509}, {"type": "node", "id": 2730676163, "lat": 51.7464659, "lon": 14.6325194}, {"type": "node", "id": 2730676164, "lat": 51.7464769, "lon": 14.632439}, {"type": "node", "id": 2730676165, "lat": 51.7465191, "lon": 14.6328802}, {"type": "node", "id": 2730676166, "lat": 51.7465748, "lon": 14.632474}, {"type": "node", "id": 3010915060, "lat": 51.7465035, "lon": 14.6328747}, {"type": "node", "id": 3010915061, "lat": 51.7465195, "lon": 14.6324542}, {"type": "node", "id": 3918859853, "lat": 51.6475909, "lon": 14.8266611, "tags": {"addr:city": "Trzebiel", "addr:housenumber": "28", "addr:postcode": "68-212", "addr:street": "Jag\u0142owice", "internet_access": "wlan", "name": "Hotel A18", "tourism": "hotel", "website": "http://hotela18.pl"}}, {"type": "node", "id": 4057142516, "lat": 51.5694477, "lon": 14.7123167}, {"type": "node", "id": 4057142517, "lat": 51.569336, "lon": 14.7123066}, {"type": "node", "id": 4057142518, "lat": 51.5693516, "lon": 14.7118582}, {"type": "node", "id": 4057142519, "lat": 51.5692712, "lon": 14.711851}, {"type": "node", "id": 4057142520, "lat": 51.5692777, "lon": 14.7116622}, {"type": "node", "id": 4057142521, "lat": 51.5694698, "lon": 14.7116794}, {"type": "node", "id": 4450201994, "lat": 51.6263894, "lon": 15.144972}, {"type": "node", "id": 4450202011, "lat": 51.6264226, "lon": 15.144975}, {"type": "node", "id": 4450202022, "lat": 51.6264411, "lon": 15.1448131}, {"type": "node", "id": 4450202023, "lat": 51.6264376, "lon": 15.1449191}, {"type": "node", "id": 4450202024, "lat": 51.6264493, "lon": 15.1449315}, {"type": "node", "id": 4450202375, "lat": 51.6262803, "lon": 15.1447981}, {"type": "node", "id": 4450202376, "lat": 51.6262696, "lon": 15.1448938}, {"type": "node", "id": 4450202377, "lat": 51.6262696, "lon": 15.1448897}, {"type": "node", "id": 4450202378, "lat": 51.6262765, "lon": 15.1448946}, {"type": "node", "id": 4450202379, "lat": 51.6262665, "lon": 15.1449531}, {"type": "node", "id": 4450202380, "lat": 51.6262669, "lon": 15.1449444}, {"type": "node", "id": 4450202381, "lat": 51.6262741, "lon": 15.1449674}, {"type": "node", "id": 4450202382, "lat": 51.6262726, "lon": 15.1450139}, {"type": "node", "id": 4450202383, "lat": 51.6262651, "lon": 15.1451209}, {"type": "node", "id": 4450202384, "lat": 51.6262732, "lon": 15.1451088}, {"type": "node", "id": 4450202598, "lat": 51.6262357, "lon": 15.1450102}, {"type": "node", "id": 4450202599, "lat": 51.6262262, "lon": 15.1450239}, {"type": "node", "id": 4450202600, "lat": 51.6262252, "lon": 15.1450546}, {"type": "node", "id": 4450202601, "lat": 51.6262327, "lon": 15.1450683}, {"type": "node", "id": 4450202602, "lat": 51.6262317, "lon": 15.1451042}, {"type": "node", "id": 4450202612, "lat": 51.626244, "lon": 15.1448884}, {"type": "node", "id": 4450202613, "lat": 51.6262419, "lon": 15.1449422}, {"type": "node", "id": 4450202614, "lat": 51.626244, "lon": 15.1451064}, {"type": "node", "id": 4450202615, "lat": 51.6262525, "lon": 15.1451194}, {"type": "node", "id": 4450202706, "lat": 51.6263117, "lon": 15.1450969}, {"type": "node", "id": 4450202707, "lat": 51.6263033, "lon": 15.1451112}, {"type": "node", "id": 4450202721, "lat": 51.6263302, "lon": 15.1451007}, {"type": "node", "id": 4450202722, "lat": 51.6263375, "lon": 15.1451145}, {"type": "node", "id": 4450202741, "lat": 51.6263559, "lon": 15.1449345}, {"type": "node", "id": 4450202742, "lat": 51.6263623, "lon": 15.1449762}, {"type": "node", "id": 4450202743, "lat": 51.6263551, "lon": 15.1449629}, {"type": "node", "id": 4450202744, "lat": 51.6263614, "lon": 15.1450037}, {"type": "node", "id": 4450202745, "lat": 51.6263695, "lon": 15.1450159}, {"type": "node", "id": 4450202746, "lat": 51.6263658, "lon": 15.145117}, {"type": "node", "id": 4450202770, "lat": 51.6263797, "lon": 15.1449554}, {"type": "node", "id": 4450202771, "lat": 51.6263803, "lon": 15.1449371}, {"type": "node", "id": 4450204553, "lat": 51.6292281, "lon": 15.1357595}, {"type": "node", "id": 4450204554, "lat": 51.6292222, "lon": 15.1357779}, {"type": "node", "id": 4450204555, "lat": 51.6292167, "lon": 15.1358}, {"type": "node", "id": 4450204556, "lat": 51.6292115, "lon": 15.1358356}, {"type": "node", "id": 4450204557, "lat": 51.6292104, "lon": 15.1358667}, {"type": "node", "id": 4450204558, "lat": 51.6292119, "lon": 15.1358934}, {"type": "node", "id": 4450204559, "lat": 51.6292155, "lon": 15.1359202}, {"type": "node", "id": 4450204560, "lat": 51.6292214, "lon": 15.1359466}, {"type": "node", "id": 4450204561, "lat": 51.6292253, "lon": 15.1359592}, {"type": "node", "id": 4450204571, "lat": 51.6292378, "lon": 15.1357367}, {"type": "node", "id": 4450204572, "lat": 51.6292588, "lon": 15.1359318}, {"type": "node", "id": 4450204580, "lat": 51.6292673, "lon": 15.1357711}, {"type": "node", "id": 4450204675, "lat": 51.6295113, "lon": 15.1358104}, {"type": "node", "id": 4450204676, "lat": 51.6295018, "lon": 15.1359646}, {"type": "node", "id": 4525656936, "lat": 51.5411437, "lon": 14.7405277}, {"type": "node", "id": 4525656937, "lat": 51.5411412, "lon": 14.7405565}, {"type": "node", "id": 4525656940, "lat": 51.5411539, "lon": 14.74054}, {"type": "node", "id": 4525656944, "lat": 51.5412961, "lon": 14.7403278}, {"type": "node", "id": 4525656947, "lat": 51.5413556, "lon": 14.7405276}, {"type": "node", "id": 4525656948, "lat": 51.541368, "lon": 14.7405519}, {"type": "node", "id": 4525656953, "lat": 51.5413809, "lon": 14.7404938}, {"type": "node", "id": 4525656954, "lat": 51.5413765, "lon": 14.7405486}, {"type": "node", "id": 4525656955, "lat": 51.54138, "lon": 14.7405555}, {"type": "node", "id": 4525656956, "lat": 51.5414014, "lon": 14.7405979}, {"type": "node", "id": 4525656957, "lat": 51.5413977, "lon": 14.7410663}, {"type": "node", "id": 4525656960, "lat": 51.541418, "lon": 14.7405061}, {"type": "node", "id": 4525656961, "lat": 51.5414121, "lon": 14.740619}, {"type": "node", "id": 4525656962, "lat": 51.5414102, "lon": 14.7406343}, {"type": "node", "id": 4525656964, "lat": 51.5414395, "lon": 14.7405485}, {"type": "node", "id": 4525656965, "lat": 51.5414452, "lon": 14.7408656}, {"type": "node", "id": 4525656973, "lat": 51.5414817, "lon": 14.7407723}, {"type": "node", "id": 4525656974, "lat": 51.5414733, "lon": 14.7408285}, {"type": "node", "id": 4525656982, "lat": 51.5414876, "lon": 14.7409506}, {"type": "node", "id": 5288264561, "lat": 51.6433787, "lon": 15.1379806, "tags": {"name": "Zajazd Anatol", "tourism": "hotel"}}, {"type": "node", "id": 5339133798, "lat": 51.6555135, "lon": 15.1456243, "tags": {"addr:city": "\u017bary", "addr:housenumber": "24", "addr:postcode": "68-200", "addr:street": "Zielonog\u00f3rska", "name": "Hotel Chopin", "tourism": "hotel"}}, {"type": "node", "id": 8274038017, "lat": 51.675317, "lon": 14.8288997, "tags": {"name": "Pa\u0142acyk Tuplice", "tourism": "hotel"}}, {"type": "node", "id": 10069393261, "lat": 51.642119, "lon": 15.1362113, "tags": {"addr:city": "\u017bary", "addr:housenumber": "1", "addr:postcode": "68-200", "addr:street": "\u017babikowska", "name": "ApartHotel Sorau", "phone": "+48 518 750 000", "tourism": "hotel", "website": "https://aparthotel-sorau.pl/"}}, {"type": "node", "id": 12571455877, "lat": 51.6404165, "lon": 15.1311151, "tags": {"addr:city": "\u017bary", "addr:housenumber": "11", "addr:postcode": "68-200", "addr:street": "Stanis\u0142awa Moniuszki", "internet_access": "yes", "name": "Apartamenty HAYDUK", "phone": "519077205", "tourism": "hotel", "website": "https://hayduk.pl"}}, {"type": "node", "id": 12688339530, "lat": 51.6488891, "lon": 15.128756}, {"type": "node", "id": 12688339531, "lat": 51.6489256, "lon": 15.1289306}, {"type": "node", "id": 12688339532, "lat": 51.6486611, "lon": 15.1290742}, {"type": "node", "id": 12688339533, "lat": 51.648648, "lon": 15.1290141}, {"type": "node", "id": 12688339534, "lat": 51.6485641, "lon": 15.1290592}, {"type": "node", "id": 12688339535, "lat": 51.6485391, "lon": 15.1289435, "tags": {"barrier": "gate"}}, {"type": "node", "id": 12688339536, "lat": 51.6488702, "lon": 15.1289607}, {"type": "node", "id": 12688339541, "lat": 51.6488249, "lon": 15.1289853}, {"type": "way", "id": 128978881, "nodes": [4450202022, 4450202375, 4450202378, 4450202376, 4450202377, 4450202612, 2430301949, 4450202613, 4450202380, 4450202379, 4450202381, 4450202382, 4450202598, 4450202599, 4450202600, 4450202601, 4450202602, 4450202614, 4450202615, 4450202383, 4450202384, 4450202707, 4450202706, 4450202721, 4450202722, 4450202746, 4450202745, 4450202744, 4450202742, 4450202743, 4450202741, 4450202771, 4450202770, 4450201994, 4450202011, 4450202024, 4450202023, 4450202022], "tags": {"addr:city": "\u017bary", "addr:country": "PL", "addr:housenumber": "12", "addr:postcode": "68-200", "addr:street": "\u015al\u0105ska", "building": "yes", "email": "biuro@zajazd-zacisze.pl", "internet_access": "wlan", "internet_access:fee": "no", "name": "Zajazd Zacisze", "phone": "+48 68 374-02-65", "source:track": "Bing", "stars": "3", "tourism": "hotel", "website": "https://www.zajazd-zacisze.pl/", "wheelchair": "no"}}, {"type": "way", "id": 234819175, "nodes": [4450204675, 4450204580, 4450204571, 4450204553, 4450204554, 4450204555, 4450204556, 4450204557, 4450204558, 4450204559, 4450204560, 4450204561, 4450204572, 4450204676, 4450204675], "tags": {"addr:city": "\u017bary", "addr:housenumber": "50", "addr:postcode": "68-200", "addr:street": "Wincentego Witosa", "building": "hotel", "internet_access": "wlan", "name": "Glas Hotel", "phone": "+48 68 363 58 00", "stars": "3", "tourism": "hotel", "website": "http://glas-hotel.pl/", "wikidata": "Q95795329", "wikivoyage": "de:\u017bary#vCard_Glas_Hotel"}}, {"type": "way", "id": 267624942, "nodes": [2730676164, 3010915061, 2730676166, 2730676165, 3010915060, 2730676161, 2730676162, 2730676163, 2730676164], "tags": {"addr:city": "Forst (Lausitz)", "addr:country": "DE", "addr:housename": "Hotel Haufe", "addr:housenumber": "123", "addr:postcode": "03149", "addr:street": "Cottbuser Stra\u00dfe", "amenity": "restaurant", "building": "yes", "cuisine": "regional", "email": "forst@hotel-haufe.com", "fax": "+49 3562 2845", "name": "Hotel Haufe", "operator": "Volker Haufe", "phone": "+49 3562 2844", "tourism": "hotel", "website": "https://www.hotel-haufe.com/", "wheelchair": "no"}}, {"type": "way", "id": 272092843, "nodes": [4525656962, 4525656961, 4525656956, 4525656964, 4525656960, 4525656955, 4525656954, 4525656948, 4525656947, 4525656953, 4525656944, 4525656936, 4525656940, 4525656937, 4525656957, 4525656982, 4525656965, 4525656974, 4525656973, 4525656962], "tags": {"building": "yes", "name": "Hotel Mu\u017cakowski", "tourism": "hotel"}}, {"type": "way", "id": 403361286, "nodes": [4057142516, 4057142517, 4057142518, 4057142519, 4057142520, 4057142521, 4057142516], "tags": {"addr:city": "Bad Muskau", "addr:country": "DE", "addr:housenumber": "45", "addr:postcode": "02953", "addr:street": "Schulstra\u00dfe", "building": "yes", "name": "Parkstadthotel", "phone": "+49 35771 6860", "tourism": "hotel", "website": "https://www.parkstadthotel.de", "wheelchair": "limited"}}, {"type": "way", "id": 1370073774, "nodes": [12688339530, 12688339531, 12688339536, 12688339541, 12688339532, 12688339533, 12688339534, 12688339535, 12688339530], "tags": {"addr:city": "\u017bary", "addr:housenumber": "1", "addr:postcode": "68-200", "addr:street": "Piastowska", "building": "yes", "internet_access": "yes", "name": "Leon's Rooms", "phone": "+48 68 453 6296", "tourism": "hotel", "website": "https://leonsrooms.pl/"}}]}