{"version": 0.6, "generator": "Overpass API 0.7.62.5 1bd436f1", "osm3s": {"timestamp_osm_base": "2025-04-02T20:38:45Z", "copyright": "The data included in this document is from www.openstreetmap.org. The data is made available under ODbL."}, "elements": [{"type": "node", "id": 644156757, "lat": 49.0267866, "lon": -122.2659055, "tags": {"entrance": "main"}}, {"type": "node", "id": 644156761, "lat": 49.0356296, "lon": -122.2689408, "tags": {"amenity": "pub", "name": "Abbey Road Taphouse", "opening_hours": "Mo-Sa 11:30-00:00; Su 10:00-00:00", "phone": "+1-604-746-0333", "website": "https://abbeyroadtaphouse.com/"}}, {"type": "node", "id": 773005701, "lat": 49.0370926, "lon": -122.2259437}, {"type": "node", "id": 1784085057, "lat": 49.0574809, "lon": -122.2732774}, {"type": "node", "id": 2142185566, "lat": 49.0364412, "lon": -122.2680526}, {"type": "node", "id": 2142185570, "lat": 49.0365594, "lon": -122.2681987}, {"type": "node", "id": 2142185572, "lat": 49.0365834, "lon": -122.2681981}, {"type": "node", "id": 2142185573, "lat": 49.036582, "lon": -122.268066}, {"type": "node", "id": 2142185582, "lat": 49.0371468, "lon": -122.2686793}, {"type": "node", "id": 2142185585, "lat": 49.037211, "lon": -122.2684304}, {"type": "node", "id": 2142185586, "lat": 49.0372542, "lon": -122.2688028}, {"type": "node", "id": 2142185589, "lat": 49.0373842, "lon": -122.2685351}, {"type": "node", "id": 2142185617, "lat": 49.0385383, "lon": -122.2686535}, {"type": "node", "id": 2142185618, "lat": 49.0385434, "lon": -122.2683176}, {"type": "node", "id": 2142185619, "lat": 49.0386294, "lon": -122.2687832}, {"type": "node", "id": 2142185621, "lat": 49.0386488, "lon": -122.2684632}, {"type": "node", "id": 2142185622, "lat": 49.0386623, "lon": -122.2692452}, {"type": "node", "id": 2142185624, "lat": 49.0387969, "lon": -122.2690562}, {"type": "node", "id": 2322271936, "lat": 49.0350145, "lon": -122.2682944}, {"type": "node", "id": 2322271984, "lat": 49.0351008, "lon": -122.2679012}, {"type": "node", "id": 2322272118, "lat": 49.0351579, "lon": -122.2683677}, {"type": "node", "id": 2322272225, "lat": 49.0352442, "lon": -122.2679744}, {"type": "node", "id": 2504416218, "lat": 49.0256488, "lon": -122.3787014}, {"type": "node", "id": 2504416221, "lat": 49.0256067, "lon": -122.3785682}, {"type": "node", "id": 2504416224, "lat": 49.0256536, "lon": -122.3787164}, {"type": "node", "id": 2504416227, "lat": 49.0257187, "lon": -122.3784861}, {"type": "node", "id": 2504416232, "lat": 49.0258513, "lon": -122.3783885}, {"type": "node", "id": 2504416234, "lat": 49.025898, "lon": -122.3785364}, {"type": "node", "id": 2698771479, "lat": 49.0416037, "lon": -122.2774996}, {"type": "node", "id": 2698771481, "lat": 49.0414726, "lon": -122.2776383}, {"type": "node", "id": 2698771483, "lat": 49.041628, "lon": -122.2779783}, {"type": "node", "id": 2698771485, "lat": 49.0417586, "lon": -122.2778401}, {"type": "node", "id": 2744858985, "lat": 49.0502823, "lon": -122.3260169, "tags": {"addr:housenumber": "32500", "addr:street": "South Fraser Way", "addr:unit": "E71", "amenity": "restaurant", "cuisine": "chinese", "delivery": "no", "name": "Wok Box", "opening_hours": "Su 11:00-20:00; Mo-Sa 11:00-21:00", "phone": "+1-604-746-1070", "takeaway": "yes", "website": "http://m.wokbox.ca/index.php/locations/british-columbia/abbotsford"}}, {"type": "node", "id": 2744858986, "lat": 49.0502221, "lon": -122.3260134, "tags": {"addr:housenumber": "32500", "addr:street": "South Fraser Way", "addr:unit": "75", "alt_name": "Sushi 9 Nine", "amenity": "restaurant", "cuisine": "sushi", "name": "Sushi Nine", "opening_hours": "Mo-Sa 11:00-21:00; Su off", "phone": "+1-604-859-1170", "website": "http://www.SushiNine117.com"}}, {"type": "node", "id": 2744932920, "lat": 49.0529913, "lon": -122.3247351}, {"type": "node", "id": 2744932922, "lat": 49.0529957, "lon": -122.3244226}, {"type": "node", "id": 2744932924, "lat": 49.0527838, "lon": -122.3244157}, {"type": "node", "id": 2744932925, "lat": 49.0527804, "lon": -122.3246639}, {"type": "node", "id": 2746734560, "lat": 49.0530435, "lon": -122.3164532}, {"type": "node", "id": 2746734561, "lat": 49.052956, "lon": -122.316407}, {"type": "node", "id": 2746734562, "lat": 49.0530538, "lon": -122.3159761}, {"type": "node", "id": 2746734563, "lat": 49.0532308, "lon": -122.3160697}, {"type": "node", "id": 2746734643, "lat": 49.0510932, "lon": -122.3200076}, {"type": "node", "id": 2794065025, "lat": 49.0495509, "lon": -122.2999604}, {"type": "node", "id": 2794065026, "lat": 49.0495513, "lon": -122.2998558}, {"type": "node", "id": 2794065027, "lat": 49.04943, "lon": -122.2998547}, {"type": "node", "id": 2794065028, "lat": 49.0494297, "lon": -122.2999593}, {"type": "node", "id": 2795545023, "lat": 49.0510066, "lon": -122.3093069}, {"type": "node", "id": 2795545027, "lat": 49.0512483, "lon": -122.3090366}, {"type": "node", "id": 2795545028, "lat": 49.0512628, "lon": -122.3093065}, {"type": "node", "id": 2795545029, "lat": 49.0509963, "lon": -122.3090265}, {"type": "node", "id": 2830625525, "lat": 49.045937, "lon": -122.2923089}, {"type": "node", "id": 2830625526, "lat": 49.0459328, "lon": -122.2918788}, {"type": "node", "id": 2830625527, "lat": 49.0460911, "lon": -122.2918753}, {"type": "node", "id": 2830625528, "lat": 49.0460953, "lon": -122.2923053}, {"type": "node", "id": 2845209515, "lat": 49.0266769, "lon": -122.2660995}, {"type": "node", "id": 2845209516, "lat": 49.0268961, "lon": -122.2660978}, {"type": "node", "id": 2845209517, "lat": 49.0268955, "lon": -122.2659047}, {"type": "node", "id": 2845209518, "lat": 49.0266763, "lon": -122.2659064}, {"type": "node", "id": 2896069395, "lat": 49.0462535, "lon": -122.3496589, "tags": {"addr:housenumber": "31549", "addr:street": "South Fraser Way", "amenity": "restaurant", "cuisine": "indian", "entrance": "yes", "level": "0", "name": "Gian's Indian Cuisine", "opening_hours": "11:00-22:00", "phone": "+1-604-859-4999", "website": "http://gians.ca"}}, {"type": "node", "id": 2896069396, "lat": 49.046248, "lon": -122.3498324, "tags": {"addr:unit": "101", "amenity": "restaurant", "cuisine": "chinese", "description": "All you can eat Gourmet Chinese Buffet", "entrance": "yes", "level": "0", "microbrewery": "no", "name": "Mandarin Garden Restaurant", "opening_hours": "Su-Th 11:00-14:30,16:15-20:00; Fr-Sa 11:00-14:30,16:15-20:30", "outdoor_seating": "no", "phone": "+1-604-855-9888", "website": "https://mandaringarden.ca/"}}, {"type": "node", "id": 2903306849, "lat": 49.0374522, "lon": -122.3349482, "tags": {"addr:housenumber": "32080", "addr:postcode": "V2T 1A1", "addr:street": "Marshall Road", "amenity": "restaurant", "name": "Ricky's COUNTRY - Restaurant -", "old_name": "abc Country Restaurant", "opening_hours": "Mo-Sa 06:30-22:00; Su 07:00-22:00", "phone": "+1-604-854-3344", "website": "http://abcabbotsford.com"}}, {"type": "node", "id": 2924096679, "lat": 49.050889, "lon": -122.3202291}, {"type": "node", "id": 2924096680, "lat": 49.0508493, "lon": -122.3200027}, {"type": "node", "id": 2924096681, "lat": 49.0510071, "lon": -122.3202397}, {"type": "node", "id": 2924096682, "lat": 49.0508894, "lon": -122.3201825}, {"type": "node", "id": 2924096683, "lat": 49.0508478, "lon": -122.3201816}, {"type": "node", "id": 2924096684, "lat": 49.0510076, "lon": -122.3201901}, {"type": "node", "id": 2924096685, "lat": 49.0510916, "lon": -122.3201918}, {"type": "node", "id": 2976390737, "lat": 49.0522443, "lon": -122.325161, "tags": {"addr:housenumber": "32451", "addr:street": "South Fraser Way", "addr:unit": "7", "amenity": "restaurant", "cuisine": "fish_and_chips", "name": "C-Lovers", "opening_hours": "Mo-We 11:00-20:00; Th-Sa 11:00-21:00; Su 11:30-20:00", "phone": "+1-604-859-9747", "website": "https://c-lovers.com/locations/abbotsford"}}, {"type": "node", "id": 2976390745, "lat": 49.0528175, "lon": -122.3247642}, {"type": "node", "id": 2976390746, "lat": 49.0529067, "lon": -122.3247671}, {"type": "node", "id": 2976390747, "lat": 49.0529072, "lon": -122.3247324}, {"type": "node", "id": 2976390748, "lat": 49.0528182, "lon": -122.3247124}, {"type": "node", "id": 2976390749, "lat": 49.0528015, "lon": -122.3247119}, {"type": "node", "id": 2976390750, "lat": 49.0528021, "lon": -122.3246646}, {"type": "node", "id": 2976548628, "lat": 49.0529932, "lon": -122.3246014, "tags": {"entrance": "yes"}}, {"type": "node", "id": 2983041942, "lat": 49.051146, "lon": -122.3090189}, {"type": "node", "id": 2983041943, "lat": 49.0511038, "lon": -122.3090192}, {"type": "node", "id": 2983041944, "lat": 49.0511459, "lon": -122.3089449}, {"type": "node", "id": 2983041945, "lat": 49.0511036, "lon": -122.3089452}, {"type": "node", "id": 2983514966, "lat": 49.041568, "lon": -122.2778463}, {"type": "node", "id": 2983514967, "lat": 49.0415447, "lon": -122.2777969}, {"type": "node", "id": 2983514968, "lat": 49.0415055, "lon": -122.2778384}, {"type": "node", "id": 2983514969, "lat": 49.0415282, "lon": -122.2778884}, {"type": "node", "id": 2986429324, "lat": 49.0392529, "lon": -122.2919352, "tags": {"addr:unit": "105", "amenity": "restaurant", "cuisine": "sushi", "name": "Little Japan Sushi", "phone": "+1-604-854-6205", "website": "http://www.littlejapansushi.net"}}, {"type": "node", "id": 2989366803, "lat": 49.0463559, "lon": -122.2939706}, {"type": "node", "id": 2989366804, "lat": 49.0464851, "lon": -122.2939797}, {"type": "node", "id": 2989366805, "lat": 49.0464931, "lon": -122.2937397}, {"type": "node", "id": 2989366806, "lat": 49.0464232, "lon": -122.2937349}, {"type": "node", "id": 2989366807, "lat": 49.0464175, "lon": -122.2939126}, {"type": "node", "id": 2989366808, "lat": 49.0463579, "lon": -122.2939077}, {"type": "node", "id": 2989367135, "lat": 49.0465651, "lon": -122.291532}, {"type": "node", "id": 2989367136, "lat": 49.0465642, "lon": -122.2911191}, {"type": "node", "id": 2989367137, "lat": 49.0463125, "lon": -122.2911188}, {"type": "node", "id": 2989367138, "lat": 49.0463126, "lon": -122.2915333}, {"type": "node", "id": 2994024333, "lat": 49.0520407, "lon": -122.3259697, "tags": {"addr:unit": "4", "amenity": "restaurant", "cuisine": "persian", "description": "Flame-broiled cuisine", "name": "King Kabob", "opening_hours": "Tu-Sa 11:30-21:00; Su 11:30-18:00; Mo off", "website": "https://www.kingkabob.ca"}}, {"type": "node", "id": 3014760769, "lat": 49.0553992, "lon": -122.2721289}, {"type": "node", "id": 3014760770, "lat": 49.0553569, "lon": -122.2721276}, {"type": "node", "id": 3014760818, "lat": 49.0574273, "lon": -122.2732781}, {"type": "node", "id": 3014760822, "lat": 49.0574001, "lon": -122.2735117}, {"type": "node", "id": 3014760823, "lat": 49.0572959, "lon": -122.2733589}, {"type": "node", "id": 3014760824, "lat": 49.0572923, "lon": -122.2729401}, {"type": "node", "id": 3015699798, "lat": 49.0400563, "lon": -122.3380026, "tags": {"amenity": "restaurant", "brand": "White Spot", "brand:wikidata": "Q7995414", "cuisine": "burger", "drive_through": "yes", "name": "White Spot"}}, {"type": "node", "id": 3033434320, "lat": 49.0505149, "lon": -122.3040201}, {"type": "node", "id": 3033434321, "lat": 49.0504872, "lon": -122.3037545}, {"type": "node", "id": 3033434322, "lat": 49.0506837, "lon": -122.3036891}, {"type": "node", "id": 3033434323, "lat": 49.0507125, "lon": -122.3039714}, {"type": "node", "id": 3033434443, "lat": 49.0501007, "lon": -122.3032634}, {"type": "node", "id": 3033434444, "lat": 49.0499476, "lon": -122.3035208}, {"type": "node", "id": 3033434445, "lat": 49.0499232, "lon": -122.3033117}, {"type": "node", "id": 3033434633, "lat": 49.0501251, "lon": -122.3034725}, {"type": "node", "id": 3033434641, "lat": 49.0499872, "lon": -122.30351}, {"type": "node", "id": 3038359276, "lat": 49.0502627, "lon": -122.3012542, "tags": {"addr:housenumber": "33323", "addr:postcode": "V2S 2B2", "addr:street": "South Fraser Way", "addr:unit": "4", "amenity": "restaurant", "cuisine": "lebanese", "name": "Yaffa Caf\u00e9"}}, {"type": "node", "id": 3038359301, "lat": 49.0500378, "lon": -122.3000576}, {"type": "node", "id": 3038359302, "lat": 49.0500998, "lon": -122.3000431}, {"type": "node", "id": 3038359303, "lat": 49.0501123, "lon": -122.300167}, {"type": "node", "id": 3038359304, "lat": 49.0500502, "lon": -122.3001815}, {"type": "node", "id": 3052982184, "lat": 49.0492912, "lon": -122.305141}, {"type": "node", "id": 3052982185, "lat": 49.049291, "lon": -122.3046356}, {"type": "node", "id": 3052982186, "lat": 49.0491751, "lon": -122.3046357}, {"type": "node", "id": 3052982187, "lat": 49.0491751, "lon": -122.3049356}, {"type": "node", "id": 3052982188, "lat": 49.0492309, "lon": -122.3049356}, {"type": "node", "id": 3052982189, "lat": 49.049231, "lon": -122.3050856}, {"type": "node", "id": 3052982190, "lat": 49.0492138, "lon": -122.3050856}, {"type": "node", "id": 3052982191, "lat": 49.0492138, "lon": -122.305141}, {"type": "node", "id": 3052982192, "lat": 49.0488696, "lon": -122.3040005, "tags": {"addr:unit": "C", "alt_name": "O'Neills Takeout", "amenity": "restaurant", "cuisine": "sandwich", "name": "O'Neills Home Cooking"}}, {"type": "node", "id": 3052982336, "lat": 49.0491556, "lon": -122.2958843}, {"type": "node", "id": 3052982337, "lat": 49.0491715, "lon": -122.2956}, {"type": "node", "id": 3052982338, "lat": 49.0492101, "lon": -122.2955839}, {"type": "node", "id": 3052982339, "lat": 49.0492383, "lon": -122.2955866}, {"type": "node", "id": 3052982340, "lat": 49.0492576, "lon": -122.2956027}, {"type": "node", "id": 3052982341, "lat": 49.0492523, "lon": -122.2957609}, {"type": "node", "id": 3052982342, "lat": 49.0492717, "lon": -122.2957663}, {"type": "node", "id": 3052982343, "lat": 49.0492875, "lon": -122.2958897}, {"type": "node", "id": 3052982352, "lat": 49.0490831, "lon": -122.2965718}, {"type": "node", "id": 3052982353, "lat": 49.049085, "lon": -122.2963666}, {"type": "node", "id": 3052982354, "lat": 49.0491966, "lon": -122.2963691}, {"type": "node", "id": 3052982355, "lat": 49.0491947, "lon": -122.2965742}, {"type": "node", "id": 3119897581, "lat": 49.0391955, "lon": -122.2699802}, {"type": "node", "id": 3119897582, "lat": 49.0392886, "lon": -122.2697214}, {"type": "node", "id": 3119897583, "lat": 49.0394617, "lon": -122.2698663}, {"type": "node", "id": 3119897584, "lat": 49.0393686, "lon": -122.2701251}, {"type": "node", "id": 3124352859, "lat": 49.040053, "lon": -122.2691107}, {"type": "node", "id": 3124352860, "lat": 49.0401534, "lon": -122.2688421}, {"type": "node", "id": 3124352865, "lat": 49.0404697, "lon": -122.2691173}, {"type": "node", "id": 3124352866, "lat": 49.0403691, "lon": -122.2693856}, {"type": "node", "id": 3124419895, "lat": 49.0487669, "lon": -122.2595327}, {"type": "node", "id": 3124419896, "lat": 49.0487666, "lon": -122.2598322}, {"type": "node", "id": 3130696803, "lat": 49.0351284, "lon": -122.2683526}, {"type": "node", "id": 3130696804, "lat": 49.0350925, "lon": -122.2683342}, {"type": "node", "id": 3130696805, "lat": 49.0351072, "lon": -122.2684492}, {"type": "node", "id": 3130696806, "lat": 49.0350713, "lon": -122.2684308}, {"type": "node", "id": 3130765566, "lat": 49.0365545, "lon": -122.2682213}, {"type": "node", "id": 3130765567, "lat": 49.0364426, "lon": -122.2681648}, {"type": "node", "id": 3130765568, "lat": 49.0365505, "lon": -122.2680668}, {"type": "node", "id": 3130765569, "lat": 49.0365504, "lon": -122.2680581}, {"type": "node", "id": 3130765570, "lat": 49.0365007, "lon": -122.2680595}, {"type": "node", "id": 3130765571, "lat": 49.0365006, "lon": -122.2680509}, {"type": "node", "id": 3139320900, "lat": 49.0520516, "lon": -122.3148406}, {"type": "node", "id": 3139320901, "lat": 49.0520442, "lon": -122.3146509}, {"type": "node", "id": 3139320902, "lat": 49.0519164, "lon": -122.3146637}, {"type": "node", "id": 3139320903, "lat": 49.0519235, "lon": -122.3148531}, {"type": "node", "id": 3144527499, "lat": 49.0504976, "lon": -122.326893, "tags": {"addr:housenumber": "2649", "addr:postcode": "V2T 0B5", "addr:street": "Trethewey Street", "addr:unit": "101", "amenity": "restaurant", "branch": "Abbotsford", "brand": "Sahota's Live Grill", "cuisine": "indian", "name": "Sahota's Live Grill", "outdoor_seating": "yes"}}, {"type": "node", "id": 3212571162, "lat": 49.049817, "lon": -122.3238611, "tags": {"addr:unit": "H190", "amenity": "restaurant", "branch": "Abbotsford", "brand": "Chutneys Indian Grill", "name": "Chutneys Indian Grill", "website": "https://eatchutneys.com"}}, {"type": "node", "id": 3212712861, "lat": 49.0527588, "lon": -122.3147521, "tags": {"addr:housenumber": "2790", "addr:postcode": "V2T 4S7", "addr:street": "Gladwin Road", "addr:unit": "101", "alt_name": "The Oriental Village", "amenity": "restaurant", "cuisine": "chinese", "internet_access": "wlan", "internet_access:fee": "no", "level": "0", "name": "Oriental Village", "name:en": "Oriental Village", "opening_hours": "Su,Mo,We,Th,PH 13:00-21:00; Fr,Sa 13:00-22:00; Tu off", "phone": "+1-604-852-8066", "website": "https://www.theorientalvillage.com"}}, {"type": "node", "id": 3212843829, "lat": 49.0511879, "lon": -122.3228885}, {"type": "node", "id": 3212843831, "lat": 49.0511858, "lon": -122.3231455}, {"type": "node", "id": 3212843832, "lat": 49.0510124, "lon": -122.3228809}, {"type": "node", "id": 3212843833, "lat": 49.0510092, "lon": -122.3231256}, {"type": "node", "id": 3213560967, "lat": 49.0513643, "lon": -122.3131198, "tags": {"addr:unit": "103", "amenity": "restaurant", "cuisine": "regional", "name": "Donairo\"s"}}, {"type": "node", "id": 3213560968, "lat": 49.0514556, "lon": -122.3131141, "tags": {"addr:unit": "105", "amenity": "restaurant", "cuisine": "indian", "name": "Super India Sweets & Restaurant", "shop": "confectionery"}}, {"type": "node", "id": 3213560970, "lat": 49.0515645, "lon": -122.3131129, "tags": {"addr:unit": "107", "amenity": "restaurant", "cuisine": "pizza", "internet_access": "wlan", "internet_access:fee": "no", "name": "Pizza Spot", "old_name": "Non-Stop Pizza", "opening_hours": "Mo-Th 11:00-23:00; Fr-Su 11:00-00:00", "phone": "+1-604-744-5505"}}, {"type": "node", "id": 3213567942, "lat": 49.050201, "lon": -122.3227878, "tags": {"addr:unit": "K260", "amenity": "restaurant", "cuisine": "japanese", "delivery": "yes", "name": "Sui Sha Ya Japanese Restaurant", "opening_hours": "Su 11:30-14:30,16:30-21:00; Mo,We-Th 11:30-14:30,16:30-21:30; Tu off; Fr-Sa 11:30-14:30,16:30-22:00", "phone": "+1-604-855-0686", "takeaway": "yes", "website": "https://suishaya.ca/"}}, {"type": "node", "id": 3223204966, "lat": 49.0492421, "lon": -122.300516, "tags": {"addr:housenumber": "33324", "addr:postcode": "V2S 2B4", "addr:street": "South Fraser Way", "addr:unit": "12", "amenity": "restaurant", "cuisine": "sushi", "name": "Nikko Sushi", "opening_hours": "Mo-Sa 11:00-21:30; Su off", "phone": "+1-604-850-8968", "website": "https://www.nikkosushi.net/"}}, {"type": "node", "id": 3223205063, "lat": 49.0492408, "lon": -122.3008535, "tags": {"addr:housenumber": "33324", "addr:postcode": "V2S 2B4", "addr:street": "South Fraser Way", "addr:unit": "7", "amenity": "restaurant", "cuisine": "chinese", "name": "Tong Fei", "opening_hours": "Mo-Sa 11:00-22:00; Su 16:00-22:00", "phone": "+1-604-853-4715", "website": "http://www.AbbotsfordChineseFood.com"}}, {"type": "node", "id": 3223225961, "lat": 49.049511, "lon": -122.2950498, "tags": {"addr:unit": "10", "amenity": "restaurant", "cuisine": "indian", "level": "0", "name": "Zaika Tastes of India", "opening_hours": "Mo-Sa 11:00-21:00; Su 12:00-21:00 || Mo-Fr 11:30-14:00 open \"Lunch Buffet\"", "phone": "+1-604-756-0535", "website": "https://www.zaikaabbotsford.ca/"}}, {"type": "node", "id": 3250909463, "lat": 49.0478319, "lon": -122.2910884}, {"type": "node", "id": 3250909464, "lat": 49.0478329, "lon": -122.2911786}, {"type": "node", "id": 3250909465, "lat": 49.0475923, "lon": -122.2912296}, {"type": "node", "id": 3250909466, "lat": 49.047493, "lon": -122.2912317}, {"type": "node", "id": 3250910767, "lat": 49.0474914, "lon": -122.2910329}, {"type": "node", "id": 3250911164, "lat": 49.0475927, "lon": -122.2912799}, {"type": "node", "id": 3250911263, "lat": 49.0477915, "lon": -122.2910255}, {"type": "node", "id": 3252022997, "lat": 49.0492389, "lon": -122.3012634, "tags": {"addr:housenumber": "33324", "addr:postcode": "V2S 2B4", "addr:street": "South Fraser Way", "addr:unit": "4", "amenity": "restaurant", "cuisine": "german", "name": "Schnitzelz", "website": "https://m.facebook.com/schnitzelzabbotsford"}}, {"type": "node", "id": 3252541864, "lat": 49.0536104, "lon": -122.2863843}, {"type": "node", "id": 3252541865, "lat": 49.0535141, "lon": -122.2864198}, {"type": "node", "id": 3252541866, "lat": 49.0535524, "lon": -122.2866622}, {"type": "node", "id": 3252590661, "lat": 49.0536504, "lon": -122.2866261}, {"type": "node", "id": 3255800269, "lat": 49.0504288, "lon": -122.2899542, "tags": {"alt_name": "Anne Marie's Caf\u00e9", "amenity": "restaurant", "cuisine": "diner", "name": "Anne Maries Cafe", "opening_hours": "Mo-We 06:30-15:00; Th,Fr 06:30-20:00; Sa 07:00-20:00; Su off", "phone": "+1-604-852-2610", "website": "https://www.annmariescafe.ca/"}}, {"type": "node", "id": 3261769572, "lat": 49.0502826, "lon": -122.317549, "tags": {"addr:housenumber": "32700", "addr:postcode": "V2T 4M5", "addr:street": "South Fraser Way", "addr:unit": "64", "amenity": "restaurant", "brand": "Nando's", "brand:wikidata": "Q3472954", "brand:wikipedia": "en:Nando's", "cuisine": "chicken;portuguese", "name": "Nando's"}}, {"type": "node", "id": 3275393462, "lat": 49.0444502, "lon": -122.2217322, "tags": {"addr:city": "Abbotsford", "addr:country": "CA", "addr:housenumber": "2362", "addr:postcode": "V3G 1E1", "addr:province": "BC", "addr:street": "Whatcom Road", "amenity": "restaurant", "brand": "The Chopped Leaf", "brand:wikidata": "Q116904982", "cuisine": "salad", "name": "Chopped Leaf", "phone": "+1-604-859-0580", "website": "https://www.choppedleaf.ca/location/sumasmountainvillage"}}, {"type": "node", "id": 3282683387, "lat": 49.0464908, "lon": -122.2938061, "tags": {"entrance": "main"}}, {"type": "node", "id": 3297003865, "lat": 49.0496886, "lon": -122.303762, "tags": {"amenity": "restaurant", "cuisine": "czech", "level": "1", "name": "Bavaria Restaurant", "opening_hours": "Tu-We 17:00-23:00; Th-Sa 17:00-01:00; Su 16:30-00:00", "outdoor_seating": "no", "phone": "+1-604-859-3154", "website": "https://thebavariarestaurant.com/"}}, {"type": "node", "id": 3309563263, "lat": 49.0488609, "lon": -122.2868109}, {"type": "node", "id": 3309563264, "lat": 49.0485376, "lon": -122.2868105}, {"type": "node", "id": 3309563265, "lat": 49.0486182, "lon": -122.2869795}, {"type": "node", "id": 3309590761, "lat": 49.0488613, "lon": -122.2869788}, {"type": "node", "id": 3309590961, "lat": 49.048583, "lon": -122.2869796}, {"type": "node", "id": 3309591061, "lat": 49.0486178, "lon": -122.2868106}, {"type": "node", "id": 3309591062, "lat": 49.0485381, "lon": -122.2869795}, {"type": "node", "id": 3309591364, "lat": 49.0478208, "lon": -122.2911942}, {"type": "node", "id": 3309606661, "lat": 49.0477476, "lon": -122.2913208}, {"type": "node", "id": 3309606761, "lat": 49.0478264, "lon": -122.2912028}, {"type": "node", "id": 3309606961, "lat": 49.0477203, "lon": -122.2912783}, {"type": "node", "id": 3363483194, "lat": 49.0485303, "lon": -122.2928699, "tags": {"addr:unit": "103", "amenity": "restaurant", "cuisine": "sushi", "name": "Kojan Sushi Restaurant", "opening_hours": "Mo-Th 11:30-21:30; Fr-Sa 11:30-22:00; Su 12:00-21:00", "phone": "+1-604-776-1001", "website": "https://m.facebook.com/KoJanRestaurant"}}, {"type": "node", "id": 3375157793, "lat": 49.0398938, "lon": -122.3377554, "tags": {"amenity": "restaurant", "cuisine": "diner", "name": "Rivers Restaurant", "opening_hours": "Mo-Tu 11:00-15:00; We-Su 11:00-20:00", "phone": "+1-604-859-2518", "website": "https://m.facebook.com/Rivers-Restaurant-119579404822822"}}, {"type": "node", "id": 3375158496, "lat": 49.0400428, "lon": -122.3380442}, {"type": "node", "id": 3375158497, "lat": 49.0400922, "lon": -122.3381196}, {"type": "node", "id": 3375158594, "lat": 49.0400949, "lon": -122.3378427}, {"type": "node", "id": 3375158695, "lat": 49.040039, "lon": -122.3378441}, {"type": "node", "id": 3375158793, "lat": 49.0402106, "lon": -122.3381132}, {"type": "node", "id": 3375158794, "lat": 49.0402493, "lon": -122.3380629}, {"type": "node", "id": 3379590396, "lat": 49.0401514, "lon": -122.3384722}, {"type": "node", "id": 3379590397, "lat": 49.0401839, "lon": -122.3385153}, {"type": "node", "id": 3379590695, "lat": 49.0402524, "lon": -122.3384565}, {"type": "node", "id": 3379610894, "lat": 49.0402735, "lon": -122.338465}, {"type": "node", "id": 3379610994, "lat": 49.0402022, "lon": -122.3384994}, {"type": "node", "id": 3379611194, "lat": 49.0400991, "lon": -122.3385171}, {"type": "node", "id": 3379611195, "lat": 49.0402008, "lon": -122.3384267}, {"type": "node", "id": 3379611196, "lat": 49.0401822, "lon": -122.3384275}, {"type": "node", "id": 3379611293, "lat": 49.0401814, "lon": -122.33874}, {"type": "node", "id": 3379611294, "lat": 49.0403195, "lon": -122.3385828}, {"type": "node", "id": 3379611295, "lat": 49.0401713, "lon": -122.338526}, {"type": "node", "id": 3379611393, "lat": 49.0403139, "lon": -122.3386193}, {"type": "node", "id": 3441161464, "lat": 49.0490326, "lon": -122.2947071, "tags": {"addr:housenumber": "33550", "addr:postcode": "V2S 5G7", "addr:street": "South Fraser Way", "alt_name": "Rose Land Family Restaurant", "amenity": "restaurant", "level": "1", "name": "Roseland Restaurant", "opening_hours": "Mo-Sa 07:00-21:00; Su 07:00-20:00", "phone": "+1-604-852-1699", "website": "http://www.roselandrestaurant.com"}}, {"type": "node", "id": 3441161466, "lat": 49.048808, "lon": -122.2954467, "tags": {"addr:housenumber": "33550", "addr:postcode": "V2S 5G7", "addr:street": "South Fraser Way", "addr:unit": "2", "amenity": "restaurant", "cuisine": "chinese", "level": "1", "name": "Golden Dragon Restaurant", "opening_hours": "Su,Mo,We,Th 11:30-14:00,16:00-21:00; Fr 11:30-14:00,16:00-22:00; Sa 16:00-22:00; PH 16:00-21:00; Tu off", "phone": "+1-604-853-3878", "website": "http://goldendragonabbotsford.ca"}}, {"type": "node", "id": 3442191894, "lat": 49.0554367, "lon": -122.3163275, "tags": {"addr:unit": "100", "amenity": "restaurant", "level": "0", "name": "Spice Kitchen The Indian Palette", "old_name": "Desi Tudka;Quazines Restaurant;Steakhouse Bar & Grill", "opening_hours": "11:00-15:00 open \"Buffet\"; 11:00-22:00", "phone": "+1-604-755-7915", "website": "https://m.facebook.com/Spice-Kitchen-The-Indian-Palate-1091485777568868"}}, {"type": "node", "id": 3458419908, "lat": 49.0498295, "lon": -122.3350484, "tags": {"addr:housenumber": "2616", "addr:street": "Cedar Park Place", "amenity": "restaurant", "cuisine": "chinese", "internet_access": "wlan", "internet_access:fee": "no", "name": "Thong La's Restaurant", "opening_hours": "11:00-22:00", "phone": "+1-604-746-2263", "start_date": "2011 November", "website": "http://ThongLasChineseFood.com"}}, {"type": "node", "id": 3460645893, "lat": 49.0536309, "lon": -122.286514}, {"type": "node", "id": 3460645993, "lat": 49.0536877, "lon": -122.2866124}, {"type": "node", "id": 3460646093, "lat": 49.0536699, "lon": -122.2864997}, {"type": "node", "id": 3463800895, "lat": 49.0488685, "lon": -122.2901519, "tags": {"addr:housenumber": "33758", "addr:postcode": "V2S 2H2", "addr:street": "Essendene Avenue", "amenity": "restaurant", "brand": "BRGR BRGR", "entrance": "yes", "internet_access": "wlan", "internet_access:fee": "no", "level": "0", "name": "BRGRS BRGR", "old_name": "Mitch Miller's Canadian Grill", "website": "https://www.brgrbrgr.ca"}}, {"type": "node", "id": 3477870783, "lat": 49.0492094, "lon": -122.3390775, "tags": {"addr:unit": "101", "amenity": "restaurant", "description": "Fine Indian Cuisine", "name": "The Spice Route"}}, {"type": "node", "id": 3477908886, "lat": 49.0497174, "lon": -122.3398758, "tags": {"addr:unit": "108", "amenity": "restaurant", "cuisine": "vietnamese", "name": "New Saigon Vietnamese Cuisine", "opening_hours": "Mo-Sa 11:00-21:00; Su,PH off", "phone": "+1-604-864-0587", "website": "https://newsaigon.ca/"}}, {"type": "node", "id": 3478922294, "lat": 49.0502899, "lon": -122.338619, "tags": {"addr:housenumber": "2655", "addr:postcode": "V2T 1P9", "addr:street": "Clearbrook Road", "addr:unit": "160", "amenity": "restaurant", "cuisine": "indian", "drive_through": "no", "name": "Southern Spice", "opening_hours": "Mo-Sa 11:30-20:30; Su off", "phone": "+1-604-744-4441", "takeaway": "yes", "website": "https://southernspice.ca"}}, {"type": "node", "id": 3495292393, "lat": 49.0503709, "lon": -122.3350129, "tags": {"addr:housenumber": "2644", "addr:postcode": "V2T 3S5", "addr:street": "Cedar Park Place", "alt_name": "Pho Abby #1", "amenity": "restaurant", "cuisine": "vietnamese", "description": "Oriental Noodle House", "internet_access": "wlan", "internet_access:fee": "no", "name": "Pho Abbotsford #1", "opening_hours": "11:00-21:00", "phone": "+1-604-859-9048", "url": "http://www.phoabby.ca", "website": "https://m.facebook.com/Pho-Abby-1-140227469378862"}}, {"type": "node", "id": 3495520496, "lat": 49.0510483, "lon": -122.3304004, "tags": {"addr:housenumber": "2868", "addr:postcode": "V2T 3L2", "addr:street": "Langdon Street", "addr:unit": "3", "alt_name": "GI 1", "amenity": "restaurant", "cuisine": "greek", "name": "Greek Islands Restaurant 1", "opening_hours": "Tu-Th 11:00-22:00; Fr-Su 11:00-23:00; Mo off", "phone": "+1-604-850-1613", "website": "https://greekislandsrestaurants.com/"}}, {"type": "node", "id": 3495661693, "lat": 49.0513464, "lon": -122.3315371, "tags": {"addr:housenumber": "32228", "addr:postcode": "V2T 1W8", "addr:street": "South Fraser Way", "addr:unit": "3", "alt_name": "Masala Arts Indian Restaurant", "amenity": "restaurant", "cuisine": "indian", "name": "Masala Art Indian Restaurant", "phone": "+1-604-557-1034", "website": "https://www.masalaarts.com/"}}, {"type": "node", "id": 3498450302, "lat": 49.0485227, "lon": -122.3396754, "tags": {"addr:unit": "2", "amenity": "restaurant", "cuisine": "sushi", "description": "All you can eat", "name": "Midori Japanese Restaurant", "website": "https://midorisushi.ca/"}}, {"type": "node", "id": 3498450310, "lat": 49.0479657, "lon": -122.3393377, "tags": {"addr:unit": "17", "alt_name": "Mr India Restaurant", "amenity": "restaurant", "cuisine": "indian", "name": "Mr India Meats & Restaurant", "opening_hours": "We-Mo 10:00-22:00", "phone": "+1-604-870-4892", "shop": "butcher"}}, {"type": "node", "id": 3498450314, "lat": 49.0479657, "lon": -122.3389997, "tags": {"addr:unit": "22", "amenity": "restaurant", "cuisine": "pizza", "description": "Abbotsford Location 1", "name": "J's Pizza", "opening_hours": "Su 11:00-00:00; Mo-Th 10:30-00:00; Fr-Sa 10:30-02:00", "phone": "+1-604-854-3299", "website": "http://www.jspizza.ca"}}, {"type": "node", "id": 3498450316, "lat": 49.0479604, "lon": -122.3387476, "tags": {"addr:unit": "24", "amenity": "restaurant", "cuisine": "korean;sushi", "name": "Noodle Road", "opening_hours": "Tu-Su 11:30-21:30;Mo off", "phone": "+1-604-557-0600", "website": "http://www.noodleroad.ca"}}, {"type": "node", "id": 3534532297, "lat": 49.0387926, "lon": -122.2929734}, {"type": "node", "id": 3534532299, "lat": 49.0392551, "lon": -122.2920196, "tags": {"addr:unit": "103", "amenity": "restaurant", "cuisine": "chinese", "internet_access": "wlan", "internet_access:fee": "no", "name": "Hot Chili House", "opening_hours": "Tu-Sa 11:00-14:00,16:00-21:00; Su 16:00-21:00", "phone": "+1-604-746-3090", "website": "https://hotchilihouse.com/"}}, {"type": "node", "id": 3534532494, "lat": 49.0387934, "lon": -122.292858}, {"type": "node", "id": 3534532495, "lat": 49.0386688, "lon": -122.292856}, {"type": "node", "id": 3534532496, "lat": 49.038668, "lon": -122.2929714}, {"type": "node", "id": 3556318724, "lat": 49.0493145, "lon": -122.3356988, "tags": {"addr:housenumber": "2591", "addr:postcode": "V2T 3S4", "addr:street": "Cedar Park Place", "alt_name": "Royal India Restaurant & Catering", "amenity": "restaurant", "cuisine": "indian", "internet_access": "yes", "name": "Bhav's Indian Cuisine & Sweet Shop", "opening_hours": "10:00-21:00", "outdoor_seating": "no", "phone": "+1-604-557-9492", "shop": "confectionery", "takeaway": "yes", "url": "https://bhavsindiancuisine.ca", "website": "https://royalindiaabbotsford.ca"}}, {"type": "node", "id": 3556318735, "lat": 49.0501054, "lon": -122.3350431, "tags": {"addr:housenumber": "2636", "addr:postcode": "V2T 2Y2", "addr:street": "Cedar Park Place", "alt_name": "Dhoom Sweets", "amenity": "restaurant", "cuisine": "indian", "name": "Dhaliwal Sweets & Bakery", "operator": "Dhoom Restaurant Ltd", "phone": "+1-604-852-2345", "shop": "bakery"}}, {"type": "node", "id": 3556318747, "lat": 49.0494837, "lon": -122.3350876, "tags": {"addr:housenumber": "2598", "addr:postcode": "V2S 3S4", "addr:street": "Cedar Park Place", "amenity": "restaurant", "cuisine": "indian", "name": "Cedar Park Chaat House", "phone": "+1-604-854-3877"}}, {"type": "node", "id": 3556318749, "lat": 49.0492823, "lon": -122.3350743, "tags": {"addr:unit": "102", "alt_name": "Patna Sweets & Restaurant", "amenity": "restaurant", "cuisine": "indian", "level": "0", "name": "Patna Sweets & Chat", "phone": "+1-604-756-0383", "shop": "confectionery"}}, {"type": "node", "id": 3577361993, "lat": 49.050054, "lon": -122.2892935, "tags": {"addr:housenumber": "33790", "addr:postcode": "V2S 2M6", "addr:street": "George Ferguson Way", "amenity": "restaurant", "cuisine": "sushi", "name": "Sushiteria & Catering", "opening_hours": "Mo-Sa 11:30-20:00; Su off", "phone": "+1-604-852-6988", "website": "https://m.facebook.com/Sushiteria-Catering-284065476849"}}, {"type": "node", "id": 3578695096, "lat": 49.0477876, "lon": -122.2912608, "tags": {"entrance": "main"}}, {"type": "node", "id": 3578735008, "lat": 49.0485387, "lon": -122.289184, "tags": {"alt_name": "Gators! Pub", "amenity": "pub", "entrance": "yes", "name": "Gator's Pub", "opening_hours": "Su-Tu 11:00-23:00, We-Sa 23:00-01:00", "phone": "+1-604-853-3307", "website": "http://www.fraservalleyinn.com"}}, {"type": "node", "id": 3578735009, "lat": 49.048871, "lon": -122.2892755, "tags": {"amenity": "restaurant", "cuisine": "indian", "entrance": "yes", "internet_access": "wlan", "internet_access:fee": "no", "level": "0", "name": "New Passage To India", "opening_hours": "Mo-Sa 11:00-22:00; Su 16:00-22:00", "phone": "+1-604-855-7100", "website": "https://www.newpassagetoindia.com/"}}, {"type": "node", "id": 3579026393, "lat": 49.0474412, "lon": -122.289805, "tags": {"alt_name": "Phoenix Diner Ph\u00f3 Noodle", "amenity": "restaurant", "cuisine": "vietnamese", "description": "Noodle House", "name": "The Pho'enix Diner", "opening_hours": "Mo-Sa 07:30-18:00; Su 09:00-14:30", "outdoor_seating": "terrace", "phone": "+1-604-852-3735", "website": "https://www.facebook.com/pages/Phoenix-Diner/131948300159445"}}, {"type": "node", "id": 3583508077, "lat": 49.0496386, "lon": -122.290533, "tags": {"addr:housenumber": "2625", "addr:postcode": "V2S 3T5", "addr:street": "Montrose Avenue", "amenity": "restaurant", "contact:facebook": "https://www.facebook.com/La-Reina-DT-108698591684250", "contact:instagram": "https://www.instagram.com/lareinadt", "entrance": "yes", "name": "La Reina DT", "outdoor_seating": "yes", "website": "https://www.facebook.com/La-Reina-DT-108698591684250"}}, {"type": "node", "id": 3585014895, "lat": 49.0491106, "lon": -122.289464, "tags": {"addr:housenumber": "33785", "addr:postcode": "V2S 2H1", "addr:street": "Essendene Avenue", "addr:unit": "1", "amenity": "restaurant", "cuisine": "thai", "level": "0", "name": "Tom Khao Thai Cuisine", "old_name": "Phuket Thai Restaurant"}}, {"type": "node", "id": 3587203893, "lat": 49.0488671, "lon": -122.2910024, "tags": {"addr:housenumber": "33724", "addr:postcode": "V2S 2G9", "addr:street": "Essendene Avenue", "amenity": "restaurant", "cuisine": "italian", "name": "Amici Wine Bar Osteria & Enoteca", "shop": "wine", "website": "https://www.amiciwinebar.com"}}, {"type": "node", "id": 3592381294, "lat": 49.0482761, "lon": -122.2905575, "tags": {"amenity": "restaurant", "branch": "Abbotsford", "brand": "Bow & Stern", "cuisine": "seafood", "description": "Fish\u00b7Chips\u00b7Oysters\u00b7Ale", "entrance": "yes", "level": "0", "name": "Bow & Stern", "opening_hours": "Su-Th 11:00-22:00; Fr-Sa 11:00-23:00", "phone": "+1-604-776-3474", "website": "https://www.bowandstern.ca/"}}, {"type": "node", "id": 3594981095, "lat": 49.0497599, "lon": -122.2917795, "tags": {"addr:unit": "17", "amenity": "restaurant", "cuisine": "sushi", "entrance": "yes", "name": "Sushi Parlor Japanese restaurant", "phone": "+1-604-746-1050"}}, {"type": "node", "id": 3595520996, "lat": 49.0464428, "lon": -122.2911193, "tags": {"entrance": "main"}}, {"type": "node", "id": 3595520997, "lat": 49.0463844, "lon": -122.291532, "tags": {"entrance": "yes"}}, {"type": "node", "id": 3595521894, "lat": 49.0465646, "lon": -122.2913302, "tags": {"entrance": "emergency"}}, {"type": "node", "id": 3595536394, "lat": 49.0465649, "lon": -122.2914555, "tags": {"entrance": "emergency"}}, {"type": "node", "id": 3595536395, "lat": 49.0463122, "lon": -122.2913367, "tags": {"entrance": "emergency"}}, {"type": "node", "id": 3595536495, "lat": 49.0465043, "lon": -122.291532, "tags": {"entrance": "yes"}}, {"type": "node", "id": 3605175593, "lat": 49.0487857, "lon": -122.2868108, "tags": {"entrance": "main"}}, {"type": "node", "id": 3634686493, "lat": 49.0548458, "lon": -122.3169856, "tags": {"addr:unit": "4", "amenity": "restaurant", "cuisine": "japanese", "name": "Sushiwa", "opening_hours": "Mo,Su off; Tu-Fr 11:30-21:30; Sa 13:30-21:30", "phone": "+1-604-755-8587"}}, {"type": "node", "id": 3634704896, "lat": 49.0549958, "lon": -122.3182463, "tags": {"addr:unit": "9", "alt_name": "JoJo's", "amenity": "restaurant", "cuisine": "fish_and_chips", "internet_access": "wlan", "internet_access:fee": "no", "name": "JoJo's Fish & Chips Bana Restaurant", "official_name": "Jo Jo's Fish and Chips Ltd", "opening_hours": "Sa-Th 08:00-20:00; Fr 08:00-21:00", "phone": "+1-604-854-5525", "url": "http://jojosfishandchips.ca", "website": "https://m.facebook.com/Jojos-Fish-and-Chips-Bana-Restaurant-321007371390276"}}, {"type": "node", "id": 3634734001, "lat": 49.0547581, "lon": -122.3198726, "tags": {"addr:unit": "108", "amenity": "restaurant", "cuisine": "indian", "name": "Taste of Bhaia Sweet Shop & Restaurant", "opening_hours": "11:00-22:00", "phone": "+1-604-504-0404", "shop": "confectionery", "website": "https://tasteofbhaiasweet.com"}}, {"type": "node", "id": 3635779808, "lat": 49.0393157, "lon": -122.2700808, "tags": {"entrance": "yes"}}, {"type": "node", "id": 3647930155, "lat": 49.0583832, "lon": -122.3780427, "tags": {"addr:unit": "J105", "amenity": "restaurant", "cuisine": "pizza", "layer": "2", "level": "2", "name": "Famoso Neapolitan Pizzeria", "website": "https://www.famoso.ca/locations/bc_abbotsford.php"}}, {"type": "node", "id": 3647981449, "lat": 49.0582753, "lon": -122.3790558, "tags": {"addr:unit": "C180", "amenity": "restaurant", "cuisine": "sushi", "layer": "2", "name": "Ono's Sushi", "phone": "+1-604-381-3833"}}, {"type": "node", "id": 3648162025, "lat": 49.0584965, "lon": -122.3808116, "tags": {"addr:unit": "E110", "amenity": "restaurant", "brand": "Milestones", "brand:wikidata": "Q6851623", "cuisine": "bar_and_grill", "layer": "2", "name": "Milestones", "opening_hours:signed": "no", "website": "https://www.milestonesrestaurants.com/location_region.php?province=BC&s=1&city_drop=Abbotsford"}}, {"type": "node", "id": 3648162125, "lat": 49.0582246, "lon": -122.3808805, "tags": {"addr:unit": "E125", "amenity": "restaurant", "layer": "2", "name": "The Canadian Brewhouse & Grill", "old_name": "Ceili's Modern Irish Pub", "opening_hours": "Mo-Fr 11:00-00:00; Sa-Su 10:00-00:00", "phone": "+1-604-625-5433", "website": "https://thecanadianbrewhouse.com/"}}, {"type": "node", "id": 3664829826, "lat": 49.0613388, "lon": -122.3800095, "tags": {"addr:unit": "107", "amenity": "restaurant", "cuisine": "vietnamese", "name": "Vi La Palace", "opening_hours": "Mo-Sa 11:00-21:00; Su off", "phone": "+1-604-625-5555", "website": "https://m.vilapalace.com/"}}, {"type": "node", "id": 3664829928, "lat": 49.0616856, "lon": -122.3800125, "tags": {"addr:unit": "103", "amenity": "restaurant", "cuisine": "sushi", "name": "Hana Sushi Japanese Restaurant", "opening_hours:signed": "no", "website": "http://mobile.yp.ca/bus/British-Columbia/Abbotsford/Hana-Sushi-Japanese-Restaurant/2307659.html"}}, {"type": "node", "id": 3666251826, "lat": 49.0659656, "lon": -122.3781957, "tags": {"addr:unit": "101", "amenity": "restaurant", "cuisine": "indian", "level": "0", "name": "Parmeshar Sweet Shop & Restaurant", "opening_hours": "10:00-21:00", "phone": "+1-604-746-3339", "shop": "confectionery"}}, {"type": "node", "id": 3712382932, "lat": 49.0224343, "lon": -122.3809138, "tags": {"addr:unit": "4", "amenity": "bar", "check_date": "2024-07-25", "name": "Ravens Bar & Grill", "opening_hours": "Su-Fr 04:30-22:00; Sa 04:30-10:30,19:30-22:00", "phone": "+1-604-852-8553", "website": "https://ravensbistros.com/"}}, {"type": "node", "id": 3712383934, "lat": 49.0224608, "lon": -122.3805333, "tags": {"addr:unit": "4", "amenity": "bar", "check_date": "2024-07-25", "description": "in pre-board area, past security checkpoint", "name": "Ravens Bar & Bistro", "opening_hours": "Su-Fr 04:30-22:00; Sa 04:30-10:30,19:30-22:00", "phone": "+1-604-852-8553", "website": "https://ravensbistros.com/"}}, {"type": "node", "id": 3718594829, "lat": 49.0470697, "lon": -122.2694313}, {"type": "node", "id": 3718595329, "lat": 49.04685, "lon": -122.2693542}, {"type": "node", "id": 3718595534, "lat": 49.046898, "lon": -122.2691602}, {"type": "node", "id": 3718595631, "lat": 49.0470207, "lon": -122.2691487}, {"type": "node", "id": 3718595632, "lat": 49.0470205, "lon": -122.2691647}, {"type": "node", "id": 3718595938, "lat": 49.0468967, "lon": -122.2692378}, {"type": "node", "id": 3718595939, "lat": 49.0468788, "lon": -122.2692371}, {"type": "node", "id": 3718595940, "lat": 49.0468494, "lon": -122.2694255}, {"type": "node", "id": 3751082631, "lat": 49.0473214, "lon": -122.2682839, "tags": {"addr:unit": "101", "amenity": "restaurant", "level": "2", "name": "Choice Pizza 2 for 1", "phone": "+1-604-746-1333"}}, {"type": "node", "id": 3761053464, "lat": 49.0509964, "lon": -122.3091705}, {"type": "node", "id": 3761053465, "lat": 49.0510065, "lon": -122.3091705}, {"type": "node", "id": 3761053466, "lat": 49.0510817, "lon": -122.3090263}, {"type": "node", "id": 3761053467, "lat": 49.0512623, "lon": -122.309129}, {"type": "node", "id": 3761053468, "lat": 49.0512486, "lon": -122.3091291}, {"type": "node", "id": 3761057760, "lat": 49.0510817, "lon": -122.3090193}, {"type": "node", "id": 3761057958, "lat": 49.051201, "lon": -122.3090369}, {"type": "node", "id": 3761057959, "lat": 49.0512009, "lon": -122.3090185}, {"type": "node", "id": 3762172959, "lat": 49.0406647, "lon": -122.2198854, "tags": {"addr:unit": "5", "amenity": "restaurant", "cuisine": "sushi", "internet_access": "wlan", "internet_access:fee": "no", "name": "HIKO SUSHI"}}, {"type": "node", "id": 3762536263, "lat": 49.0373851, "lon": -122.2303484, "tags": {"addr:unit": "124", "amenity": "restaurant", "cuisine": "indian", "name": "Spicy Affair", "website": "https://spicyaffair.ca/"}}, {"type": "node", "id": 3772779778, "lat": 49.0371955, "lon": -122.2255393}, {"type": "node", "id": 3772779785, "lat": 49.0371029, "lon": -122.2260738}, {"type": "node", "id": 3772779864, "lat": 49.0373009, "lon": -122.2256255}, {"type": "node", "id": 3772779865, "lat": 49.0371361, "lon": -122.2259793}, {"type": "node", "id": 3772779974, "lat": 49.0373874, "lon": -122.225713}, {"type": "node", "id": 3772779975, "lat": 49.0372963, "lon": -122.2256385}, {"type": "node", "id": 3772779977, "lat": 49.0372582, "lon": -122.226081}, {"type": "node", "id": 3772779986, "lat": 49.0371934, "lon": -122.2261477}, {"type": "node", "id": 3772780021, "lat": 49.0372026, "lon": -122.2261552}, {"type": "node", "id": 3792008658, "lat": 49.0548595, "lon": -122.3592426, "tags": {"addr:unit": "4", "amenity": "restaurant", "cuisine": "japanese", "level": "2", "name": "Bento Express", "opening_hours": "Mo-We 11:30-20:30; Th-Fr 11:30-21:00; Sa 12:00-21:00", "operator": "Hi! Bento Express", "phone": "+1-604-852-1200"}}, {"type": "node", "id": 3792063510, "lat": 49.0551068, "lon": -122.3592631, "tags": {"addr:unit": "2", "alt_name": "DOLLAR DEALS DOLLAR STORE LTD", "amenity": "restaurant", "level": "3", "name": "Lighthouse Fresh and Tasty", "opening_hours": "Mo,We,Th 11:00-21:30; Fr-Su 11:00-22:00; Tu 15:00-21:30", "phone": "+1-604-744-0099", "website": "http://www.lighthousefreshandtasty.com"}}, {"type": "node", "id": 3884599060, "lat": 49.0659257, "lon": -122.3794337, "tags": {"addr:unit": "105", "amenity": "restaurant", "level": "0", "name": "Zaika Tastes of India"}}, {"type": "node", "id": 3893621358, "lat": 49.0505031, "lon": -122.3037506}, {"type": "node", "id": 3893639563, "lat": 49.0506606, "lon": -122.3036946}, {"type": "node", "id": 3893639564, "lat": 49.0506954, "lon": -122.3039754}, {"type": "node", "id": 3893639565, "lat": 49.0505012, "lon": -122.3037318}, {"type": "node", "id": 3893639566, "lat": 49.0505309, "lon": -122.3037146}, {"type": "node", "id": 3893639567, "lat": 49.0505377, "lon": -122.3037207}, {"type": "node", "id": 3893639758, "lat": 49.0506575, "lon": -122.3040028}, {"type": "node", "id": 3893639759, "lat": 49.0506558, "lon": -122.303986}, {"type": "node", "id": 3893639760, "lat": 49.0505064, "lon": -122.3037204}, {"type": "node", "id": 3893639761, "lat": 49.0505393, "lon": -122.3037363}, {"type": "node", "id": 3893653158, "lat": 49.0506591, "lon": -122.3036801}, {"type": "node", "id": 3893653159, "lat": 49.0506899, "lon": -122.3040052}, {"type": "node", "id": 3893653258, "lat": 49.0505925, "lon": -122.3036959}, {"type": "node", "id": 3893653357, "lat": 49.0505953, "lon": -122.3037231}, {"type": "node", "id": 3893653358, "lat": 49.0506635, "lon": -122.3040105}, {"type": "node", "id": 3893653457, "lat": 49.0506948, "lon": -122.3039946}, {"type": "node", "id": 3895833559, "lat": 49.0487665, "lon": -122.2596582}, {"type": "node", "id": 3910772951, "lat": 49.0553999, "lon": -122.2720758}, {"type": "node", "id": 3910772956, "lat": 49.0553592, "lon": -122.2719513}, {"type": "node", "id": 3975141957, "lat": 49.0509003, "lon": -122.3202378}, {"type": "node", "id": 3975141958, "lat": 49.0509004, "lon": -122.3202294}, {"type": "node", "id": 3983367265, "lat": 49.0506112, "lon": -122.3039967, "tags": {"entrance": "emergency"}}, {"type": "node", "id": 3983368557, "lat": 49.0505179, "lon": -122.3037176, "tags": {"entrance": "main"}}, {"type": "node", "id": 4031642199, "lat": 49.0353367, "lon": -122.2665468, "tags": {"addr:unit": "B", "amenity": "restaurant", "brand": "Cactus Club Cafe", "brand:wikidata": "Q5016149", "name": "Cactus Club Cafe", "opening_hours": "Su-Th 11:00-00:00; Fr-Sa 11:00-01:00", "outdoor_seating": "yes", "phone": "+1-604-852-2582", "website": "https://www.cactusclubcafe.com/location/abbotsford"}}, {"type": "node", "id": 4040920962, "lat": 49.0562149, "lon": -122.380711, "tags": {"addr:housenumber": "3010", "addr:street": "Mount Lehman Road", "amenity": "restaurant", "brand": "Denny's", "brand:wikidata": "Q1189695", "brand:wikipedia": "en:Denny's", "cuisine": "american", "name": "Denny's", "operator": "Northland Properties", "website": "https://www.dennys.ca/"}}, {"type": "node", "id": 4040920963, "lat": 49.056171, "lon": -122.3806171, "tags": {"addr:housenumber": "3010", "addr:street": "Mount Lehman Road", "amenity": "bar", "name": "Bar One", "operator": "Northland Properties", "website": "https://www.baronecanada.com/"}}, {"type": "node", "id": 4053949289, "lat": 49.0460932, "lon": -122.2920904, "tags": {"entrance": "main"}}, {"type": "node", "id": 4190978289, "lat": 49.0498247, "lon": -122.3233458, "tags": {"addr:unit": "H220", "amenity": "restaurant", "brand": "The Chopped Leaf", "brand:wikidata": "Q116904982", "cuisine": "salad", "name": "The Chopped Leaf", "opening_hours": "Mo-Fr 10:00-21:00; Sa-Su 11:00-19:00"}}, {"type": "node", "id": 4192731992, "lat": 49.0510586, "lon": -122.3231261}, {"type": "node", "id": 4192764189, "lat": 49.0510581, "lon": -122.3231408}, {"type": "node", "id": 4242019594, "lat": 49.0481021, "lon": -122.34268, "tags": {"addr:housenumber": "31813", "addr:postcode": "V2T 1V4", "addr:street": "South Fraser Way", "addr:unit": "1", "amenity": "restaurant", "cuisine": "chinese", "description": "Authentic Cantonese & Szechuan Style Chinese Cuisine", "name": "Jasmine Garden Seafood Restaurant", "name:en": "Jasmine Garden Seafood Restaurant", "name:zh": "\u5e78\u904b\u6a13\u6d77\u9bae\u9152\u5bb6", "official_name": "Jasmine Garden Chinese Restaurant", "opening_hours": "Mo off; Tu-Th,Su 11:00-14:00,16:00-21:30; Fr-Sa 11:00-14:00,16:00-22:30; PH 16:00-21:00", "phone": "+1-604-850-8628", "start_date": "2000-06", "website": "https://www.jasmine-garden.ca"}}, {"type": "node", "id": 4243063426, "lat": 49.0387297, "lon": -122.2929724, "tags": {"entrance": "yes"}}, {"type": "node", "id": 4257934690, "lat": 49.0491751, "lon": -122.3048835, "tags": {"entrance": "main"}}, {"type": "node", "id": 4257951892, "lat": 49.0511247, "lon": -122.308945, "tags": {"entrance": "main"}}, {"type": "node", "id": 4278368691, "lat": 49.0519875, "lon": -122.3148468, "tags": {"entrance": "main"}}, {"type": "node", "id": 4278484494, "lat": 49.0511726, "lon": -122.3228878, "tags": {"entrance": "yes"}}, {"type": "node", "id": 4422242670, "lat": 49.0763979, "lon": -122.3935046, "tags": {"addr:city": "Abbotsford", "addr:housenumber": "29985", "addr:postcode": "V4X 1Z8", "addr:province": "BC", "addr:street": "Downes Road", "amenity": "restaurant", "bar": "yes", "name": "The Agora & Apothecary Inc.", "opening_hours": "Tu-Su 09:00-16:00", "outdoor_seating": "yes", "phone": "604-856-9339", "website:menu": "https://www.tanglebank.com/theagora"}}, {"type": "node", "id": 4470470089, "lat": 49.0488705, "lon": -122.2894714, "tags": {"addr:housenumber": "33780", "addr:postcode": "V2S 2H2", "addr:street": "Essendene Avenue", "addr:unit": "130", "alt_name": "The Polly Fox Bakery & Bistro", "amenity": "bistro", "amenity:cafe": "yes", "entrance": "yes", "name": "The Polly Fox", "shop": "bakery", "website": "https://thepollyfox.com/"}}, {"type": "node", "id": 4524253589, "lat": 49.0530329, "lon": -122.3170562, "tags": {"amenity": "restaurant", "brand": "Denny's", "brand:wikidata": "Q1189695", "brand:wikipedia": "en:Denny's", "cuisine": "american", "level": "0", "name": "Denny's", "opening_hours": "24/7", "phone": "+1-604-853-3669", "website": "https://m.facebook.com/Dennys-103614253112369"}}, {"type": "node", "id": 4533349900, "lat": 49.0371533, "lon": -122.2686661}, {"type": "node", "id": 4533350800, "lat": 49.0372057, "lon": -122.2684425}, {"type": "node", "id": 4533350801, "lat": 49.0371785, "lon": -122.2684397, "tags": {"entrance": "main"}}, {"type": "node", "id": 4533367298, "lat": 49.0371861, "lon": -122.2684225}, {"type": "node", "id": 4533367299, "lat": 49.0371281, "lon": -122.2686371}, {"type": "node", "id": 4533379897, "lat": 49.0371878, "lon": -122.2684799}, {"type": "node", "id": 4533402596, "lat": 49.0371692, "lon": -122.2684603}, {"type": "node", "id": 4533435993, "lat": 49.0371453, "lon": -122.2685718}, {"type": "node", "id": 4570584294, "lat": 49.0466407, "lon": -122.3687569, "tags": {"amenity": "pub", "description": "Gaming Tap + Grill", "name": "Red21", "opening_hours": "10:00-23:00", "website": "https://www.playtimegaming.ca/abbotsford-dining"}}, {"type": "node", "id": 4588432206, "lat": 49.0684981, "lon": -122.35853, "tags": {"addr:unit": "202", "amenity": "restaurant", "cuisine": "indian", "level": "1", "name": "Chandigarh Restaurant and Rar"}}, {"type": "node", "id": 4605132890, "lat": 49.056369, "lon": -122.3832811, "tags": {"addr:housenumber": "30321", "addr:street": "Fraser Highway", "addr:unit": "1A", "amenity": "bar", "craft": "brewery", "email": "info@oldabbeyales.com", "name": "Old Abbey Ales", "opening_hours": "Su-We 11:00-20:00; Th-Sa 11:00-22:00", "phone": "+1-604-607-5104", "product": "beer", "shop": "alcohol", "website": "https://www.oldabbeyales.com/"}}, {"type": "node", "id": 4835985123, "lat": 49.0365114, "lon": -122.2908143, "tags": {"addr:housenumber": "1878", "addr:street": "McCallum Road", "addr:unit": "110", "alt_name": "Ra.Sushi", "amenity": "restaurant", "cuisine": "sushi", "name": "Ra Sushi", "website": "https://rasushi.ca/"}}, {"type": "node", "id": 4835985322, "lat": 49.0365157, "lon": -122.290654, "tags": {"addr:city": "Abbotsford", "addr:housenumber": "1878", "addr:postcode": "V2S 0H9", "addr:street": "McCallum Road", "addr:unit": "125", "amenity": "restaurant", "brand": "Freshii", "brand:wikidata": "Q5503051", "cuisine": "salad", "name": "Freshii", "website": "https://www.freshii.com"}}, {"type": "node", "id": 4887681629, "lat": 49.0589677, "lon": -122.4588643}, {"type": "node", "id": 4887681954, "lat": 49.059278, "lon": -122.4592591}, {"type": "node", "id": 4887681955, "lat": 49.0591886, "lon": -122.4588943}, {"type": "node", "id": 4887681956, "lat": 49.0590428, "lon": -122.4589117}, {"type": "node", "id": 4887682871, "lat": 49.0590434, "lon": -122.45901}, {"type": "node", "id": 4887682872, "lat": 49.0590483, "lon": -122.4589098}, {"type": "node", "id": 4887682873, "lat": 49.0590479, "lon": -122.4588629}, {"type": "node", "id": 4887682874, "lat": 49.058957, "lon": -122.4588834}, {"type": "node", "id": 4887682875, "lat": 49.0589597, "lon": -122.4592644}, {"type": "node", "id": 4887684851, "lat": 49.0591894, "lon": -122.4590077}, {"type": "node", "id": 4887684936, "lat": 49.0592756, "lon": -122.4588929}, {"type": "node", "id": 4887684937, "lat": 49.0589678, "lon": -122.4588833}, {"type": "node", "id": 4900306821, "lat": 49.0456065, "lon": -122.3622896, "tags": {"addr:city": "Abbotsford", "addr:housenumber": "31120", "addr:postcode": "V2T 6K7", "addr:street": "Peardonville Road", "addr:unit": "101", "amenity": "restaurant", "cuisine": "burger;italian", "level": "0", "name": "Tony's Place Restaurant", "phone": "+1-604-850-9288"}}, {"type": "node", "id": 5220710733, "lat": 49.035729, "lon": -122.2921646, "tags": {"addr:housenumber": "1828", "addr:street": "McCallum Road", "addr:unit": "170", "amenity": "restaurant", "brand": "Browns Socialshouse", "internet_access": "wlan", "internet_access:fee": "no", "name": "Browns Socialhouse McCallum, Abbotsford", "opening_hours": "Mo-Fr 11:00-00:00; Sa-Su 10:00-00:00", "website": "https://brownssocialhouse.com/mccallum-abbotsford"}}, {"type": "node", "id": 5220710734, "lat": 49.0356436, "lon": -122.2920212, "tags": {"addr:housenumber": "1828", "addr:street": "McCallum Road", "addr:unit": "160", "amenity": "restaurant", "cuisine": "vietnamese", "name": "Little Saigon", "opening_hours": "11:00-21:00", "phone": "+1-604-864-8746", "website": "https://www.littlesaigon.ca/"}}, {"type": "node", "id": 5312073728, "lat": 49.034463, "lon": -122.2285986}, {"type": "node", "id": 5312073730, "lat": 49.0345371, "lon": -122.2287255}, {"type": "node", "id": 5312073738, "lat": 49.0344144, "lon": -122.2288106}, {"type": "node", "id": 5312073757, "lat": 49.0344143, "lon": -122.2288165}, {"type": "node", "id": 5312073759, "lat": 49.0344545, "lon": -122.2285007}, {"type": "node", "id": 5312073761, "lat": 49.0343526, "lon": -122.2288354}, {"type": "node", "id": 5312073787, "lat": 49.0344762, "lon": -122.228501}, {"type": "node", "id": 5312073791, "lat": 49.0344546, "lon": -122.228492}, {"type": "node", "id": 5312073792, "lat": 49.0345247, "lon": -122.2288176}, {"type": "node", "id": 5312073798, "lat": 49.0343011, "lon": -122.2286011}, {"type": "node", "id": 5312073807, "lat": 49.0345436, "lon": -122.2286232}, {"type": "node", "id": 5312073814, "lat": 49.0343491, "lon": -122.228486}, {"type": "node", "id": 5312073815, "lat": 49.0344574, "lon": -122.2287429}, {"type": "node", "id": 5312074023, "lat": 49.0344756, "lon": -122.2285988}, {"type": "node", "id": 5312074024, "lat": 49.0344575, "lon": -122.2287245}, {"type": "node", "id": 5312074032, "lat": 49.0344629, "lon": -122.2286221}, {"type": "node", "id": 5312074033, "lat": 49.0343484, "lon": -122.2286018}, {"type": "node", "id": 5312074037, "lat": 49.0344335, "lon": -122.2284917}, {"type": "node", "id": 5312074051, "lat": 49.0343814, "lon": -122.2284738}, {"type": "node", "id": 5312074052, "lat": 49.034322, "lon": -122.2288013}, {"type": "node", "id": 5312074053, "lat": 49.0343421, "lon": -122.2288016}, {"type": "node", "id": 5312074059, "lat": 49.0345251, "lon": -122.2287437}, {"type": "node", "id": 5312074062, "lat": 49.0342999, "lon": -122.2287799}, {"type": "node", "id": 5312074067, "lat": 49.0344336, "lon": -122.2284746}, {"type": "node", "id": 5312074081, "lat": 49.0343813, "lon": -122.2284865}, {"type": "node", "id": 5312074094, "lat": 49.0343221, "lon": -122.2287802}, {"type": "node", "id": 5312074099, "lat": 49.0345373, "lon": -122.2286872}, {"type": "node", "id": 5312074101, "lat": 49.0345432, "lon": -122.2286873}, {"type": "node", "id": 5312074321, "lat": 49.0343419, "lon": -122.2288352}, {"type": "node", "id": 5312074342, "lat": 49.0343527, "lon": -122.2288098}, {"type": "node", "id": 5407317921, "lat": 49.0488243, "lon": -122.2892706, "tags": {"addr:housenumber": "33780", "addr:postcode": "V2S 5M4", "addr:street": "Essendene Avenue", "amenity": "pub", "name": "Gator's Pub", "phone": "+1-604-853-3307", "website": "http://www.facebook.com/Gators-Pub-257795204309064"}}, {"type": "node", "id": 5407318021, "lat": 49.0488518, "lon": -122.2892374, "tags": {"amenity": "bar", "level": "0", "name": "Vicinity Lounge", "old_name": "the spotted owl bar;Air Fare Lounge", "phone": "+1-604-744-5364"}}, {"type": "node", "id": 5777934853, "lat": 49.0494299, "lon": -122.2998611}, {"type": "node", "id": 5777934854, "lat": 49.0494112, "lon": -122.2998609}, {"type": "node", "id": 5777934953, "lat": 49.049411, "lon": -122.2999001}, {"type": "node", "id": 5777934954, "lat": 49.0494299, "lon": -122.2999003}, {"type": "node", "id": 5843966286, "lat": 49.0464428, "lon": -122.2872366, "tags": {"amenity": "restaurant", "cuisine": "asian", "name": "Noodlebox", "opening_hours": "Mo-Sa 11:00-20:00; Su off", "website": "https://www.noodlebox.ca/"}}, {"type": "node", "id": 5843966287, "lat": 49.0464045, "lon": -122.2872963, "tags": {"amenity": "restaurant", "cuisine": "sandwich", "name": "Meat & Bread Test Kitchen", "opening_hours": "Mo-Sa 11:00-18:00; Su off", "website": "https://www.meatandbread.com/testkitchen"}}, {"type": "node", "id": 6235154001, "lat": 49.0491957, "lon": -122.3807688, "tags": {"addr:housenumber": "2582", "addr:street": "Mount Lehman Road", "addr:unit": "140", "amenity": "bar", "craft": "brewery", "email": "loudmouthbrewing@gmail.com", "name": "Loudmouth Brewing", "opening_hours": "We 15:00-18:00; Th 16:00-20:00; Fr 16:00-21:00; Sa 12:00-21:00; Su 12:00-20:00", "outdoor_seating": "no", "phone": "+1-604-746-4909", "product": "beer", "shop": "alcohol", "website": "https://loudmouthbrewingcompany.ca/"}}, {"type": "node", "id": 6235161359, "lat": 49.0585182, "lon": -122.3788725, "tags": {"addr:unit": "C105", "amenity": "restaurant", "brand": "Freshii", "brand:wikidata": "Q5503051", "brand:wikipedia": "en:Freshii", "cuisine": "salad", "layer": "2", "level": "2", "name": "Freshii", "website": "https://www.freshii.com/ca/en-ca/highstreetmallvancouver"}}, {"type": "node", "id": 6460786711, "lat": 49.0574597, "lon": -122.3153271}, {"type": "node", "id": 6460786724, "lat": 49.0571971, "lon": -122.3153328}, {"type": "node", "id": 6460786743, "lat": 49.0574577, "lon": -122.3151162}, {"type": "node", "id": 6460786744, "lat": 49.0571951, "lon": -122.3151219}, {"type": "node", "id": 6502940223, "lat": 49.0573082, "lon": -122.3146642, "tags": {"addr:housenumber": "3050", "addr:street": "Gladwin Road", "addr:unit": "135", "amenity": "restaurant", "cuisine": "sushi", "level": "0", "name": "Sushi Nara"}}, {"type": "node", "id": 6580599365, "lat": 49.0429142, "lon": -122.2816142, "tags": {"amenity": "bar", "name": "Field House Tasting Room", "opening_hours": "Tu-Sa 11:00-23:00; Su 11:00-20:00", "phone": "+1-604-776-2739", "shop": "alcohol", "website": "https://fieldhousebrewing.com"}}, {"type": "node", "id": 6960071102, "lat": 49.039149, "lon": -122.2948452, "tags": {"addr:housenumber": "33553", "addr:postcode": "V2S 1K8", "addr:street": "Marshall Road", "addr:unit": "110", "amenity": "restaurant", "cuisine": "regional", "name": "Restaurant 62", "website": "https://www.restaurant62.ca/"}}, {"type": "node", "id": 7015653390, "lat": 49.0375904, "lon": -122.3349289, "tags": {"amenity": "bar", "name": "Signature Sports Bistro"}}, {"type": "node", "id": 7035979257, "lat": 49.0577015, "lon": -122.31523, "tags": {"addr:housenumber": "3068", "addr:street": "Gladwin Road", "amenity": "restaurant", "brand": "Cora", "brand:wikidata": "Q2996960", "cuisine": "breakfast", "level": "0", "name": "Cora", "name:fr": "Chez Cora", "operator": "Coramark Inc.", "outdoor_seating": "yes", "website": "https://www.chezcora.com/en/breakfast-restaurants/british-columbia/cora-abbotsford"}}, {"type": "node", "id": 7712374056, "lat": 49.0488685, "lon": -122.2898692, "tags": {"addr:housenumber": "33766", "addr:postcode": "V2S 2H2", "addr:street": "Essendene Avenue", "alt_name": "Vietnamese Sub & Bahn Mi", "amenity": "restaurant", "brand": "Little Saigon", "cuisine": "vietnamese", "entrance": "yes", "name": "NAMaBURGER", "old_name": "Little Saigon", "outdoor_seating": "no", "website": "https://www.littlesaigon.ca/little-dim-sum"}}, {"type": "node", "id": 8243150632, "lat": 49.0573467, "lon": -122.3151181, "tags": {"entrance": "yes"}}, {"type": "node", "id": 8262112723, "lat": 49.03877, "lon": -122.2690122}, {"type": "node", "id": 8262112724, "lat": 49.0387294, "lon": -122.2689482}, {"type": "node", "id": 8262112725, "lat": 49.0387788, "lon": -122.2689992}, {"type": "node", "id": 8262112726, "lat": 49.0387392, "lon": -122.2689342}, {"type": "node", "id": 8262112727, "lat": 49.0385888, "lon": -122.2691242}, {"type": "node", "id": 8262112728, "lat": 49.0385594, "lon": -122.2690742}, {"type": "node", "id": 8262112729, "lat": 49.0385584, "lon": -122.2691222}, {"type": "node", "id": 8262987032, "lat": 49.0387597, "lon": -122.2689679, "tags": {"entrance": "main"}}, {"type": "node", "id": 8262987033, "lat": 49.038677, "lon": -122.2692246, "tags": {"addr:housenumber": "2030", "addr:postcode": "V2S 2C7", "addr:street": "Sumas Way", "addr:unit": "100", "entrance": "yes"}}, {"type": "node", "id": 9051023527, "lat": 49.0531402, "lon": -122.3164686}, {"type": "node", "id": 9051023531, "lat": 49.0530507, "lon": -122.3164213}, {"type": "node", "id": 9429824483, "lat": 49.0385867, "lon": -122.2683315}, {"type": "node", "id": 9429824484, "lat": 49.0385691, "lon": -122.2683577}, {"type": "node", "id": 9429824485, "lat": 49.0385944, "lon": -122.2685697}, {"type": "node", "id": 9429824486, "lat": 49.0386254, "lon": -122.2684267}, {"type": "node", "id": 9429824489, "lat": 49.0384306, "lon": -122.2684858}, {"type": "node", "id": 9429824490, "lat": 49.0385861, "lon": -122.2685568}, {"type": "node", "id": 9429824491, "lat": 49.0386368, "lon": -122.2684096}, {"type": "node", "id": 9567351354, "lat": 49.0474627, "lon": -122.289777, "tags": {"addr:housenumber": "33769", "addr:postcode": "V2S 2C3", "addr:street": "South Fraser Way", "alt_name": "Once Upon a Thai", "amenity": "restaurant", "contact:facebook": "https://www.facebook.com/OnceThaiAbbotsford", "craft": "caterer", "name": "Once Upon @ Thai", "phone": "+1-604-744-1028", "start_date": "2021-09-24", "website": "https://www.onceuponathai.ca"}}, {"type": "node", "id": 9728108089, "lat": 49.0316802, "lon": -122.2881639, "tags": {"addr:housenumber": "33797", "addr:postcode": "V2S 7P2", "addr:street": "King Road", "addr:unit": "C", "amenity": "pub", "contact:facebook": "https://www.facebook.com/CanuckEmpire", "microbrewery": "yes", "name": "Canuck Empire Brewing", "website": "https://www.canuckempirebrewing.com"}}, {"type": "node", "id": 10650811539, "lat": 49.0549853, "lon": -122.3718668, "tags": {"addr:housenumber": "30728", "addr:postcode": "V2T 0E2", "addr:street": "Fraser Highway", "addr:unit": "20", "amenity": "restaurant", "brand": "Pizza Hut", "brand:wikidata": "Q191615", "cuisine": "pizza", "delivery": "yes", "name": "Pizza Hut", "opening_hours": "Su-Th 11:00-23:30; Fr-Sa 11:00-00:30", "phone": "+1-604-744-3390", "takeaway": "yes", "url": "https://www.pizzahut.ca", "website": "https://www.pizzahut.ca/huts/ca-1/R31165"}}, {"type": "node", "id": 11332164895, "lat": 49.0465251, "lon": -122.291532}, {"type": "node", "id": 11332164898, "lat": 49.0463713, "lon": -122.2915322}, {"type": "node", "id": 11442365868, "lat": 49.0574318, "lon": -122.2734613}, {"type": "node", "id": 11442761486, "lat": 49.0574882, "lon": -122.2734175}, {"type": "node", "id": 11603500244, "lat": 49.0416555, "lon": -122.3150884, "tags": {"addr:city": "Abbotsford", "addr:housenumber": "2180", "addr:postcode": "V2S 0H4", "addr:street": "Gladwin Road", "addr:unit": "101", "amenity": "restaurant", "cuisine": "regional", "level": "0", "name": "The Table Bistro", "phone": "+1-866-710-9813", "website": "https://www.thetablebistro.com"}}, {"type": "node", "id": 11608932237, "lat": 49.0574874, "lon": -122.2732737}, {"type": "node", "id": 11636786847, "lat": 49.046913, "lon": -122.2691605}, {"type": "node", "id": 11636786851, "lat": 49.0469332, "lon": -122.2691611}, {"type": "node", "id": 11768633687, "lat": 49.03722, "lon": -122.2261055}, {"type": "node", "id": 11768633688, "lat": 49.0371594, "lon": -122.2260559}, {"type": "node", "id": 11768633689, "lat": 49.0371746, "lon": -122.2260126}, {"type": "node", "id": 11768633690, "lat": 49.0370725, "lon": -122.2258894}, {"type": "node", "id": 11768633691, "lat": 49.0371029, "lon": -122.2259142}, {"type": "node", "id": 12506336271, "lat": 49.0470506, "lon": -122.2691498, "tags": {"entrance": "yes"}}, {"type": "node", "id": 12678177971, "lat": 49.0470732, "lon": -122.2691505}, {"type": "node", "id": 12679285086, "lat": 49.0554529, "lon": -122.2720775}, {"type": "node", "id": 12679285087, "lat": 49.0554542, "lon": -122.2719818}, {"type": "node", "id": 12679285088, "lat": 49.0554367, "lon": -122.2719536}, {"type": "node", "id": 12679285089, "lat": 49.0554455, "lon": -122.2719677, "tags": {"entrance": "yes"}}, {"type": "node", "id": 12679355638, "lat": 49.0574884, "lon": -122.2734606}, {"type": "node", "id": 12679355639, "lat": 49.0572949, "lon": -122.2731867}, {"type": "node", "id": 12679355640, "lat": 49.0574267, "lon": -122.2731849}, {"type": "node", "id": 12679355641, "lat": 49.057425, "lon": -122.2730392}, {"type": "node", "id": 12679355642, "lat": 49.0572932, "lon": -122.2730423}, {"type": "node", "id": 12679355643, "lat": 49.0574242, "lon": -122.2729377}, {"type": "node", "id": 12686169312, "lat": 49.0416649, "lon": -122.277634}, {"type": "node", "id": 12686169313, "lat": 49.0415333, "lon": -122.2777718}, {"type": "node", "id": 12686371859, "lat": 49.0491486, "lon": -122.2598349}, {"type": "node", "id": 12686371860, "lat": 49.0491494, "lon": -122.2595355}, {"type": "node", "id": 12686371861, "lat": 49.0490983, "lon": -122.2598346}, {"type": "node", "id": 12686371862, "lat": 49.0490991, "lon": -122.2595352}, {"type": "node", "id": 12686371871, "lat": 49.0488369, "lon": -122.2598327}, {"type": "node", "id": 12686371872, "lat": 49.0488379, "lon": -122.2595333}, {"type": "node", "id": 12686371873, "lat": 49.0487669, "lon": -122.2597161}, {"type": "node", "id": 12686371874, "lat": 49.0487566, "lon": -122.259716}, {"type": "node", "id": 12686371875, "lat": 49.0487567, "lon": -122.259675}, {"type": "node", "id": 12690180804, "lat": 49.0384965, "lon": -122.2689702}, {"type": "way", "id": 204197709, "nodes": [2142185622, 8262987033, 2142185624, 8262112723, 8262112725, 8262987032, 8262112726, 8262112724, 2142185619, 12690180804, 8262112728, 8262112729, 8262112727, 2142185622], "tags": {"addr:housenumber": "2030", "addr:postcode": "V2S 2C7", "addr:street": "Sumas Way", "amenity": "restaurant", "brand": "The Old Spaghetti Factory", "brand:wikidata": "Q7754912", "brand:wikipedia": "en:The Old Spaghetti Factory", "building": "retail", "building:levels": "2", "cuisine": "italian", "name": "The Old Spaghetti Factory", "opening_hours": "Mo-Th 11:00-22:00; Fr-Sa 11:00-23:00; Su 11:00-21:00", "phone": "+1-604-854-1130", "website": "https://www.oldspaghettifactory.ca/locations/abbotsford"}}, {"type": "way", "id": 204197711, "nodes": [2142185586, 2142185589, 2142185585, 4533350800, 4533367298, 4533350801, 4533402596, 4533379897, 4533435993, 4533367299, 4533349900, 2142185582, 2142185586], "tags": {"addr:housenumber": "1965", "addr:postcode": "V2S 4L5", "addr:street": "Sumas Way", "amenity": "restaurant", "building": "retail", "cuisine": "regional", "name": "Wings Tap & Grill", "opening_hours": "Su-Th 11:00-23:00; Fr-Sa 11:00-00:00", "phone": "+1-604-756-1077", "website": "https://greatwings.ca/location/abbotsford"}}, {"type": "way", "id": 204197719, "nodes": [9429824489, 2142185617, 9429824485, 9429824490, 2142185621, 9429824486, 9429824491, 9429824483, 9429824484, 2142185618, 9429824489], "tags": {"addr:housenumber": "2010", "addr:postcode": "V2S 2C7", "addr:street": "Sumas Way", "alt_name": "Ricky's breakfast caf\u00e9;Famoso Pizzeria", "amenity": "restaurant", "building": "retail", "building:levels": "1", "comment": "both restaurant brands owned currently by \"FDF Restaurant Brandz \" and both in location are run by a single franchisee.  Interesingly hours of operation are listed different on the respective websites.", "cuisine": "breakfast;pizza", "description": "\"Dual concept restaurant\"", "fixme": "Confirm and add hours of operation", "name": "Ricky's & Famoso", "phone": "+1-604-504-7577", "source:url": "https://www.abbynews.com/news/rickys-breakfast-cafe-famoso-pizzeria-teaming-up-in-abbotsford-1820671", "website": "https://rickysrestaurants.ca;https://famoso.ca/"}}, {"type": "way", "id": 204197725, "nodes": [3130765566, 2142185570, 2142185572, 2142185573, 3130765568, 3130765569, 3130765570, 3130765571, 2142185566, 3130765567, 3130765566], "tags": {"addr:housenumber": "1907", "addr:postcode": "V2S 4L5", "addr:street": "Sumas Way", "alt_name": "Dos Bros", "amenity": "restaurant", "branch": "Abbotsford, Canada", "brand": "Dos Bros", "building": "retail", "cuisine": "mexican", "name": "Dos Bros Fresh Mexican Grill", "phone": "+1-773-943-1545", "website": "https://dosbros.com"}}, {"type": "way", "id": 223315625, "nodes": [2322272225, 2322271984, 2322271936, 3130696804, 3130696806, 3130696805, 3130696803, 2322272118, 2322272225], "tags": {"addr:city": "Abbotsford", "addr:housenumber": "1821", "addr:postcode": "V2S 4L5", "addr:street": "Sumas Way", "amenity": "restaurant", "building": "yes", "cuisine": "regional", "internet_access": "wlan", "internet_access:fee": "no", "name": "Crossroads Family Restaurant", "phone": "+1-604-852-1614", "website": "https://www.healthspace.ca/Clients/FHA/FHA_Website.nsf/Food-FacilityHistory?OpenView&RestrictToCategory=E07B9919A210984788257A67005B985B", "wheelchair": "yes"}}, {"type": "way", "id": 243001879, "nodes": [2504416234, 2504416232, 2504416227, 2504416221, 2504416218, 2504416224, 2504416234], "tags": {"addr:housenumber": "1266", "addr:postcode": "V2T 6H5", "addr:street": "Tower Street", "alt_name": "Ustaad G76 Indian Cuisine Abbotsford", "amenity": "restaurant", "branch": "Abbotsford", "brand": "Ustaad G76", "building": "commercial", "cuisine": "indian", "name": "Ustaad G76 Abbotsford", "old_name": "Baron's Bistro", "start_date": "2024-03-16", "website": "https://www.ustaadg76.ca"}}, {"type": "way", "id": 269220245, "nodes": [2744932920, 2976548628, 2744932922, 2744932924, 2744932925, 2976390750, 2976390749, 2976390748, 2976390745, 2976390746, 2976390747, 2744932920], "tags": {"addr:housenumber": "32470", "addr:street": "Simon Avenue", "amenity": "pub", "building": "retail", "name": "Highwayman Pub", "opening_hours": "Su 09:00-23:00; Mo-Sa 10:00-01:00", "phone": "+1-604-859-3711", "website": "https://highwaymanpubonline.com/"}}, {"type": "way", "id": 269459613, "nodes": [2746734560, 2746734561, 2746734562, 2746734563, 9051023527, 9051023531, 2746734560], "tags": {"addr:housenumber": "32760", "addr:postcode": "V2T 0B8", "addr:street": "Simon Avenue", "amenity": "restaurant", "building": "retail", "contact:facebook": "https://www.facebook.com/clubhavanacanada", "cuisine": "regional", "name": "Club Havana", "old_name": "r restaurant", "opening_hours": "Su-Tu 11:00-22:00; We-Sa 11:00-23:00", "outdoor_seating": "seasonal", "phone": "+1-604-857-9011", "website": "https://www.rrestaurant.ca"}}, {"type": "way", "id": 269459622, "nodes": [2924096681, 2924096684, 2924096685, 2746734643, 2924096680, 2924096683, 2924096682, 2924096679, 3975141958, 3975141957, 2924096681], "tags": {"addr:unit": "200", "amenity": "restaurant", "brand": "Pizza Hut", "brand:wikidata": "Q191615", "brand:wikipedia": "en:Pizza Hut", "building": "retail", "cuisine": "pizza", "name": "Pizza Hut", "opening_hours": "Mo-Th 11:00-23:00; Fr-Sa 11:00-00:00; Su 12:00-23:00", "phone": "+1-604-557-0868", "url": "http://pizzahut.ca", "website": "https://www.pizzahut.ca/#!/store-details/store-R31121/Abbotsford"}}, {"type": "way", "id": 274725314, "nodes": [2794065025, 2794065026, 2794065027, 5777934853, 5777934854, 5777934953, 5777934954, 2794065028, 2794065025], "tags": {"addr:housenumber": "33370", "addr:postcode": "V2S 2B5", "addr:street": "South Fraser Way", "amenity": "restaurant", "building": "retail", "cuisine": "thai", "internet_access": "wlan", "internet_access:fee": "no", "name": "I am Thai", "opening_hours": "Tu-Su 11:30-21:00; Mo off", "phone": "+1-604-744-1245", "website": "https://iamthai.ca/"}}, {"type": "way", "id": 274888718, "nodes": [2795545028, 3761053467, 3761053468, 2795545027, 3761057958, 3761057959, 2983041942, 2983041944, 4257951892, 2983041945, 2983041943, 3761057760, 3761053466, 2795545029, 3761053464, 3761053465, 2795545023, 2795545028], "tags": {"addr:housenumber": "33011", "addr:postcode": "V2S 2A6", "addr:street": "South Fraser Way", "amenity": "restaurant", "branch": "Gourmet Burgers", "brand": "Red Robin", "brand:wikidata": "Q7304886", "brand:wikipedia": "en:Red Robin", "building": "retail", "cuisine": "burger", "internet_access": "wlan", "name": "Red Robin", "official_name": "Red Robin Gourmet Burgers and Brews", "opening_hours": "Mo-We 11:00-22:00; Th-Su 11:00-23:00", "outdoor_seating": "yes", "phone": "+1-604-853-8185", "website": "http://m.redrobincanada.com/Location/Item/287"}}, {"type": "way", "id": 278750284, "nodes": [2830625525, 2830625526, 2830625527, 4053949289, 2830625528, 2830625525], "tags": {"addr:housenumber": "2421", "addr:postcode": "V2S 3R9", "addr:street": "Pauline Street", "amenity": "restaurant", "building": "retail", "cuisine": "chinese", "name": "Dragon Fort Restaurant", "opening_hours": "Su-Th 11:30-22:00; Fr-Sa 11:30-23:00", "phone": "+1-604-852-6891", "website": "http://www.dragonfortrestaurant.com"}}, {"type": "way", "id": 280407345, "nodes": [2845209515, 2845209516, 2845209517, 644156757, 2845209518, 2845209515], "tags": {"addr:housenumber": "1355", "addr:postcode": "V2S 8H2", "addr:street": "Sumas Way", "amenity": "restaurant", "building": "retail", "cuisine": "indian", "name": "Dosa Club Indian Kitchen & Bar", "opening_hours": "Mo-Th 11:00-21:00;Fr 11:00-22:00;Sa 10:00-22:00;Su 10:00-21:00", "phone": "+1-604-504-4410", "short_name": "Dosa Club", "website": "https://www.dosaclub.ca", "wheelchair": "yes"}}, {"type": "way", "id": 295230439, "nodes": [2989366803, 2989366804, 3282683387, 2989366805, 2989366806, 2989366807, 2989366808, 2989366803], "tags": {"addr:housenumber": "2443", "addr:postcode": "V2S 3P6", "addr:street": "McCallum Road", "alt_name": "Seh-mi Sushi Tempura", "amenity": "restaurant", "building": "retail", "cuisine": "sushi", "name": "Seh-mi Japanese Restaurant", "opening_hours": "11:00-22:00", "phone": "+1-604-850-1242", "website": "http://sehmisushi.com"}}, {"type": "way", "id": 295230446, "nodes": [2989367135, 3595536394, 3595521894, 2989367136, 3595520996, 2989367137, 3595536395, 2989367138, 11332164898, 3595520997, 3595536495, 11332164895, 2989367135], "tags": {"addr:housenumber": "33738", "addr:postcode": "V2S 1X2", "addr:street": "Laurel Street", "amenity": "pub", "branch": "Abbotsford", "brand": "Old Yale Brewing Co.", "building": "commercial", "building:levels": "1", "craft": "brewery", "cuisine": "regional", "internet_access": "wlan", "internet_access:fee": "no", "man_made": "works", "microbrewery": "yes", "name": "Old Yale Brewing Co.", "opening_hours": "Mo-Th 11:00-22:00; Fr 11:00-00:00; Sa 10:00-00:00; Su 10:00-21:00", "outdoor_seating": "yes", "product": "beer", "shop": "alcohol", "start_date": "2023-04-12", "takeaway": "yes", "toilets": "yes", "toilets:access": "customers", "toilets:wheelchair": "yes", "website": "https://www.oldyalebrewing.com", "wheelchair": "yes"}}, {"type": "way", "id": 299353545, "nodes": [3033434320, 3033434321, 3893621358, 3893639565, 3893639760, 3983368557, 3893639566, 3893639567, 3893639761, 3893653357, 3893653258, 3893653158, 3893639563, 3033434322, 3033434323, 3893639564, 3893653457, 3893653159, 3893653358, 3893639758, 3893639759, 3983367265, 3033434320], "tags": {"addr:housenumber": "33215", "addr:postcode": "V2S 2B2", "addr:street": "South Fraser Way", "amenity": "restaurant", "brand": "White Spot", "brand:wikidata": "Q7995414", "brand:wikipedia": "en:White Spot", "building": "retail", "cuisine": "burger", "description": "White Spot Legendary Restaurant", "internet_access": "wlan", "internet_access:fee": "no", "name": "White Spot", "opening_hours": "06:30-22:00", "phone": "+1-604-852-6676", "ref": "928", "website": "https://www.whitespot.ca/location/abbotsford/", "wheelchair": "yes"}}, {"type": "way", "id": 299353550, "nodes": [3033434444, 3033434445, 3033434443, 3033434633, 3033434641, 3033434444], "tags": {"addr:housenumber": "33244", "addr:postcode": "V2S 2B3", "addr:street": "South Fraser Way", "alt_name": "Greek Islands 3", "amenity": "restaurant", "building": "retail", "cuisine": "greek", "loc_name": "GI3", "name": "Greek Islands III", "opening_hours": "Th-Mo 16:00-22:00", "phone": "+1-604-859-1631", "website": "https://greekislandsrestaurants.com/"}}, {"type": "way", "id": 299780670, "nodes": [3038359301, 3038359302, 3038359303, 3038359304, 3038359301], "tags": {"addr:housenumber": "33363", "addr:postcode": "V2S 2B2", "addr:street": "South Fraser Way", "amenity": "restaurant", "building": "retail", "cuisine": "chinese", "name": "Hong Dynasty", "old_name": "Red House Chinese Restaurant;China Wok Takeout;Flaming Wok Chinese Cuisine", "opening_hours": "11:00-22:00", "phone": "+1-604-854-3333"}}, {"type": "way", "id": 301187970, "nodes": [3052982184, 3052982185, 3052982186, 4257934690, 3052982187, 3052982188, 3052982189, 3052982190, 3052982191, 3052982184], "tags": {"addr:housenumber": "2607", "addr:postcode": "V2S 3E2", "addr:street": "Ware Street", "amenity": "restaurant", "building": "retail", "cuisine": "indian", "name": "Himalaya Indian Cuisine", "opening_hours": "11:00-22:00", "phone": "+1-604-851-2583", "website": "http://himalayacuisine.ca"}}, {"type": "way", "id": 301187979, "nodes": [3052982336, 3052982337, 3052982338, 3052982339, 3052982340, 3052982341, 3052982342, 3052982343, 3052982336], "tags": {"addr:housenumber": "33508", "addr:postcode": "V2S 2B5", "addr:street": "South Fraser Way", "amenity": "restaurant", "building": "retail", "cuisine": "chinese", "name": "Bamboo Palace Restaurant", "opening_hours": "Su 11:00-14:00,16:00-22:00; Mo 16:00-22:00; Tu-Th 16:00-22:30; Fr-Sa 16:00-23:30", "phone": "+1-604-853-8311", "website": "https://bamboopalace.ca/"}}, {"type": "way", "id": 301187982, "nodes": [3052982352, 3052982353, 3052982354, 3052982355, 3052982352], "tags": {"addr:housenumber": "33486", "addr:postcode": "V2S 2B5", "addr:street": "South Fraser Way", "amenity": "restaurant", "building": "retail", "cuisine": "mexican", "name": "El Compa\u00f1eros", "old_name": "Flavours Indian Cuisine", "operator": "Angie Parkinson"}}, {"type": "way", "id": 306966964, "nodes": [3119897581, 3119897582, 3119897583, 3119897584, 3635779808, 3119897581], "tags": {"addr:housenumber": "2060", "addr:postcode": "V2S 2C7", "addr:street": "Sumas Way", "amenity": "restaurant", "brand": "Boston Pizza", "brand:wikidata": "Q894578", "brand:wikipedia": "en:Boston Pizza", "building": "retail", "cuisine": "pizza", "name": "Boston Pizza", "opening_hours": "11:00-02:00", "outdoor_seating": "yes", "phone": "+1-604-504-5900", "website": "https://m.bostonpizza.com/"}}, {"type": "way", "id": 308664041, "nodes": [3139320900, 3139320901, 3139320902, 3139320903, 4278368691, 3139320900], "tags": {"addr:unit": "1", "amenity": "restaurant", "building": "retail", "cuisine": "sushi", "name": "Yummy Sushi Gallery", "opening_hours": "We-Th,Sa-Mo 11:30-21:00; Tu off; Fr 11:30-21:30", "outdoor_seating": "yes", "phone": "+1-604-870-8610"}}, {"type": "way", "id": 315187654, "nodes": [3212843832, 3212843833, 4192731992, 4192764189, 3212843831, 3212843829, 4278484494, 3212843832], "tags": {"addr:housenumber": "32530", "addr:postcode": "V2T 1X5", "addr:street": "South Fraser Way", "amenity": "restaurant", "branch": "Clearbrook", "brand": "Boston Pizza", "brand:wikidata": "Q894578", "brand:wikipedia": "en:Boston Pizza", "building": "retail", "cuisine": "pizza", "description": "Restaurant & Sports Bar", "name": "Boston Pizza", "opening_hours": "Su-Mo 10:30-01:00; Tu-Sa 00:00-01:00,10:30-02:00", "outdoor_seating": "yes", "website": "https://bostonpizza.com/"}}, {"type": "way", "id": 318719404, "nodes": [3250909466, 3250910767, 3250911263, 3250909463, 3250909464, 3309591364, 3309606761, 3578695096, 3309606661, 3309606961, 3250911164, 3250909465, 3250909466], "tags": {"addr:housenumber": "33720", "addr:postcode": "V2S 2C2", "addr:street": "South Fraser Way", "amenity": "pub", "building": "commercial", "name": "TownHall Public House Abbotsford", "opening_hours": "Su 10:30-00:00; Sa 10:30-01:00; Mo-Fr 11:00-01:00", "operator": "Joseph Richard Group", "outdoor_seating": "yes", "phone": "+1-604-746-2000", "website": "https://jrgvancouver.ca/townhall-abbotsford"}}, {"type": "way", "id": 318865330, "nodes": [3252590661, 3460645993, 3460646093, 3460645893, 3252541864, 3252541865, 3252541866, 3252590661], "tags": {"addr:city": "Abbotsford", "addr:housenumber": "2852", "addr:postcode": "V2S 3Y2", "addr:street": "Gladys Avenue", "amenity": "restaurant", "building": "retail", "name": "Lou's Grill", "opening_hours": "Mo-Sa,PH 11:00-01:00; Su 11:00-24:00", "phone": "+1-604-855-8777", "website": "https://lousgrill.com/"}}, {"type": "way", "id": 324236829, "nodes": [3309590761, 3309563263, 3605175593, 3309591061, 3309563264, 3309591062, 3309590961, 3309563265, 3309590761], "tags": {"addr:city": "Abbotsford", "addr:housenumber": "33886", "addr:postcode": "V2S 2H4", "addr:street": "Essendene Avenue", "amenity": "restaurant", "branch": "Abbotsford", "brand": "Paliotti's Italian Restaurants", "building": "retail", "cuisine": "italian", "internet_access": "wlan", "internet_access:fee": "no", "name": "Paliotti's Italian Restaurants", "opening_hours": "Tu-Su 11:30-22:00; Mo off", "outdoor_seating": "yes", "phone": "+1-604-855-1888", "website": "https://paliottisitalianrestaurants.ca/abbotsford-italian-restaurant"}}, {"type": "way", "id": 330550760, "nodes": [3375158793, 3375158794, 3375158594, 3375158695, 3375158496, 3375158497, 3375158793], "tags": {"amenity": "restaurant", "building": "retail", "drive_through": "yes", "name": "Chevron White Spot", "shop": "convenience"}}, {"type": "way", "id": 330926787, "nodes": [3379611293, 3379611393, 3379611294, 3379610894, 3379590695, 3379610994, 3379611195, 3379611196, 3379590397, 3379611295, 3379590396, 3379611194, 3379611293], "tags": {"addr:housenumber": "31950", "addr:postcode": "V2S 4B7", "addr:street": "Madeira Place", "amenity": "restaurant", "building": "retail", "cuisine": "indian", "name": "Amritsari Sweets & Spice Restaurant"}}, {"type": "way", "id": 347006246, "nodes": [3534532297, 3534532494, 3534532495, 3534532496, 4243063426, 3534532297], "tags": {"addr:housenumber": "1990", "addr:postcode": "V2T 3M6", "addr:street": "McCallum Road", "amenity": "restaurant", "building": "retail", "cuisine": "pizza;indian", "name": "Dream Pizza", "outdoor_seating": "yes", "phone": "+1-604-746-2900"}}, {"type": "way", "id": 373851844, "nodes": [3772780021, 11768633687, 11768633688, 11768633689, 3772779977, 3772779974, 3772779975, 3772779864, 3772779778, 11768633690, 11768633691, 773005701, 3772779865, 3772779785, 3772779986, 3772780021], "tags": {"addr:housenumber": "36063;36035", "addr:postcode": "V3G 2C6", "addr:street": "North Parallel Road", "amenity": "restaurant", "branch": "Abbotsford (Whatcom)", "brand": "White Spot", "brand:wikidata": "Q7995414", "building": "retail", "cuisine": "burger", "name": "White Spot", "opening_hours": "06:30-23:00", "outdoor_seating": "yes", "phone": "+1-604-864-5744", "ref": "659", "url": "http://www.whitespot.ca/mobile-locations/lower-mainland", "website": "https://www.whitespot.ca/"}}, {"type": "way", "id": 497163080, "nodes": [4887681954, 4887684936, 4887681955, 4887684851, 4887682871, 4887681956, 4887682872, 4887682873, 4887681629, 4887684937, 4887682874, 4887682875, 4887681954], "tags": {"addr:city": "Abbotsford", "addr:housenumber": "3122", "addr:postcode": "V4X 2S8", "addr:street": "Station Road", "amenity": "pub", "building": "retail", "cuisine": "canadian", "name": "Station House Pub & Grill", "opening_hours": "Su 10:00-23:00; Mo-Tu 11:00-23:00; We-Th 11:00-00:00; Sa 10:00-01:00; Fr 11:00-01:00", "outdoor_seating": "yes", "phone": "+1-604-856-3111", "website": "https://m.facebook.com/stationhousepubandgrill"}}, {"type": "way", "id": 549921025, "nodes": [5312073792, 5312074059, 5312073815, 5312074024, 5312073730, 5312074099, 5312074101, 5312073807, 5312074032, 5312073728, 5312074023, 5312073787, 5312073759, 5312073791, 5312074037, 5312074067, 5312074051, 5312074081, 5312073814, 5312074033, 5312073798, 5312074062, 5312074094, 5312074052, 5312074053, 5312074321, 5312073761, 5312074342, 5312073738, 5312073757, 5312073792], "tags": {"amenity": "restaurant", "bar": "yes", "building": "yes", "cuisine": "regional", "name": "The Glen Bar & Grill", "phone": "+1 604-859-3477", "website": "https://www.theglenbarandgrill.org/"}}, {"type": "way", "id": 688802068, "nodes": [6460786711, 6460786743, 8243150632, 6460786744, 6460786724, 6460786711], "tags": {"addr:housenumber": "3058", "addr:street": "Gladwin Road", "amenity": "pub", "building": "retail", "building:levels": "2", "cuisine": "regional", "microbrewery": "yes", "name": "Trading Post Eatery", "opening_hours": "Mo-Th 11:30-23:00; Fr 11:30-00:00; Sa 10:30-00:00; Su 10:30-23:00", "operator": "Trading Post Brewing", "outdoor_seating": "yes", "phone": "+1-604-343-2337", "shop": "alcohol", "website": "https://tradingpostbrewing.com/locations/eatery-abbotsford", "wheelchair": "yes"}}, {"type": "way", "id": 1368962478, "nodes": [3014760770, 3014760769, 3910772951, 12679285086, 12679285087, 12679285089, 12679285088, 3910772956, 3014760770], "tags": {"addr:unit": "101", "alt_name": "J's Pizza & Grill", "amenity": "restaurant", "building:part": "retail", "cuisine": "pizza", "description": "Abbotsford Location 2", "level": "0", "name": "J's Pizza", "opening_hours": "Su 15:00-23:59; Mo-Th 10:30-23:59; Fr-Sa 10:30-14:00", "phone": "+1-604-859-3295", "website": "http://jspizza.ca"}}, {"type": "way", "id": 1368965151, "nodes": [3718594829, 12678177971, 12506336271, 3718595631, 3718595632, 11636786851, 11636786847, 3718595534, 3718595938, 3718595939, 3718595329, 3718595940, 3718594829], "tags": {"amenity": "bar", "building:part": "retail", "entrance": "yes", "level": "1", "name": "Sneakers Sports Lounge", "phone": "+1-604-854-3911", "website": "https://www.facebook.com/sneakerssportslounge/"}}, {"type": "way", "id": 1368974254, "nodes": [11608932237, 11442761486, 12679355638, 11442365868, 3014760822, 3014760823, 12679355639, 12679355640, 3014760818, 1784085057, 11608932237], "tags": {"addr:unit": "240", "amenity": "restaurant", "building:part": "retail", "cuisine": "greek;italian", "name": "The Rendezvous Restaurant", "opening_hours": "Mo,We,Th 15:00-20:30; Fr,Sa 15:00-21:30; Su 15:00-21:00", "operator": "Makris family", "outdoor_seating": "no", "phone": "+1-604-853-9911", "start_date": "1994", "website": "https://www.immelstreetrendezvous.com/"}}, {"type": "way", "id": 1368974256, "nodes": [12679355641, 12679355643, 3014760824, 12679355642, 12679355641], "tags": {"addr:unit": "200", "amenity": "restaurant", "building:part": "retail", "cuisine": "sushi", "name": "Kira Sushi", "opening_hours": "Tu-Sa 11:30-21:00", "phone": "+1-604-852-1214", "start_date": "2015-09-03", "website": "https://kirasushi.ca/"}}, {"type": "way", "id": 1369831149, "nodes": [2698771485, 2698771483, 2983514966, 2983514969, 2983514968, 2983514967, 12686169313, 2698771481, 2698771479, 12686169312, 2698771485], "tags": {"addr:housenumber": "2142", "addr:postcode": "V2S 2E2", "addr:street": "West Railway Street", "amenity": "restaurant", "brand": "The Keg", "brand:wikidata": "Q7744066", "building:part": "retail", "cuisine": "steak_house", "level": "1", "name": "The Keg", "opening_hours": "Mo-Th 17:00-22:00; Fr 16:30-23:00; Sa 16:00-23:00; Su 16:00-21:30", "phone": "+1-604-855-9893", "website": "https://thekeg.com/en/locations/abbotsford", "website:en": "https://thekeg.com/en/locations/abbotsford", "website:fr": "https://thekeg.com/fr/restaurants/abbotsford"}}, {"type": "way", "id": 1369862704, "nodes": [12686371859, 12686371861, 12686371862, 12686371860, 12686371859], "tags": {"addr:unit": "105A", "amenity": "restaurant", "building:part": "retail", "cuisine": "sushi", "name": "ebisu sushi", "opening_hours": "Mo-We 11:00-21:00; Th-Fr 11:00-21:30; Sa 12:00-21:30; Su 12:00-21:00", "phone": "+1-604-504-0205", "website": "https://www.ebisuabbotsford.com/"}}, {"type": "way", "id": 1369862710, "nodes": [12686371871, 3124419896, 12686371873, 12686371874, 12686371875, 3895833559, 3124419895, 12686371872, 12686371871], "tags": {"addr:unit": "102", "amenity": "restaurant", "building:part": "retail", "cuisine": "pizza;steak_house", "name": "Ocean Park Pizza & Steak house", "opening_hours": "Su-Mo 16:00-22:00; Tu-Th 16:00-23:00; Fr-Sa 16:00-00:00", "phone": "+1-604-859-2924", "website": "https://www.oceanparkpizzaabbotsford.com/"}}, {"type": "way", "id": 1370244188, "nodes": [3124352866, 3124352865, 3124352860, 3124352859, 3124352866], "tags": {"addr:housenumber": "2070", "addr:postcode": "V2S 2C7", "addr:street": "Sumas Way", "addr:unit": "200", "amenity": "restaurant", "building:part": "retail", "cuisine": "regional", "level": "1", "name": "S+L Kitchen & Bar", "old_name": "Milestones", "opening_hours": "11:00-00:00", "phone": "+1-604-744-3446", "website": "https://jrgvancouver.ca/sl-kitchen-bar-abbotsford"}}]}