{"version": 0.6, "generator": "Overpass API 0.7.62.5 1bd436f1", "osm3s": {"timestamp_osm_base": "2025-04-02T20:38:45Z", "copyright": "The data included in this document is from www.openstreetmap.org. The data is made available under ODbL."}, "elements": [{"type": "node", "id": 256370379, "lat": 49.3079214, "lon": -123.0410738}, {"type": "node", "id": 256370380, "lat": 49.3079156, "lon": -123.0407182}, {"type": "node", "id": 256370381, "lat": 49.3076945, "lon": -123.0407241}, {"type": "node", "id": 256370382, "lat": 49.3076985, "lon": -123.0410797}, {"type": "node", "id": 711028956, "lat": 49.316484, "lon": -122.9533431, "tags": {"amenity": "pub", "name": "Raven Pub"}}, {"type": "node", "id": 712640661, "lat": 49.3655245, "lon": -122.94806}, {"type": "node", "id": 712640683, "lat": 49.3656175, "lon": -122.9482976}, {"type": "node", "id": 712640685, "lat": 49.3651506, "lon": -122.9484053}, {"type": "node", "id": 712640686, "lat": 49.3652227, "lon": -122.9485893}, {"type": "node", "id": 712640689, "lat": 49.3654077, "lon": -122.9484184}, {"type": "node", "id": 712640692, "lat": 49.3654287, "lon": -122.948472}, {"type": "node", "id": 1087143870, "lat": 49.3028992, "lon": -122.588024}, {"type": "node", "id": 1087143887, "lat": 49.3030099, "lon": -122.5879218}, {"type": "node", "id": 1087143914, "lat": 49.3029409, "lon": -122.5880037}, {"type": "node", "id": 1087143936, "lat": 49.3031169, "lon": -122.5884068}, {"type": "node", "id": 1087143945, "lat": 49.3029897, "lon": -122.5884605}, {"type": "node", "id": 1087143976, "lat": 49.3029318, "lon": -122.5879599}, {"type": "node", "id": 1087143994, "lat": 49.3031037, "lon": -122.588154}, {"type": "node", "id": 1087144028, "lat": 49.3030618, "lon": -122.5879517}, {"type": "node", "id": 1087144036, "lat": 49.3031972, "lon": -122.5883676}, {"type": "node", "id": 1331898617, "lat": 49.3127252, "lon": -123.0272348, "tags": {"amenity": "pub", "name": "Seymour's Pub"}}, {"type": "node", "id": 1333826563, "lat": 49.3359374, "lon": -123.0389261, "tags": {"amenity": "restaurant", "cuisine": "japanese", "name": "Valley Sushi"}}, {"type": "node", "id": 1764670275, "lat": 49.3066529, "lon": -123.0085425, "tags": {"addr:housenumber": "2455", "addr:postcode": "V7H 0A2", "addr:street": "Dollarton Hwy", "addr:unit": "121", "amenity": "restaurant", "cuisine": "fish", "name": "The Crab Shop", "website": "https://www.thecrabshop.ca/"}}, {"type": "node", "id": 1769012653, "lat": 49.3063411, "lon": -123.034874}, {"type": "node", "id": 1769012659, "lat": 49.3061876, "lon": -123.034967}, {"type": "node", "id": 1769012686, "lat": 49.3064297, "lon": -123.035217}, {"type": "node", "id": 1769012812, "lat": 49.3062762, "lon": -123.03531}, {"type": "node", "id": 1796551740, "lat": 49.3079354, "lon": -123.040833}, {"type": "node", "id": 1796551741, "lat": 49.3079169, "lon": -123.0408335}, {"type": "node", "id": 1796551744, "lat": 49.3079369, "lon": -123.0409597}, {"type": "node", "id": 1796551877, "lat": 49.3079202, "lon": -123.0409602}, {"type": "node", "id": 1934277530, "lat": 49.3361269, "lon": -123.0393028, "tags": {"amenity": "restaurant", "name": "Brown's Socialhouse Lynn Valley"}}, {"type": "node", "id": 2033777073, "lat": 49.3161959, "lon": -122.9682354, "tags": {"addr:city": "North Vancouver", "addr:housenumber": "3720", "addr:postcode": "V7G 1C3", "addr:street": "Mt Seymour Parkway", "amenity": "restaurant", "cuisine": "japanese", "name": "Momiji Japanese Cuisine", "opening_hours": "Su 11:30-21:30; Tu-Th 11:30-21:30; Fr 11:30-22:00; Sa 12:00-22:00", "phone": "+1-604-929-0990", "source": "menu", "takeaway": "yes", "wheelchair": "yes"}}, {"type": "node", "id": 2592218717, "lat": 49.3359055, "lon": -123.0376105, "tags": {"amenity": "restaurant", "brand": "Pizza Hut", "brand:wikidata": "Q191615", "brand:wikipedia": "en:Pizza Hut", "cuisine": "pizza", "name": "Pizza Hut"}}, {"type": "node", "id": 2611909926, "lat": 49.306933, "lon": -123.034556, "tags": {"addr:city": "North Vancouver", "addr:housenumber": "1386", "addr:street": "Main Street", "addr:unit": "7", "amenity": "restaurant", "brand": "Freshii", "brand:wikidata": "Q5503051", "brand:wikipedia": "en:Freshii", "cuisine": "salad", "name": "Freshii"}}, {"type": "node", "id": 2616729224, "lat": 49.3365713, "lon": -123.0400751, "tags": {"addr:city": "North Vancouver", "addr:housenumber": "1232", "addr:province": "BC", "addr:street": "Ross Road", "amenity": "restaurant", "cuisine": "japanese", "name": "Yama Sushi"}}, {"type": "node", "id": 2785799760, "lat": 49.3073887, "lon": -123.0322149, "tags": {"addr:housenumber": "319", "addr:postcode": "V7J 2K7", "addr:street": "Mountain Highway", "amenity": "restaurant", "cuisine": "french", "name": "Tour de Feast", "source": "Visited", "website": "https://tourdefeast.com/"}}, {"type": "node", "id": 3377381991, "lat": 49.3266703, "lon": -122.9508312, "tags": {"addr:housenumber": "4355", "addr:street": "Gallant Avenue", "amenity": "restaurant", "cuisine": "sushi", "name": "Deep Cove Osaka", "opening_hours": "Mo-Sa 11:30-21:30; Su 11:30-20:45", "phone": "+1-604-929-5033", "takeaway": "yes", "website": "https://www.deepcoveosakasushi.com/"}}, {"type": "node", "id": 3377382793, "lat": 49.3266807, "lon": -122.950443, "tags": {"addr:city": "North Vancouver", "addr:housenumber": "4361", "addr:province": "BC", "addr:street": "Gallant Avenue", "alt_name": "Pomegranate Grillhouse & Cafe", "amenity": "restaurant", "cuisine": "pizza", "level": "0", "name": "Pomegranate", "outdoor_seating": "yes", "start_date": "2005"}}, {"type": "node", "id": 3377382824, "lat": 49.3269281, "lon": -122.9493346, "tags": {"addr:housenumber": "4390", "addr:street": "Gallant Avenue", "addr:unit": "107C", "amenity": "restaurant", "cuisine": "regional", "indoor_seating": "yes", "name": "Arms Reach Bistro", "opening_hours": "Mo-Fr 12:00-21:00; Sa-Su 11:00-21:00; Dec 24-26 \"off\"", "outdoor_seating": "yes", "phone": "+1-604-929-7442", "website": "https://www.armsreachbistro.com", "wheelchair": "yes"}}, {"type": "node", "id": 3393295245, "lat": 49.312732, "lon": -123.0573094, "tags": {"addr:city": "North Vancouver City", "addr:housenumber": "707", "addr:street": "Queensbury Avenue", "amenity": "restaurant", "cuisine": "sushi", "name": "Sansho", "note": "Fully Licenced", "opening_hours": "Su,Tu-Th 11:30-14:30,17:00-21:00; Fr-Sa 11:30-14:30,17:00-21:30", "phone": "+1-778-340-1189", "smoking": "outside", "takeaway": "yes", "website": "http://www.sansho.ca"}}, {"type": "node", "id": 4012216762, "lat": 49.3036503, "lon": -123.019535}, {"type": "node", "id": 4012216765, "lat": 49.3036623, "lon": -123.0195707}, {"type": "node", "id": 4012216766, "lat": 49.3036628, "lon": -123.0194467}, {"type": "node", "id": 4012216767, "lat": 49.3036657, "lon": -123.0195677}, {"type": "node", "id": 4012216773, "lat": 49.3036832, "lon": -123.0194483}, {"type": "node", "id": 4012216775, "lat": 49.3036946, "lon": -123.0196468}, {"type": "node", "id": 4012216782, "lat": 49.3037234, "lon": -123.0197024}, {"type": "node", "id": 4012216786, "lat": 49.3037304, "lon": -123.0194026}, {"type": "node", "id": 4012216788, "lat": 49.3037359, "lon": -123.0194224}, {"type": "node", "id": 4012216807, "lat": 49.3037976, "lon": -123.0194437}, {"type": "node", "id": 4012216808, "lat": 49.303801, "lon": -123.0195738}, {"type": "node", "id": 4012216816, "lat": 49.3038155, "lon": -123.0196096}, {"type": "node", "id": 4012216817, "lat": 49.303816, "lon": -123.0194879}, {"type": "node", "id": 4012216821, "lat": 49.3038289, "lon": -123.0194757}, {"type": "node", "id": 4012216827, "lat": 49.3038488, "lon": -123.0195305}, {"type": "node", "id": 4396867202, "lat": 49.3059961, "lon": -123.0105992, "tags": {"amenity": "restaurant", "name": "Y2 Cafe"}}, {"type": "node", "id": 5761161767, "lat": 49.307303, "lon": -122.9539198, "tags": {"addr:housenumber": "449", "addr:street": "North Dollarton Highway", "amenity": "restaurant", "cuisine": "sushi", "name": "Sapporo Kitchen", "website": "https://www.sapporokitchen.com/"}}, {"type": "node", "id": 5761161934, "lat": 49.3069289, "lon": -122.9534771, "tags": {"amenity": "restaurant", "cuisine": "greek", "name": "Nektar's Pizza and Greek food"}}, {"type": "node", "id": 5805644445, "lat": 49.2986719, "lon": -122.7866886, "tags": {"amenity": "restaurant", "cuisine": "sushi;udon;sashimi", "name": "Sushi Boss", "takeaway": "yes"}}, {"type": "node", "id": 5826064453, "lat": 49.3099735, "lon": -123.0339301, "tags": {"addr:city": "North Vancouver", "addr:housenumber": "1448", "addr:postcode": "V7J 1H2", "addr:street": "Charlotte Road", "amenity": "bar", "name": "Bridge Brewing Tasting Room", "opening_hours": "11:00-23:00", "outdoor_seating": "yes", "phone": "+1-604-770-2739", "shop": "alcohol", "website": "https://www.bridgebrewing.com"}}, {"type": "node", "id": 6043479061, "lat": 49.3059154, "lon": -123.016369, "tags": {"addr:city": "North Vancouver", "addr:housenumber": "2120", "addr:street": "Dollarton Highway", "addr:unit": "119", "amenity": "restaurant", "cuisine": "chicken", "name": "Barcelo's Flame Grilled Chicken", "website": "https://barceloscanada.ca/"}}, {"type": "node", "id": 6043479063, "lat": 49.305542, "lon": -123.0300905, "tags": {"addr:city": "North Vancouver", "addr:housenumber": "1571", "addr:postcode": "V7J 1E6", "addr:street": "Oxford Street", "amenity": "restaurant", "cuisine": "coffee_shop;ice_cream;sandwich", "name": "Stuffies Pastries Cafe", "phone": "+1-604-971-1000"}}, {"type": "node", "id": 6148834590, "lat": 49.3100817, "lon": -123.0417178, "tags": {"addr:city": "North Vancouver", "addr:housenumber": "333", "addr:street": "Brooksbank Avenue", "addr:unit": "770", "amenity": "restaurant", "cuisine": "indian", "name": "Mumbai Masala"}}, {"type": "node", "id": 6536127079, "lat": 49.3056675, "lon": -123.0347732, "tags": {"amenity": "pub", "name": "Wildeye Tasting Room", "opening_hours": "Mo-Th,Su 11:00-23:00; Fr,Sa 11:00-00:00", "phone": "+1-604-988-1900", "website": "https://www.wildeyebrewing.ca/"}}, {"type": "node", "id": 6711100469, "lat": 49.2958081, "lon": -122.8029346, "tags": {"amenity": "restaurant", "cuisine": "chinese", "name": "Banshan BBQ Restaurant"}}, {"type": "node", "id": 6711175594, "lat": 49.2963606, "lon": -122.8035235, "tags": {"amenity": "restaurant", "cuisine": "chicken", "name": "Polly Pokinos Gourmet Wings"}}, {"type": "node", "id": 6711175595, "lat": 49.2964195, "lon": -122.803499, "tags": {"amenity": "restaurant", "cuisine": "sushi", "name": "O Sushi"}}, {"type": "node", "id": 6711175596, "lat": 49.2964743, "lon": -122.8034783, "tags": {"amenity": "restaurant", "cuisine": "pizza", "name": "Plateau Pizza"}}, {"type": "node", "id": 7075292040, "lat": 49.3162246, "lon": -122.9533502, "tags": {"amenity": "restaurant", "cuisine": "asian", "name": "Spicy Ginger Kitchen"}}, {"type": "node", "id": 7076095792, "lat": 49.3266797, "lon": -122.9497215, "tags": {"addr:housenumber": "4385", "addr:street": "Gallant Avenue", "amenity": "restaurant", "cuisine": "pizza", "indoor_seating": "yes", "level": "0", "name": "Deep Cove Pizza", "outdoor_seating": "yes"}}, {"type": "node", "id": 7076095794, "lat": 49.3266813, "lon": -122.950228, "tags": {"addr:city": "North Vancouver", "addr:housenumber": "4369", "addr:province": "BC", "addr:street": "Gallant Avenue", "amenity": "restaurant", "cuisine": "soup;tacos;burrito;burger;beer", "indoor_seating": "yes", "level": "0", "name": "Deepwater Micro Eatery", "outdoor_seating": "yes", "phone": "+1-604-770-0280", "website": "https://deepwatermicroeatery.ca"}}, {"type": "node", "id": 7198216527, "lat": 49.3162577, "lon": -122.9710365, "tags": {"addr:housenumber": "3650", "addr:street": "Mount Seymour Parkway", "addr:unit": "153", "amenity": "restaurant", "cuisine": "japanese", "name": "Genji Japanese Restaurant", "opening_hours": "Mo-Tu, Th-Fr 11:30-15:00, 16:30-21:00; Sa 12:00-15:00, 16:30-21:00", "website": "https://genji-parkgate.ca/"}}, {"type": "node", "id": 7293171406, "lat": 49.3165961, "lon": -122.9693349, "tags": {"amenity": "restaurant", "name": "Ingrain"}}, {"type": "node", "id": 8830624915, "lat": 49.3370081, "lon": -123.0393876, "tags": {"addr:city": "North Vancouver", "addr:housenumber": "1250A", "addr:province": "BC", "addr:street": "Lynn Valley Road", "amenity": "restaurant", "cuisine": "sushi", "name": "Mr. Sushi"}}, {"type": "node", "id": 9282407286, "lat": 49.303043, "lon": -122.5884346}, {"type": "node", "id": 9282407287, "lat": 49.3030513, "lon": -122.5884749}, {"type": "node", "id": 9282407288, "lat": 49.3031237, "lon": -122.5884395}, {"type": "node", "id": 9282407290, "lat": 49.3030203, "lon": -122.5879719}, {"type": "node", "id": 9282407291, "lat": 49.3031266, "lon": -122.5881519}, {"type": "node", "id": 9282407292, "lat": 49.303184, "lon": -122.5883044}, {"type": "node", "id": 9282407293, "lat": 49.3031607, "lon": -122.5883158}, {"type": "node", "id": 10825175575, "lat": 49.337074, "lon": -123.039383, "tags": {"addr:city": "North Vancouver", "addr:housenumber": "1252", "addr:postcode": "V7J 2A3", "addr:province": "BC", "addr:street": "Lynn Valley Road", "amenity": "restaurant", "check_date": "2024-12-03", "check_date:currency:XBT": "2024-12-03", "cuisine": "donair;indian", "currency:XBT": "yes", "name": "Big Bite Donair", "opening_hours": "Mo-Su 11:00-21:00", "payment:coinos": "yes", "payment:lightning": "yes", "payment:onchain": "yes", "phone": "+1-604-770-2070", "survey:date": "2023-05-31", "website": "https://bigbitedonair.ca/"}}, {"type": "node", "id": 10975910702, "lat": 49.3057539, "lon": -123.0185957, "tags": {"addr:housenumber": "2100", "addr:street": "Dollarton Highway", "air_conditioning": "yes", "amenity": "bar", "name": "GoodCo", "opening_hours": "Mo-Th 11:30-22:00; Fr 11:30-24:00; Sa 11:00-24:00; Su 11:00-22:00", "phone": "+1-604-770-4980", "smoking": "no", "website": "https://www.goodcobars.com/", "wheelchair": "yes"}}, {"type": "node", "id": 11365335514, "lat": 49.3366243, "lon": -123.0398279, "tags": {"addr:city": "North Vancouver", "addr:housenumber": "1238", "addr:province": "BC", "addr:street": "Ross Road", "amenity": "restaurant", "cuisine": "chinese", "name": "Wonderful Szechuan"}}, {"type": "node", "id": 11934329870, "lat": 49.3057109, "lon": -123.0178091, "tags": {"addr:housenumber": "102-2120", "addr:street": "Dollarton Highway", "amenity": "restaurant", "contact:facebook": "Buddhafullcafe", "contact:instagram": "buddhafullprovisions", "contact:twitter": "BuddhaFullCafe", "diet:vegan": "only", "internet_access": "wlan", "name": "Buddha-Full - Northwoods Village", "opening_hours": "Mo-Su 09:30-18:00", "phone": "+1-604-770-1032", "website": "https://www.buddha-full.ca/"}}, {"type": "node", "id": 12456350344, "lat": 49.2915404, "lon": -122.8815053}, {"type": "node", "id": 12456350345, "lat": 49.2915118, "lon": -122.8814849}, {"type": "node", "id": 12456350346, "lat": 49.2915216, "lon": -122.8814528}, {"type": "node", "id": 12456350347, "lat": 49.2914732, "lon": -122.8814183}, {"type": "node", "id": 12456350348, "lat": 49.2914644, "lon": -122.8814474}, {"type": "node", "id": 12456350349, "lat": 49.2914561, "lon": -122.8814415}, {"type": "node", "id": 12456350350, "lat": 49.2914141, "lon": -122.8815798}, {"type": "node", "id": 12456350351, "lat": 49.291386, "lon": -122.8815597}, {"type": "node", "id": 12456350352, "lat": 49.2913635, "lon": -122.881634}, {"type": "node", "id": 12456350353, "lat": 49.2914768, "lon": -122.8817148}, {"type": "node", "id": 12477097401, "lat": 49.3363796, "lon": -123.0376367, "tags": {"addr:housenumber": "1308", "addr:street": "Ross Road", "amenity": "restaurant", "cuisine": "breakfast;diner", "name": "Tommy's Cafe", "opening_hours": "Mo-Su 08:00-20:00"}}, {"type": "node", "id": 12686566620, "lat": 49.3072424, "lon": -122.954063, "tags": {"amenity": "restaurant", "name": "Scratch Kitchen"}}, {"type": "way", "id": 23673261, "nodes": [256370379, 1796551877, 1796551744, 1796551740, 1796551741, 256370380, 256370381, 256370382, 256370379], "tags": {"amenity": "restaurant", "brand": "White Spot", "brand:wikidata": "Q7995414", "brand:wikipedia": "en:White Spot", "building": "yes", "cuisine": "burger", "name": "White Spot"}}, {"type": "way", "id": 57118113, "nodes": [712640683, 712640661, 712640685, 712640686, 712640689, 712640692, 712640683], "tags": {"amenity": "restaurant", "building": "yes", "name": "Three Peaks Lodge"}}, {"type": "way", "id": 93673212, "nodes": [1087144036, 1087143936, 9282407288, 9282407287, 9282407286, 1087143945, 1087143870, 1087143914, 1087143976, 1087143887, 9282407290, 1087144028, 1087143994, 9282407291, 9282407293, 9282407292, 1087144036], "tags": {"amenity": "restaurant", "building": "yes", "name": "Bentley Family Dining Hall", "source": "Bing"}}, {"type": "way", "id": 165351384, "nodes": [1769012812, 1769012659, 1769012653, 1769012686, 1769012812], "tags": {"addr:city": "North Vancouver", "addr:housenumber": "1378", "addr:street": "Main Street", "amenity": "restaurant", "building": "yes", "name": "Toby's"}}, {"type": "way", "id": 398466317, "nodes": [4012216782, 4012216816, 4012216808, 4012216827, 4012216821, 4012216817, 4012216807, 4012216788, 4012216786, 4012216773, 4012216766, 4012216762, 4012216767, 4012216765, 4012216775, 4012216782], "tags": {"amenity": "pub", "building": "commercial", "name": "The Maplewood Taphouse & Eatery"}}, {"type": "way", "id": 1346678868, "nodes": [12456350344, 12456350345, 12456350346, 12456350347, 12456350348, 12456350349, 12456350350, 12456350351, 12456350352, 12456350353, 12456350344], "tags": {"amenity": "restaurant", "building": "yes", "cuisine": "seafood", "name": "Float30"}}]}