{"version": 0.6, "generator": "Overpass API 0.7.62.5 1bd436f1", "osm3s": {"timestamp_osm_base": "2025-03-22T01:13:24Z", "copyright": "The data included in this document is from www.openstreetmap.org. The data is made available under ODbL."}, "elements": [{"type": "node", "id": 29947499, "lat": 52.3143013, "lon": 15.0696777, "tags": {"tourism": "hotel"}}, {"type": "node", "id": 29947505, "lat": 52.3260106, "lon": 15.0155749, "tags": {"tourism": "hotel"}}, {"type": "node", "id": 30077461, "lat": 52.3143563, "lon": 15.0693424, "tags": {"tourism": "hotel"}}, {"type": "node", "id": 535793379, "lat": 52.4399173, "lon": 15.113297, "tags": {"addr:city": "Sul\u0119cin", "addr:housenumber": "10", "addr:postcode": "69-200", "addr:street": "Tadeusza Ko\u015bciuszki", "name": "Hotel Chrobry", "tourism": "hotel"}}, {"type": "node", "id": 569479948, "lat": 52.3378975, "lon": 14.5899671, "tags": {"name": "Cargo Hotel", "stars": "3", "tourism": "hotel"}}, {"type": "node", "id": 654073586, "lat": 52.3509533, "lon": 14.5601003, "tags": {"email": "rezerwacje@hotelkaliski.pl", "internet_access": "wlan", "internet_access:fee": "no", "name": "Kaliski", "phone": "+48 95 758 37 35", "stars": "3", "tourism": "hotel", "website": "https://slubice.hotelkaliski.pl/"}}, {"type": "node", "id": 654073609, "lat": 52.3493138, "lon": 14.5732864, "tags": {"name": "Hotelik Marion", "tourism": "hotel"}}, {"type": "node", "id": 654073616, "lat": 52.3660712, "lon": 14.5673827, "tags": {"name": "Oaza", "tourism": "hotel"}}, {"type": "node", "id": 654073618, "lat": 52.3455145, "lon": 14.5915646}, {"type": "node", "id": 1186238629, "lat": 52.4544028, "lon": 14.8652488, "tags": {"name": "Zajazd Modrzew", "tourism": "hotel"}}, {"type": "node", "id": 1232447406, "lat": 52.6733063, "lon": 14.8972469, "tags": {"name": "Hotel Witnica", "tourism": "hotel"}}, {"type": "node", "id": 1393938327, "lat": 52.3381271, "lon": 14.5462198}, {"type": "node", "id": 1393938335, "lat": 52.338175, "lon": 14.5462977}, {"type": "node", "id": 1393938338, "lat": 52.3381822, "lon": 14.5468349}, {"type": "node", "id": 1393938344, "lat": 52.3382127, "lon": 14.5463511}, {"type": "node", "id": 1393938349, "lat": 52.338249, "lon": 14.5460189}, {"type": "node", "id": 1393938350, "lat": 52.3382603, "lon": 14.5460374}, {"type": "node", "id": 1393938351, "lat": 52.3382921, "lon": 14.5463482}, {"type": "node", "id": 1393938354, "lat": 52.3382978, "lon": 14.5459757}, {"type": "node", "id": 1393938358, "lat": 52.3383342, "lon": 14.5461603}, {"type": "node", "id": 1393938361, "lat": 52.3383673, "lon": 14.5460887}, {"type": "node", "id": 1393938375, "lat": 52.3384134, "lon": 14.5461238}, {"type": "node", "id": 1393938376, "lat": 52.3384245, "lon": 14.5462321}, {"type": "node", "id": 1394797952, "lat": 52.5797033, "lon": 14.6387468, "tags": {"amenity": "restaurant", "name": "Restauracja Bastion", "tourism": "hotel"}}, {"type": "node", "id": 1409676346, "lat": 52.3390014, "lon": 14.5519607}, {"type": "node", "id": 1409676348, "lat": 52.339017, "lon": 14.5521269}, {"type": "node", "id": 1409676368, "lat": 52.3390461, "lon": 14.5516111}, {"type": "node", "id": 1409676370, "lat": 52.3390758, "lon": 14.5519429}, {"type": "node", "id": 1409676373, "lat": 52.3391195, "lon": 14.5515936}, {"type": "node", "id": 1409676378, "lat": 52.3391483, "lon": 14.5520743}, {"type": "node", "id": 1409676380, "lat": 52.3391499, "lon": 14.5520922}, {"type": "node", "id": 1409676382, "lat": 52.3391663, "lon": 14.5517763}, {"type": "node", "id": 1409676383, "lat": 52.3391664, "lon": 14.5520231}, {"type": "node", "id": 1409676388, "lat": 52.339164, "lon": 14.5520629}, {"type": "node", "id": 1409676389, "lat": 52.3391683, "lon": 14.5520471}, {"type": "node", "id": 1409676391, "lat": 52.3391854, "lon": 14.5520192}, {"type": "node", "id": 1409809555, "lat": 52.3342323, "lon": 14.5551778}, {"type": "node", "id": 1409809557, "lat": 52.3342538, "lon": 14.5548444}, {"type": "node", "id": 1409809558, "lat": 52.3342694, "lon": 14.554825}, {"type": "node", "id": 1409809559, "lat": 52.3343423, "lon": 14.5550658}, {"type": "node", "id": 1409809561, "lat": 52.3343482, "lon": 14.5549637}, {"type": "node", "id": 1409809564, "lat": 52.3343571, "lon": 14.5548298}, {"type": "node", "id": 1409809573, "lat": 52.334375, "lon": 14.554859}, {"type": "node", "id": 1409809576, "lat": 52.334375, "lon": 14.5549272}, {"type": "node", "id": 1409809579, "lat": 52.3343898, "lon": 14.555078}, {"type": "node", "id": 1409809580, "lat": 52.3343928, "lon": 14.5550293}, {"type": "node", "id": 1409809591, "lat": 52.3344627, "lon": 14.555258}, {"type": "node", "id": 1409809592, "lat": 52.3344731, "lon": 14.5550464}, {"type": "node", "id": 1415882490, "lat": 52.3451064, "lon": 14.5918242}, {"type": "node", "id": 1415882513, "lat": 52.3451701, "lon": 14.5916849}, {"type": "node", "id": 1415882548, "lat": 52.3452319, "lon": 14.5917606}, {"type": "node", "id": 1415882567, "lat": 52.3452922, "lon": 14.5920514}, {"type": "node", "id": 1415882625, "lat": 52.3453907, "lon": 14.5914131}, {"type": "node", "id": 1533865361, "lat": 52.3521229, "lon": 14.5515736}, {"type": "node", "id": 1533865367, "lat": 52.3521391, "lon": 14.5516316}, {"type": "node", "id": 1533865415, "lat": 52.3522438, "lon": 14.5515458}, {"type": "node", "id": 1533865423, "lat": 52.3522572, "lon": 14.551657}, {"type": "node", "id": 2393811606, "lat": 52.5794216, "lon": 14.6383996, "tags": {"addr:housenumber": "15", "addr:street": "Graniczna", "name": "Hotel Bastion", "operator": "BAKRA sp. z.o.o.", "phone": "+48 95 752 5970", "tourism": "hotel", "website": "https://hotel-bastion.pl/"}}, {"type": "node", "id": 2650803404, "lat": 52.5624745, "lon": 14.8044944, "tags": {"amenity": "restaurant", "name": "Hotel-ik Slowianski", "tourism": "hotel", "wheelchair": "yes"}}, {"type": "node", "id": 2965773539, "lat": 52.3382986, "lon": 14.5468336}, {"type": "node", "id": 3025782809, "lat": 52.3491946, "lon": 14.5662443, "tags": {"addr:city": "S\u0142ubice", "addr:housenumber": "16", "addr:postcode": "69-100", "addr:street": "Adama Asnyka", "ele": "3", "name": "Relax", "phone": "+48 95 758 0765", "smoking": "outside", "toilets:wheelchair": "no", "tourism": "hotel", "website": "http://www.hotel-relax.slubice.net", "wheelchair": "yes"}}, {"type": "node", "id": 3523849626, "lat": 52.3741065, "lon": 14.5741902}, {"type": "node", "id": 3523849632, "lat": 52.3741768, "lon": 14.5742434}, {"type": "node", "id": 3859732512, "lat": 52.3496251, "lon": 14.5596643, "tags": {"addr:housenumber": "11", "addr:street": "Adama Mickiewicza", "check_date": "2024-05-01", "name": "Hotel Villa Casino", "toilets:wheelchair": "no", "tourism": "hotel", "wheelchair": "no"}}, {"type": "node", "id": 3892174121, "lat": 52.4626452, "lon": 14.8709138}, {"type": "node", "id": 3892174134, "lat": 52.4627119, "lon": 14.8710142}, {"type": "node", "id": 3892174136, "lat": 52.4627226, "lon": 14.8709951}, {"type": "node", "id": 3892174141, "lat": 52.4627349, "lon": 14.8710505}, {"type": "node", "id": 3892174148, "lat": 52.4627461, "lon": 14.8710305}, {"type": "node", "id": 3892174150, "lat": 52.4627584, "lon": 14.8707111}, {"type": "node", "id": 3892174152, "lat": 52.4627654, "lon": 14.8710963}, {"type": "node", "id": 3892174258, "lat": 52.4628099, "lon": 14.8711362}, {"type": "node", "id": 3892174262, "lat": 52.4628186, "lon": 14.8711743}, {"type": "node", "id": 3892174263, "lat": 52.4628231, "lon": 14.870993}, {"type": "node", "id": 3892174265, "lat": 52.4628262, "lon": 14.8711607}, {"type": "node", "id": 3892174271, "lat": 52.4628462, "lon": 14.8709513}, {"type": "node", "id": 3892174273, "lat": 52.4628482, "lon": 14.8712188}, {"type": "node", "id": 3892174275, "lat": 52.4628539, "lon": 14.8712087}, {"type": "node", "id": 3892174277, "lat": 52.4628594, "lon": 14.8710476}, {"type": "node", "id": 3892174278, "lat": 52.4628645, "lon": 14.8712434}, {"type": "node", "id": 3892174280, "lat": 52.4628702, "lon": 14.8712333}, {"type": "node", "id": 3892174281, "lat": 52.462879, "lon": 14.8708925}, {"type": "node", "id": 3892174282, "lat": 52.4628838, "lon": 14.871008}, {"type": "node", "id": 3892174284, "lat": 52.4629039, "lon": 14.8709721}, {"type": "node", "id": 3892174286, "lat": 52.4629189, "lon": 14.8709946}, {"type": "node", "id": 3892174287, "lat": 52.4629248, "lon": 14.8713653}, {"type": "node", "id": 3892174290, "lat": 52.4629316, "lon": 14.8709719}, {"type": "node", "id": 3892174291, "lat": 52.4629342, "lon": 14.8713484}, {"type": "node", "id": 3892174294, "lat": 52.4629439, "lon": 14.8713941}, {"type": "node", "id": 3892174299, "lat": 52.4629606, "lon": 14.8713294}, {"type": "node", "id": 3892174302, "lat": 52.4629712, "lon": 14.8713453}, {"type": "node", "id": 3892174326, "lat": 52.4630559, "lon": 14.871159}, {"type": "node", "id": 3892341480, "lat": 52.3515504, "lon": 14.562113}, {"type": "node", "id": 3892341482, "lat": 52.3515525, "lon": 14.5620478}, {"type": "node", "id": 3892341510, "lat": 52.3515821, "lon": 14.5620044}, {"type": "node", "id": 3892341533, "lat": 52.3516044, "lon": 14.5619881}, {"type": "node", "id": 3892341535, "lat": 52.351608, "lon": 14.5622175}, {"type": "node", "id": 3892341592, "lat": 52.3516671, "lon": 14.5622252}, {"type": "node", "id": 3892341597, "lat": 52.3516701, "lon": 14.5622244}, {"type": "node", "id": 3892341606, "lat": 52.3516762, "lon": 14.5619114}, {"type": "node", "id": 3892341608, "lat": 52.3516778, "lon": 14.5622194}, {"type": "node", "id": 3892341654, "lat": 52.3517523, "lon": 14.5621088}, {"type": "node", "id": 3892341657, "lat": 52.3517569, "lon": 14.562102}, {"type": "node", "id": 3892341659, "lat": 52.3517575, "lon": 14.5620614}, {"type": "node", "id": 3892341664, "lat": 52.3517601, "lon": 14.5620924}, {"type": "node", "id": 3892341665, "lat": 52.3517602, "lon": 14.5620706}, {"type": "node", "id": 3892341666, "lat": 52.3517613, "lon": 14.5620814}, {"type": "node", "id": 4010042647, "lat": 52.5799591, "lon": 14.6376123, "tags": {"name": "Kamienica Hostel", "tourism": "hotel"}}, {"type": "node", "id": 4010043671, "lat": 52.5924597, "lon": 14.6454565, "tags": {"addr:city": "Kostrzyn nad Odr\u0105", "addr:country": "PL", "addr:housenumber": "2", "addr:postcode": "66-470", "addr:street": "Or\u0142a Bia\u0142ego", "internet_access": "wlan", "internet_access:fee": "no", "name": "Ku\u017ania Hotelik", "payment:maestro": "yes", "payment:mastercard": "yes", "payment:visa": "yes", "phone": "+48 95 7520459", "smoking": "outside", "tourism": "hotel", "website": "https://kuznia-hotelik-kostrzyn-nad-odra.booked.com.pl/", "wheelchair": "no"}}, {"type": "node", "id": 4418150110, "lat": 52.4637017, "lon": 14.8839754, "tags": {"name": "Dolina Lesna", "tourism": "hotel"}}, {"type": "node", "id": 4536463940, "lat": 52.3470528, "lon": 14.8271531, "tags": {"name": "Hotel Park", "tourism": "hotel"}}, {"type": "node", "id": 4559212306, "lat": 52.3741371, "lon": 14.5744061}, {"type": "node", "id": 4559212307, "lat": 52.3737429, "lon": 14.5741515}, {"type": "node", "id": 4559212308, "lat": 52.3737836, "lon": 14.5739834}, {"type": "node", "id": 4579927279, "lat": 52.4633592, "lon": 14.8637806}, {"type": "node", "id": 4579927280, "lat": 52.46335, "lon": 14.8638624}, {"type": "node", "id": 4579927281, "lat": 52.4633936, "lon": 14.8637909}, {"type": "node", "id": 4579927282, "lat": 52.4634038, "lon": 14.8637003}, {"type": "node", "id": 4579927283, "lat": 52.4634392, "lon": 14.8636967}, {"type": "node", "id": 4579927284, "lat": 52.4634375, "lon": 14.8637104}, {"type": "node", "id": 4579927285, "lat": 52.4634528, "lon": 14.8638931}, {"type": "node", "id": 4579927286, "lat": 52.4634505, "lon": 14.8639133}, {"type": "node", "id": 4579927287, "lat": 52.4634858, "lon": 14.8637097}, {"type": "node", "id": 4579927288, "lat": 52.4634905, "lon": 14.8636635}, {"type": "node", "id": 4579928189, "lat": 52.4635265, "lon": 14.8639153}, {"type": "node", "id": 4579928190, "lat": 52.4635242, "lon": 14.8639357}, {"type": "node", "id": 4579928191, "lat": 52.4635559, "lon": 14.8636785}, {"type": "node", "id": 4579928192, "lat": 52.4635552, "lon": 14.8636827}, {"type": "node", "id": 4579928193, "lat": 52.4636204, "lon": 14.8636972}, {"type": "node", "id": 4579928194, "lat": 52.4636352, "lon": 14.8638392}, {"type": "node", "id": 4579928195, "lat": 52.4636436, "lon": 14.863947}, {"type": "node", "id": 4579928196, "lat": 52.4636659, "lon": 14.8638087}, {"type": "node", "id": 4579928197, "lat": 52.463655, "lon": 14.8638427}, {"type": "node", "id": 4580143629, "lat": 52.3444723, "lon": 14.8390899}, {"type": "node", "id": 4580143630, "lat": 52.3444723, "lon": 14.8390977}, {"type": "node", "id": 4580143631, "lat": 52.3444715, "lon": 14.8392666}, {"type": "node", "id": 4580143633, "lat": 52.3445584, "lon": 14.838999}, {"type": "node", "id": 4580143634, "lat": 52.3445499, "lon": 14.8390945}, {"type": "node", "id": 4580143635, "lat": 52.3445598, "lon": 14.8390799}, {"type": "node", "id": 4580143636, "lat": 52.3446368, "lon": 14.8392691}, {"type": "node", "id": 4580143637, "lat": 52.3446629, "lon": 14.839007}, {"type": "node", "id": 4580143638, "lat": 52.3446538, "lon": 14.8392453}, {"type": "node", "id": 4598156592, "lat": 52.3343246, "lon": 14.594685, "tags": {"tourism": "hotel"}}, {"type": "node", "id": 4598156603, "lat": 52.334369, "lon": 14.5944719, "tags": {"name": "Baranowski - Hotel", "stars": "3", "tourism": "hotel", "website": "https://www.hotelbaranowski.pl/"}}, {"type": "node", "id": 4677187570, "lat": 52.4058902, "lon": 14.7609354, "tags": {"addr:city": "Kowal\u00f3w", "addr:housenumber": "18", "addr:postcode": "69-110", "addr:street": "Radowska", "name": "Zamek Weselny Magnat", "tourism": "hotel"}}, {"type": "node", "id": 4770379174, "lat": 52.3738739, "lon": 14.5740402, "tags": {"entrance": "yes"}}, {"type": "node", "id": 4934494421, "lat": 52.5630086, "lon": 14.8090759, "tags": {"addr:city": "S\u0142o\u0144sk", "addr:housenumber": "17", "addr:postcode": "66-436", "addr:street": "3 Lutego", "name": "Zajazd Hubertus", "tourism": "hotel"}}, {"type": "node", "id": 4934494521, "lat": 52.5627749, "lon": 14.8218945}, {"type": "node", "id": 4935206804, "lat": 52.5626323, "lon": 14.8218434}, {"type": "node", "id": 4935206805, "lat": 52.5626174, "lon": 14.8219558}, {"type": "node", "id": 4935206806, "lat": 52.5626381, "lon": 14.8219632}, {"type": "node", "id": 4935206807, "lat": 52.562627, "lon": 14.8220469}, {"type": "node", "id": 4935206808, "lat": 52.5625671, "lon": 14.8220254}, {"type": "node", "id": 4935206809, "lat": 52.5625486, "lon": 14.8221653}, {"type": "node", "id": 4935206810, "lat": 52.5626112, "lon": 14.8221878}, {"type": "node", "id": 4935206811, "lat": 52.5625958, "lon": 14.8223044}, {"type": "node", "id": 4935206812, "lat": 52.5625796, "lon": 14.8222986}, {"type": "node", "id": 4935206813, "lat": 52.5625674, "lon": 14.8223904}, {"type": "node", "id": 4935206814, "lat": 52.5627039, "lon": 14.8224393}, {"type": "node", "id": 4935206815, "lat": 52.5627207, "lon": 14.8223125}, {"type": "node", "id": 4935206816, "lat": 52.5627073, "lon": 14.8223077}, {"type": "node", "id": 4935206817, "lat": 52.5627578, "lon": 14.8220235}, {"type": "node", "id": 4935206818, "lat": 52.5627444, "lon": 14.8220186}, {"type": "node", "id": 4935206819, "lat": 52.5627364, "lon": 14.8220785}, {"type": "node", "id": 4935206820, "lat": 52.5627156, "lon": 14.822245}, {"type": "node", "id": 4935206821, "lat": 52.5628113, "lon": 14.8221053}, {"type": "node", "id": 4935206822, "lat": 52.5627893, "lon": 14.8222714}, {"type": "node", "id": 4963515394, "lat": 52.3199536, "lon": 15.0874418}, {"type": "node", "id": 4963515399, "lat": 52.3198147, "lon": 15.0872918}, {"type": "node", "id": 4970993225, "lat": 52.3195062, "lon": 15.0880364}, {"type": "node", "id": 4971377893, "lat": 52.3196462, "lon": 15.088191}, {"type": "node", "id": 5777569555, "lat": 52.3446293, "lon": 14.8392268, "tags": {"addr:city": "Rzepin", "addr:housenumber": "1", "addr:postcode": "69-110", "addr:street": "Tadeusza Ko\u015bciuszki", "brand": "Kaliski", "name": "Hotel Ratuszowy", "tourism": "hotel"}}, {"type": "node", "id": 5827132899, "lat": 52.4435537, "lon": 15.1134744, "tags": {"addr:city": "Sul\u0119cin", "addr:housenumber": "72", "addr:postcode": "69-200", "addr:street": "Stefana \u017beromskiego", "name": "Hotel Hetman", "tourism": "hotel"}}, {"type": "node", "id": 5872324526, "lat": 52.3199471, "lon": 15.0874386}, {"type": "node", "id": 5924162953, "lat": 52.3377647, "lon": 14.5851401, "tags": {"addr:city": "S\u0142ubice", "addr:housenumber": "8", "addr:postcode": "69-100", "addr:street": "Powsta\u0144c\u00f3w Wielkopolskich", "name": "Korona", "phone": "+48957582200", "tourism": "hotel", "website": "http://www.korona.travel.pl"}}, {"type": "node", "id": 5964811085, "lat": 52.3132713, "lon": 15.0940358, "tags": {"name:en": "paradise", "tourism": "hotel"}}, {"type": "node", "id": 9356258861, "lat": 52.3522382, "lon": 14.5516614}, {"type": "node", "id": 9356258862, "lat": 52.3522511, "lon": 14.5517472}, {"type": "node", "id": 9356258863, "lat": 52.3521925, "lon": 14.5517635}, {"type": "node", "id": 9356258864, "lat": 52.3521902, "lon": 14.5517372}, {"type": "node", "id": 9356258865, "lat": 52.3521511, "lon": 14.5517454}, {"type": "node", "id": 9356258866, "lat": 52.3521293, "lon": 14.5516334}, {"type": "node", "id": 9535934753, "lat": 52.5848698, "lon": 15.0079307, "tags": {"name": "Sobieraj", "tourism": "hotel"}}, {"type": "node", "id": 9863512191, "lat": 52.3416882, "lon": 14.6001407, "tags": {"email": "biuro@hotelhorda.pl", "name": "Horda", "phone": "+48530 21 21 21", "tourism": "hotel", "website": "https://www.hotelhorda.pl/"}}, {"type": "node", "id": 11526536251, "lat": 52.3741778, "lon": 14.5742367}, {"type": "way", "id": 127324746, "nodes": [1409676373, 1409676382, 1409676391, 1409676383, 1409676389, 1409676388, 1409676378, 1409676380, 1409676348, 1409676346, 1409676370, 1409676368, 1409676373], "tags": {"addr:city": "Frankfurt (Oder)", "addr:housenumber": "12", "addr:postcode": "15230", "addr:street": "Lindenstra\u00dfe", "building": "hotel", "check_date": "2024-09-02", "email": "info@citypark-hotel.de", "fax": "+49 335 5532605", "internet_access": "wlan", "name": "City Park Hotel", "operator": "City Park Hotel Frankfurt an der Oder GmbH", "phone": "+49 335 55320", "stars": "3", "tourism": "hotel", "website": "https://www.citypark-hotel.de/"}}, {"type": "way", "id": 127330417, "nodes": [1409809591, 1409809555, 1409809557, 1409809558, 1409809564, 1409809573, 1409809576, 1409809561, 1409809559, 1409809579, 1409809580, 1409809592, 1409809591], "tags": {"addr:city": "Frankfurt (Oder)", "addr:country": "DE", "addr:housenumber": "32", "addr:postcode": "15230", "addr:street": "Fischerstra\u00dfe", "brand": "Residenz Am Park Hotel Frankfurt (Oder) Betriebs GmbH", "building": "hotel", "building:levels": "3", "email": "info@zuraltenoder.de", "fax": "+49 335 5562228", "internet_access": "wlan", "internet_access:fee": "customers", "name": "Hotel Zur Alten Oder Frankfurt", "operator": "Residenz Am Park Hotel Frankfurt (Oder) Betriebs GmbH", "phone": "+49 335 556220", "roof:levels": "0", "rooms": "29", "smoking": "outside", "stars": "3", "tourism": "hotel", "website": "https://zuraltenoder.de/"}}, {"type": "way", "id": 128046689, "nodes": [654073618, 1415882625, 1415882548, 1415882513, 1415882490, 1415882567, 654073618], "tags": {"addr:city": "S\u0142ubice", "addr:city:simc": "0935736", "addr:housenumber": "1", "addr:street": "Sportowa", "addr:street:sym_ul": "20683", "building": "commercial", "building:levels": "3.5", "name": "Sportowy", "operator": "S\u0142ubicki O\u015brodek Sportu i Rekreacji Sp\u00f3\u0142ka z o.o.", "source:addr": "slubice.e-mapa.net", "tourism": "hotel"}}, {"type": "way", "id": 139422282, "nodes": [3892341659, 3892341606, 3892341533, 3892341510, 3892341482, 3892341480, 3892341535, 3892341592, 3892341597, 3892341608, 3892341654, 3892341657, 3892341664, 3892341666, 3892341665, 3892341659], "tags": {"addr:city": "S\u0142ubice", "addr:city:simc": "0935736", "addr:country": "PL", "addr:housenumber": "7", "addr:street": "Plac Przyja\u017ani", "addr:street:sym_ul": "17925", "building": "yes", "email": "cob_anka@tlen.pl", "name": "Anka", "operator": "Anna Mrozi\u0144ska - \u0141uckiewicz", "phone": "+48957582336", "source:addr": "slubice.e-mapa.net", "tourism": "hotel", "website": "https://hotel-anka.pl"}}, {"type": "way", "id": 139974625, "nodes": [1533865415, 1533865361, 9356258866, 1533865367, 9356258865, 9356258864, 9356258863, 9356258862, 9356258861, 1533865423, 1533865415], "tags": {"addr:city": "Frankfurt (Oder)", "addr:country": "DE", "addr:housenumber": "19", "addr:postcode": "15230", "addr:street": "Ziegelstra\u00dfe", "building": "yes", "name": "Oderblick", "tourism": "hotel"}}, {"type": "way", "id": 293021094, "nodes": [1393938338, 2965773539, 1393938351, 1393938344, 1393938358, 1393938376, 1393938375, 1393938361, 1393938354, 1393938350, 1393938349, 1393938327, 1393938335, 1393938338], "tags": {"addr:city": "Frankfurt (Oder)", "addr:country": "DE", "addr:housename": "City Hotel", "addr:housenumber": "11", "addr:postcode": "15230", "addr:street": "Bahnhofstra\u00dfe", "building": "hotel", "building:levels": "3", "check_date": "2024-08-01", "email": "info@hotel-city-residence.de", "internet_access": "yes", "internet_access:fee": "customers", "name": "City Residence Hotel Frankfurt-Oder", "operator": "City Residence Hotel Frankfurt (Oder) Betriebs GmbH", "phone": "+49 335 6642666", "roof:levels": "0", "rooms": "43", "smoking": "outside", "tourism": "hotel", "website": "https://www.hotel-city-residence.de"}}, {"type": "way", "id": 317201242, "nodes": [4580143637, 4580143633, 4580143635, 4580143634, 4580143629, 4580143630, 4580143631, 4580143636, 4580143638, 4580143637], "tags": {"addr:city": "Rzepin", "addr:city:simc": "0935682", "addr:housenumber": "1", "addr:postcode": "69-110", "addr:street": "Wojska Polskiego", "addr:street:sym_ul": "24628", "building": "hotel", "email": "rezerwacje@hotelkaliski.pl", "internet_access": "wlan", "internet_access:fee": "no", "name": "Hotel Kaliski Ratuszowy", "phone": "+48 95 759 63 94", "source:addr": "rzepin.e-mapa.net", "stars": "3", "tourism": "hotel", "website": "https://rzepin.hotelkaliski.pl/"}}, {"type": "way", "id": 385879277, "nodes": [4579928196, 4579928193, 4579928191, 4579928192, 4579927288, 4579927287, 4579927283, 4579927284, 4579927282, 4579927281, 4579927279, 4579927280, 4579927285, 4579927286, 4579928190, 4579928189, 4579928195, 4579928197, 4579928194, 4579928196], "tags": {"addr:city": "O\u015bno Lubuskie", "addr:city:simc": "0935587", "addr:housenumber": "46", "addr:street": "Grunwaldzka", "addr:street:sym_ul": "06260", "building": "yes", "description": "https://www.youtube.com/channel/UCHdj0J6Y4GpVduQfN5ZUgHQ", "email": "rezerwacje@afrodyta-spa.pl;spa@afrodyta-spa.pl", "name": "Afrodyta SPA & Wellness Resort", "phone": "+48 603 603 333;+48 503 179 688", "source:addr": "osnolubuskie.e-mapa.net", "tourism": "hotel", "url": "https://fotopolska.eu/92374,obiekt.html?map_z=18", "website": "https://www.afrodyta-spa.pl/"}}, {"type": "way", "id": 385879309, "nodes": [3892174326, 3892174290, 3892174286, 3892174284, 3892174282, 3892174271, 3892174281, 3892174150, 3892174121, 3892174134, 3892174136, 3892174148, 3892174141, 3892174152, 3892174263, 3892174277, 3892174258, 3892174265, 3892174262, 3892174273, 3892174275, 3892174280, 3892174278, 3892174291, 3892174287, 3892174294, 3892174302, 3892174299, 3892174326], "tags": {"addr:city": "O\u015bno Lubuskie", "addr:city:simc": "0935587", "addr:housenumber": "5", "addr:street": "Konwaliowa", "addr:street:sym_ul": "09223", "building": "yes", "description": "https://images.mapillary.com/n9f6_hPIbD-YNRW-lXXlaQ/thumb-2048.jpg", "email": "biuro@villaplena.pl", "facebook": "https://www.facebook.com/pages/category/Local-Business/VILLA-PLENA-379092148887958/", "image": "https://images.mapillary.com/xaK_pE1nJvg_wNQwPL3qaQ/thumb-2048.jpg", "mapillary": "200269511918876", "name": "Villa Plena", "name:pl": "Villa Plena", "phone": "+ 48 95 757 74 19", "source:addr": "osnolubuskie.e-mapa.net", "tourism": "hotel", "website": "https://villaplena.pl/pl/Hotel"}}, {"type": "way", "id": 460243585, "nodes": [3523849626, 4770379174, 4559212308, 4559212307, 4559212306, 3523849632, 11526536251, 3523849626], "tags": {"building": "commercial", "building:levels": "3", "name": "Holidays", "tourism": "hotel"}}, {"type": "way", "id": 503180735, "nodes": [4934494521, 4935206804, 4935206805, 4935206806, 4935206807, 4935206808, 4935206809, 4935206810, 4935206811, 4935206812, 4935206813, 4935206814, 4935206815, 4935206816, 4935206820, 4935206822, 4935206821, 4935206819, 4935206818, 4935206817, 4934494521], "tags": {"building": "commercial", "name": "Zajazd Ramzes", "tourism": "hotel"}}, {"type": "way", "id": 506662425, "nodes": [4963515394, 4971377893, 4970993225, 4963515399, 5872324526, 4963515394], "tags": {"building": "commercial", "building:levels": "4", "internet_access": "wlan", "name": "Port Torzym", "name:de": "Autohof Torzym", "tourism": "hotel"}}]}