{"version": 0.6, "generator": "Overpass API 0.7.62.5 1bd436f1", "osm3s": {"timestamp_osm_base": "2025-04-11T22:34:45Z", "copyright": "The data included in this document is from www.openstreetmap.org. The data is made available under ODbL."}, "elements": [{"type": "node", "id": 644156777, "lat": 49.1346168, "lon": -122.303079, "tags": {"amenity": "cafe", "brand": "Tim Hortons", "brand:wikidata": "Q175106", "brand:wikipedia": "en:Tim Hortons", "cuisine": "coffee_shop", "name": "Tim Hortons", "operator": "Restaurant Brands International Inc.", "takeaway": "yes", "website": "https://www.timhortons.com/"}}, {"type": "node", "id": 1516219634, "lat": 49.1331113, "lon": -122.3011228}, {"type": "node", "id": 1516219644, "lat": 49.1331043, "lon": -122.3015484}, {"type": "node", "id": 1516219668, "lat": 49.13324, "lon": -122.3012272}, {"type": "node", "id": 1516219674, "lat": 49.1332574, "lon": -122.3015196}, {"type": "node", "id": 1518692643, "lat": 49.1341945, "lon": -122.3092123}, {"type": "node", "id": 1518692645, "lat": 49.1341961, "lon": -122.3094285}, {"type": "node", "id": 1518692775, "lat": 49.1343709, "lon": -122.3092092}, {"type": "node", "id": 1518692776, "lat": 49.1343725, "lon": -122.3094254}, {"type": "node", "id": 3750672825, "lat": 49.1292907, "lon": -122.3222067}, {"type": "node", "id": 3750672826, "lat": 49.1291338, "lon": -122.3221479}, {"type": "node", "id": 3750672827, "lat": 49.1291666, "lon": -122.3219431}, {"type": "node", "id": 3750672828, "lat": 49.1293236, "lon": -122.3220018}, {"type": "node", "id": 3750697327, "lat": 49.1339963, "lon": -122.3258284}, {"type": "node", "id": 3750697328, "lat": 49.1339165, "lon": -122.32583}, {"type": "node", "id": 3750697329, "lat": 49.1339381, "lon": -122.3255041}, {"type": "node", "id": 3750697330, "lat": 49.1340073, "lon": -122.3255028}, {"type": "node", "id": 3954436724, "lat": 49.1293168, "lon": -122.3177733}, {"type": "node", "id": 3954436725, "lat": 49.1291416, "lon": -122.3177032}, {"type": "node", "id": 3954436726, "lat": 49.1291486, "lon": -122.3176628}, {"type": "node", "id": 3954436727, "lat": 49.1293689, "lon": -122.317469}, {"type": "node", "id": 3954436735, "lat": 49.1308243, "lon": -122.318072, "tags": {"addr:unit": "320", "amenity": "restaurant", "cuisine": "sushi", "name": "Junction Sushi", "opening_hours": "11:30-21:00", "phone": "+1-604-814-0908"}}, {"type": "node", "id": 3954436736, "lat": 49.1308844, "lon": -122.3180976, "tags": {"addr:unit": "322", "amenity": "restaurant", "cuisine": "vietnamese", "description": "Vietnamese Noodle House", "name": "Little Saigon", "opening_hours": "11:00-21:00", "phone": "+1-604-820-8746", "website": "https://www.littlesaigon.ca/"}}, {"type": "node", "id": 3961992970, "lat": 49.1332012, "lon": -122.3011019}, {"type": "node", "id": 3961992971, "lat": 49.1332089, "lon": -122.3012315}, {"type": "node", "id": 3963632590, "lat": 49.1331129, "lon": -122.3011498}, {"type": "node", "id": 3963632591, "lat": 49.1331375, "lon": -122.3011192}, {"type": "node", "id": 3963632719, "lat": 49.1330948, "lon": -122.3014306}, {"type": "node", "id": 3963632720, "lat": 49.1331267, "lon": -122.3012511}, {"type": "node", "id": 3963632721, "lat": 49.133086, "lon": -122.3012028}, {"type": "node", "id": 3963632775, "lat": 49.133137, "lon": -122.3011108}, {"type": "node", "id": 3964790203, "lat": 49.1323142, "lon": -122.3374144}, {"type": "node", "id": 3964790204, "lat": 49.1323388, "lon": -122.3375161}, {"type": "node", "id": 3964790277, "lat": 49.1325941, "lon": -122.3375209}, {"type": "node", "id": 3964790278, "lat": 49.1325959, "lon": -122.3372923}, {"type": "node", "id": 3964790366, "lat": 49.132705, "lon": -122.3390044, "tags": {"addr:unit": "C110", "amenity": "restaurant", "brand": "Pizza Hut", "brand:wikidata": "Q191615", "brand:wikipedia": "en:Pizza Hut", "cuisine": "pizza", "name": "Pizza Hut", "website": "https://www.pizzahut.ca"}}, {"type": "node", "id": 3964790409, "lat": 49.1323153, "lon": -122.3372871}, {"type": "node", "id": 3964790410, "lat": 49.1323396, "lon": -122.3374148}, {"type": "node", "id": 3964842591, "lat": 49.133365, "lon": -122.3357952}, {"type": "node", "id": 3964842592, "lat": 49.1331432, "lon": -122.3355804}, {"type": "node", "id": 3964844469, "lat": 49.1333656, "lon": -122.335515}, {"type": "node", "id": 3964844470, "lat": 49.1332263, "lon": -122.3357847}, {"type": "node", "id": 3964844471, "lat": 49.1332662, "lon": -122.3357843}, {"type": "node", "id": 3964844472, "lat": 49.1331334, "lon": -122.3357263}, {"type": "node", "id": 3964844473, "lat": 49.133144, "lon": -122.3357262}, {"type": "node", "id": 3964916361, "lat": 49.133134, "lon": -122.3355173}, {"type": "node", "id": 3964916362, "lat": 49.1331338, "lon": -122.3357975}, {"type": "node", "id": 3964916363, "lat": 49.1332263, "lon": -122.3357964}, {"type": "node", "id": 3964916364, "lat": 49.1332663, "lon": -122.3357965}, {"type": "node", "id": 3964916365, "lat": 49.1331319, "lon": -122.3355805}, {"type": "node", "id": 3965086091, "lat": 49.1340083, "lon": -122.3256293}, {"type": "node", "id": 3965086092, "lat": 49.1339946, "lon": -122.3256296}, {"type": "node", "id": 3965086093, "lat": 49.1339383, "lon": -122.325527}, {"type": "node", "id": 3965086662, "lat": 49.1339139, "lon": -122.3255275}, {"type": "node", "id": 3983464461, "lat": 49.1291314, "lon": -122.3176559}, {"type": "node", "id": 3983464462, "lat": 49.1291453, "lon": -122.3175749}, {"type": "node", "id": 3983464763, "lat": 49.1294146, "lon": -122.318647, "tags": {"addr:unit": "152", "amenity": "restaurant", "brand": "White Spot", "brand:wikidata": "Q7995414", "brand:wikipedia": "en:White Spot", "cuisine": "burger", "drive_through": "yes", "internet_access": "wlan", "internet_access:fee": "no", "name": "White Spot", "opening_hours": "Su-Th 07:00-22:00; Fr-Sa 07:00-23:00", "outdoor_seating": "yes", "phone": "+1-604-820-6642", "website": "https://www.whitespot.ca/location/mission"}}, {"type": "node", "id": 3983465857, "lat": 49.1291629, "lon": -122.3175819}, {"type": "node", "id": 3983465957, "lat": 49.1291944, "lon": -122.3173991}, {"type": "node", "id": 3992983158, "lat": 49.1309522, "lon": -122.319302, "tags": {"addr:unit": "362", "amenity": "restaurant", "brand": "The Chopped Leaf", "brand:wikidata": "Q116904982", "cuisine": "salad", "name": "The Chopped Leaf", "takeaway": "yes"}}, {"type": "node", "id": 3993043558, "lat": 49.1304635, "lon": -122.3235243, "tags": {"addr:housenumber": "32555", "addr:postcode": "V2V 6M7", "addr:street": "London Avenue", "addr:unit": "750", "amenity": "restaurant", "cuisine": "mexican", "name": "Corona's Mexican Restaurant"}}, {"type": "node", "id": 4025029286, "lat": 49.1345138, "lon": -122.303509, "tags": {"amenity": "restaurant", "name": "Bee Thai"}}, {"type": "node", "id": 4025085191, "lat": 49.1342504, "lon": -122.3032426, "tags": {"amenity": "restaurant", "cuisine": "greek", "name": "Eleni's Greek Restaurant", "opening_hours": "Su-Th 11:00-21:30; Fr-Sa 11:00-22:30", "phone": "+1-604-826-4430", "website": "https://www.elenisgreekrestaurant.ca/"}}, {"type": "node", "id": 4025085200, "lat": 49.1345119, "lon": -122.3040715, "tags": {"amenity": "restaurant", "cuisine": "japanese", "name": "Akaska"}}, {"type": "node", "id": 4293868290, "lat": 49.1332902, "lon": -122.330249, "tags": {"addr:city": "Mission", "addr:housenumber": "32281", "addr:postcode": "V2V 1A3", "addr:province": "BC", "addr:street": "Lougheed Highway", "amenity": "restaurant", "cuisine": "regional", "name": "Five Forks Bar & Grill", "opening_hours": "11:00-00:00", "phone": "+1-604-289-0555", "website": "https://www.fiveforksbargrill.com"}}, {"type": "node", "id": 4623807291, "lat": 49.1374366, "lon": -122.2869008, "tags": {"addr:housenumber": "7494", "addr:street": "Mary Street", "alt_name": "The Sunflower Lodge", "amenity": "restaurant", "check_date": "2025-04-05", "cuisine": "regional", "name": "Sunflower Lodge", "website": "https://sunflowerlodge.ca"}}, {"type": "node", "id": 4884021421, "lat": 49.1399028, "lon": -122.3070902, "tags": {"amenity": "cafe", "name": "GrabaJava", "name:en": "GrabaJava"}}, {"type": "node", "id": 4886233621, "lat": 49.1333661, "lon": -122.3289327}, {"type": "node", "id": 5211270241, "lat": 49.1327916, "lon": -122.3170155}, {"type": "node", "id": 5211270242, "lat": 49.1326698, "lon": -122.317015}, {"type": "node", "id": 5211270243, "lat": 49.1326701, "lon": -122.3168402}, {"type": "node", "id": 5211270244, "lat": 49.1327133, "lon": -122.3168404}, {"type": "node", "id": 5211270245, "lat": 49.1327135, "lon": -122.3167148}, {"type": "node", "id": 5211270246, "lat": 49.1327744, "lon": -122.316715}, {"type": "node", "id": 5545433135, "lat": 49.1340636, "lon": -122.3045249, "tags": {"addr:housenumber": "33211", "addr:postcode": "V2V 1E4", "addr:street": "North Railway Avenue", "amenity": "restaurant", "cuisine": "burger;american", "name": "HUB Co. Brewing", "opening_hours": "Mo-Tu off; Wed-Th 16:00-21:00; Fr-Sa 12:00-22:00; Su 12:00-19:00", "outdoor_seating": "no", "phone": "+1-604-289-2739", "website": "https://hubcobrewing.com/"}}, {"type": "node", "id": 6463510297, "lat": 49.1320149, "lon": -122.3222546, "tags": {"amenity": "restaurant", "name": "Mission Hills Sushi", "phone": "+1-604-287-5590"}}, {"type": "node", "id": 6463550988, "lat": 49.1332116, "lon": -122.3168516}, {"type": "node", "id": 6463551008, "lat": 49.1334668, "lon": -122.3168485}, {"type": "node", "id": 6463551020, "lat": 49.1332108, "lon": -122.3167175}, {"type": "node", "id": 6463551026, "lat": 49.1334661, "lon": -122.3167145}, {"type": "node", "id": 6483874296, "lat": 49.1332813, "lon": -122.3286788}, {"type": "node", "id": 6483874335, "lat": 49.1332797, "lon": -122.3289314}, {"type": "node", "id": 6483874341, "lat": 49.1333677, "lon": -122.3286801}, {"type": "node", "id": 6483913407, "lat": 49.1343274, "lon": -122.3274622, "tags": {"alt_name": "Sushi Teriyaki Japanese Restaurant", "amenity": "restaurant", "cuisine": "japanese;sushi", "name": "Sushi Te"}}, {"type": "node", "id": 6483913416, "lat": 49.134, "lon": -122.3271146, "tags": {"amenity": "restaurant", "amenity:cafe": "yes", "cuisine": "ukrainian", "name": "Baba's Ukrainian Kitchen & Coffee House"}}, {"type": "node", "id": 6484141962, "lat": 49.1340293, "lon": -122.3240096, "tags": {"addr:housenumber": "32559", "addr:street": "Logan Avenue", "addr:unit": "107", "amenity": "restaurant", "cuisine": "barbecue", "name": "Embers BBQ House"}}, {"type": "node", "id": 6484662626, "lat": 49.1336256, "lon": -122.3205161, "tags": {"amenity": "restaurant", "cuisine": "sushi", "name": "Hana Sushi"}}, {"type": "node", "id": 6484662644, "lat": 49.133223, "lon": -122.3205257, "tags": {"addr:unit": "6", "amenity": "restaurant", "cuisine": "chicken;seafood;fish_and_chips", "name": "Brownies Chicken & Seafood"}}, {"type": "node", "id": 6484662647, "lat": 49.1334308, "lon": -122.3216837, "tags": {"amenity": "cafe", "name": "The Loco Blue Cafe"}}, {"type": "node", "id": 6501546645, "lat": 49.1335575, "lon": -122.3375237, "tags": {"addr:housenumber": "32081", "addr:street": "Lougheed Highway", "addr:unit": "A4", "amenity": "restaurant", "cuisine": "fish_and_chips", "name": "The Wee Chippie Fish & Chips"}}, {"type": "node", "id": 8258744865, "lat": 49.1318164, "lon": -122.340711, "tags": {"amenity": "cafe", "brand": "Country Style", "brand:wikidata": "Q5177435", "brand:wikipedia": "en:Country Style", "cuisine": "coffee_shop", "name": "Country Style", "takeaway": "yes"}}, {"type": "node", "id": 8410273415, "lat": 49.1291837, "lon": -122.322631, "tags": {"addr:housenumber": "32525", "addr:street": "London Avenue", "amenity": "cafe", "brand": "Starbucks", "brand:wikidata": "Q37158", "brand:wikipedia": "en:Starbucks", "cuisine": "coffee_shop", "drive_through": "yes", "name": "Starbucks", "official_name": "Starbucks Coffee", "takeaway": "yes"}}, {"type": "node", "id": 9336077848, "lat": 49.1629992, "lon": -122.405672}, {"type": "node", "id": 9336077849, "lat": 49.1628458, "lon": -122.405553}, {"type": "node", "id": 9336077850, "lat": 49.1628859, "lon": -122.4054321}, {"type": "node", "id": 9336077851, "lat": 49.1628683, "lon": -122.4054184}, {"type": "node", "id": 9336077852, "lat": 49.1628995, "lon": -122.4053245}, {"type": "node", "id": 9336077853, "lat": 49.1630705, "lon": -122.4054573}, {"type": "node", "id": 10873409913, "lat": 49.1342528, "lon": -122.3058179, "tags": {"addr:housenumber": "33152", "addr:street": "1st Avenue", "amenity": "restaurant", "cuisine": "sushi", "name": "LA Sushi Fusion Restaurant"}}, {"type": "node", "id": 10873409922, "lat": 49.134247, "lon": -122.3065532, "tags": {"amenity": "cafe", "level": "1", "name": "The Penny"}}, {"type": "node", "id": 11251827892, "lat": 49.1335848, "lon": -122.340811, "tags": {"amenity": "cafe", "brand": "Blenz Coffee", "brand:wikidata": "Q4926090", "cuisine": "coffee_shop", "drive_through": "yes", "name": "Blenz Coffee", "takeaway": "yes"}}, {"type": "node", "id": 11816979153, "lat": 49.1327918, "lon": -122.316886}, {"type": "node", "id": 11816979154, "lat": 49.1327741, "lon": -122.3168859}, {"type": "way", "id": 138291521, "nodes": [1516219674, 1516219668, 3961992971, 3961992970, 3963632775, 3963632591, 1516219634, 3963632590, 3963632721, 3963632720, 3963632719, 1516219644, 1516219674], "tags": {"addr:housenumber": "7230", "addr:postcode": "V2V 3Y1", "addr:street": "Horne Avenue", "amenity": "restaurant", "building": "retail", "name": "Mission Station Grill", "opening_hours": "Mo off; Tu-Th,Su 11:00-21:00; Fr-Sa 11:00-22:00", "outdoor_seating": "yes", "phone": "+1-604-287-8277", "reservation": "recommended", "website": "https://www.missionstationgrill.com/"}}, {"type": "way", "id": 138501980, "nodes": [1518692776, 1518692775, 1518692643, 1518692645, 1518692776], "tags": {"addr:housenumber": "33018", "addr:postcode": "V2V 1G3", "addr:street": "1st Avenue", "amenity": "restaurant", "building": "retail", "cuisine": "chinese", "name": "Lido Garden"}}, {"type": "way", "id": 371502209, "nodes": [3750672825, 3750672826, 3750672827, 3750672828, 3750672825], "tags": {"addr:housenumber": "32525", "addr:postcode": "V2V 6M7", "addr:street": "London Avenue", "amenity": "cafe", "brand": "Tim Hortons", "brand:wikidata": "Q175106", "brand:wikipedia": "en:Tim Hortons", "building": "retail", "cuisine": "coffee_shop", "internet_access": "wlan", "name": "Tim Hortons", "opening_hours": "24/7", "smoking": "no", "takeaway": "yes"}}, {"type": "way", "id": 371504524, "nodes": [3750697327, 3750697328, 3965086662, 3965086093, 3750697329, 3750697330, 3965086091, 3965086092, 3750697327], "tags": {"addr:city": "Mission", "addr:housenumber": "32471", "addr:postcode": "V2V 1A5", "addr:street": "Lougheed Highway", "addr:unit": "106", "amenity": "cafe", "brand": "Tim Hortons", "brand:wikidata": "Q175106", "brand:wikipedia": "en:Tim Hortons", "building": "yes", "cuisine": "coffee_shop", "internet_access": "wlan", "internet_access:fee": "no", "name": "Tim Hortons", "opening_hours": "24/7", "phone": "+1-604-814-0818", "smoking": "no", "takeaway": "yes", "wheelchair": "yes"}}, {"type": "way", "id": 392181234, "nodes": [3954436724, 3954436725, 3954436726, 3983464461, 3983464462, 3983465857, 3983465957, 3954436727, 3954436724], "tags": {"addr:unit": "160", "amenity": "restaurant", "brand": "Boston Pizza", "brand:wikidata": "Q894578", "brand:wikipedia": "en:Boston Pizza", "building": "retail", "cuisine": "pizza", "name": "Boston Pizza", "opening_hours": "Su-Th 11:00-00:00; Fr-Sa 11:00-01:00", "phone": "+1-604-820-4223", "website": "https://bostonpizza.com/"}}, {"type": "way", "id": 393267142, "nodes": [3964790277, 3964790278, 3964790409, 3964790203, 3964790410, 3964790204, 3964790277], "tags": {"addr:housenumber": "32034", "addr:postcode": "V2V 1A4", "addr:street": "Lougheed Highway", "amenity": "restaurant", "building": "retail", "building:levels": "2", "cuisine": "indian", "name": "Sangam Sweets & Curry Express", "opening_hours": "Mo 16:30-21:00; Tu-Su 11:00-21:00", "phone": "+1-604-287-1223", "shop": "confectionery", "website": "http://sangamsweets.ca"}}, {"type": "way", "id": 393278563, "nodes": [3964842591, 3964844469, 3964916361, 3964916365, 3964842592, 3964844473, 3964844472, 3964916362, 3964916363, 3964844470, 3964844471, 3964916364, 3964842591], "tags": {"amenity": "restaurant", "building": "retail", "name": "Ricky's Country Restaurant", "old_name": "abc country restaurant", "opening_hours": "07:00-21:00; PH 08:00-20:00", "phone": "+1-604-820-9637", "url": "https://m.facebook.com/abccountrymission", "website": "https://www.abccountry.ca/"}}, {"type": "way", "id": 538377965, "nodes": [5211270241, 5211270242, 5211270243, 5211270244, 5211270245, 5211270246, 11816979154, 11816979153, 5211270241], "tags": {"addr:city": "Mission", "addr:housenumber": "32786", "addr:province": "BC", "addr:street": "Lougheed Highway", "amenity": "restaurant", "building": "retail", "internet_access": "wlan", "internet_access:fee": "no", "name": "Rocko's Family Diner", "opening_hours": "24/7", "toilets": "yes", "toilets:wheelchair": "yes", "website": "https://rockosdiner.com/", "wikidata": "Q106900727", "wikipedia": "en:Rocko's Diner"}}, {"type": "way", "id": 689053130, "nodes": [6463551008, 6463551026, 6463551020, 6463550988, 6463551008], "tags": {"amenity": "restaurant", "building": "retail", "cuisine": "chinese", "name": "Mandarin Palace"}}, {"type": "way", "id": 691039855, "nodes": [4886233621, 6483874341, 6483874296, 6483874335, 4886233621], "tags": {"amenity": "cafe", "brand": "Starbucks", "brand:wikidata": "Q37158", "brand:wikipedia": "en:Starbucks", "building": "retail", "cuisine": "coffee_shop", "drive_in": "yes", "internet_access": "wlan", "internet_access:fee": "no", "name": "Starbucks", "official_name": "Starbucks Coffee", "takeaway": "yes"}}, {"type": "way", "id": 1011934770, "nodes": [9336077848, 9336077849, 9336077850, 9336077851, 9336077852, 9336077853, 9336077848], "tags": {"amenity": "cafe", "brand": "Starbucks", "brand:wikidata": "Q37158", "brand:wikipedia": "en:Starbucks", "building": "yes", "check_date": "2024-07-07", "cuisine": "coffee_shop", "name": "Starbucks", "official_name": "Starbucks Coffee", "takeaway": "yes"}}]}