{"version": 0.6, "generator": "Overpass API 0.7.62.5 1bd436f1", "osm3s": {"timestamp_osm_base": "2025-03-22T01:13:24Z", "copyright": "The data included in this document is from www.openstreetmap.org. The data is made available under ODbL."}, "elements": [{"type": "node", "id": 470511992, "lat": 51.991738, "lon": 14.6887173, "tags": {"name": "Landgasthof Hotel Waldow", "operator": "Sonja Waldow", "phone": "+49 3561 4060", "tourism": "hotel", "website": "https://www.hotel-waldow.de/"}}, {"type": "node", "id": 567956358, "lat": 52.1526804, "lon": 14.6289209}, {"type": "node", "id": 567956377, "lat": 52.1528149, "lon": 14.6288668}, {"type": "node", "id": 567956538, "lat": 52.152983, "lon": 14.6280742}, {"type": "node", "id": 567956552, "lat": 52.1528649, "lon": 14.6280143}, {"type": "node", "id": 996444616, "lat": 52.0648131, "lon": 15.0725551}, {"type": "node", "id": 999298317, "lat": 51.9358306, "lon": 14.6942878, "tags": {"email": "info@hotel-pension-klinger.de", "fax": "+49 3561 5463080", "name": "Hotel Pension Klinger", "phone": "+49 3561 430058", "tourism": "hotel", "website": "https://hotel-pension-klinger.de/", "wheelchair": "yes", "wheelchair:description": "1 Behindertengerechtes Zimmer"}}, {"type": "node", "id": 999298364, "lat": 52.0000277, "lon": 14.6912082, "tags": {"addr:city": "Guben", "addr:country": "DE", "addr:housenumber": "10", "addr:postcode": "03172", "addr:street": "Neuzeller Stra\u00dfe", "addr:suburb": "Bresinchen", "email": "info@berghotel-guben.de", "fax": "+49 3561 431576", "name": "Berghotel", "phone": "+49 3561 685130", "tourism": "hotel", "website": "https://www.berghotel-guben.de/"}}, {"type": "node", "id": 1234657233, "lat": 52.0796854, "lon": 14.6277715}, {"type": "node", "id": 1234657259, "lat": 52.0795464, "lon": 14.6274704}, {"type": "node", "id": 1234657273, "lat": 52.0795304, "lon": 14.6277478}, {"type": "node", "id": 1234657274, "lat": 52.0797014, "lon": 14.627494}, {"type": "node", "id": 1234661652, "lat": 52.0901548, "lon": 14.6488966}, {"type": "node", "id": 1234661668, "lat": 52.0903614, "lon": 14.6487438}, {"type": "node", "id": 1234661693, "lat": 52.0901829, "lon": 14.6486545}, {"type": "node", "id": 1234661697, "lat": 52.0903272, "lon": 14.6489809}, {"type": "node", "id": 1234664329, "lat": 52.090016, "lon": 14.6494433}, {"type": "node", "id": 1234664330, "lat": 52.0901046, "lon": 14.6491019}, {"type": "node", "id": 1234664331, "lat": 52.0901223, "lon": 14.6493478}, {"type": "node", "id": 1234664332, "lat": 52.0899885, "lon": 14.6491201}, {"type": "node", "id": 1234664333, "lat": 52.0902387, "lon": 14.6494089}, {"type": "node", "id": 1234664334, "lat": 52.0901271, "lon": 14.6494225}, {"type": "node", "id": 1234664335, "lat": 52.090267, "lon": 14.6492345}, {"type": "node", "id": 1234664336, "lat": 52.0901092, "lon": 14.6491605}, {"type": "node", "id": 1346572322, "lat": 52.1632195, "lon": 14.5587478, "tags": {"email": "info@gasthof-schierenberg.de", "fax": "+49 33654 48972", "name": "Gasthof Schierenberg", "phone": "+49 33654 207", "tourism": "hotel", "website": "http://www.gasthof-schierenberg.de/"}}, {"type": "node", "id": 1359560357, "lat": 51.9510572, "lon": 14.7225027}, {"type": "node", "id": 1359560402, "lat": 51.9512115, "lon": 14.7189455}, {"type": "node", "id": 1359560405, "lat": 51.9510094, "lon": 14.7223409}, {"type": "node", "id": 1359560410, "lat": 51.9510508, "lon": 14.7225261}, {"type": "node", "id": 1359560442, "lat": 51.9510216, "lon": 14.7222961}, {"type": "node", "id": 1359560555, "lat": 51.9509412, "lon": 14.7224479}, {"type": "node", "id": 1359560613, "lat": 51.9510684, "lon": 14.7223295}, {"type": "node", "id": 1359560619, "lat": 51.9509474, "lon": 14.7224247}, {"type": "node", "id": 1359560656, "lat": 51.9513264, "lon": 14.7188933}, {"type": "node", "id": 1359560664, "lat": 51.9510539, "lon": 14.7223851}, {"type": "node", "id": 1359560735, "lat": 51.9513105, "lon": 14.7188037}, {"type": "node", "id": 1359560780, "lat": 51.951232, "lon": 14.7189356}, {"type": "node", "id": 1359560792, "lat": 51.9509199, "lon": 14.7222771}, {"type": "node", "id": 1359560802, "lat": 51.9508908, "lon": 14.7223843}, {"type": "node", "id": 1359560831, "lat": 51.9511421, "lon": 14.7224454}, {"type": "node", "id": 1359560849, "lat": 51.951116, "lon": 14.7225446}, {"type": "node", "id": 1373662813, "lat": 52.0901871, "lon": 14.6483347}, {"type": "node", "id": 1373662814, "lat": 52.0902039, "lon": 14.6482623}, {"type": "node", "id": 1373662815, "lat": 52.0903112, "lon": 14.6487013}, {"type": "node", "id": 1373662816, "lat": 52.0903311, "lon": 14.6484269}, {"type": "node", "id": 1373662817, "lat": 52.0903495, "lon": 14.6483496}, {"type": "node", "id": 1373662818, "lat": 52.0903556, "lon": 14.6482773}, {"type": "node", "id": 1373662820, "lat": 52.0903802, "lon": 14.6485043}, {"type": "node", "id": 1373662821, "lat": 52.0903878, "lon": 14.6483746}, {"type": "node", "id": 1373662822, "lat": 52.090394, "lon": 14.6482947}, {"type": "node", "id": 1424051979, "lat": 52.0918165, "lon": 14.6488664}, {"type": "node", "id": 1424051980, "lat": 52.0918529, "lon": 14.6486888}, {"type": "node", "id": 1424051989, "lat": 52.0919646, "lon": 14.6489122}, {"type": "node", "id": 1424051991, "lat": 52.0919855, "lon": 14.6487332}, {"type": "node", "id": 1763300777, "lat": 52.1526862, "lon": 14.6289549}, {"type": "node", "id": 1763300793, "lat": 52.152731, "lon": 14.6289799}, {"type": "node", "id": 1763300801, "lat": 52.152756, "lon": 14.6289595}, {"type": "node", "id": 1763300815, "lat": 52.1527804, "lon": 14.6288467}, {"type": "node", "id": 1763300819, "lat": 52.1527921, "lon": 14.6283721}, {"type": "node", "id": 1763300835, "lat": 52.1528115, "lon": 14.6282769}, {"type": "node", "id": 1763300908, "lat": 52.1528788, "lon": 14.6285703}, {"type": "node", "id": 1763300948, "lat": 52.1529257, "lon": 14.6283397}, {"type": "node", "id": 1828382217, "lat": 51.991263, "lon": 14.687011}, {"type": "node", "id": 1828382218, "lat": 51.9912701, "lon": 14.6870262}, {"type": "node", "id": 1828382222, "lat": 51.9914215, "lon": 14.6879838}, {"type": "node", "id": 1828382295, "lat": 51.9916281, "lon": 14.6893412}, {"type": "node", "id": 1828382296, "lat": 51.9916327, "lon": 14.687149}, {"type": "node", "id": 1828382297, "lat": 51.9916424, "lon": 14.6876881}, {"type": "node", "id": 1828382308, "lat": 51.9916687, "lon": 14.6878764}, {"type": "node", "id": 1828382309, "lat": 51.9916854, "lon": 14.687604}, {"type": "node", "id": 1828382356, "lat": 51.9918166, "lon": 14.6871853}, {"type": "node", "id": 1828382426, "lat": 51.9920609, "lon": 14.6889589}, {"type": "node", "id": 1828382575, "lat": 51.9924759, "lon": 14.6881435}, {"type": "node", "id": 1828382654, "lat": 51.9927664, "lon": 14.6900599}, {"type": "node", "id": 1828382657, "lat": 51.9927992, "lon": 14.6900574}, {"type": "node", "id": 1828382658, "lat": 51.99282, "lon": 14.6900139}, {"type": "node", "id": 1873679262, "lat": 52.0018181, "lon": 14.625764, "tags": {"addr:city": "Schenkend\u00f6bern", "addr:country": "DE", "addr:housenumber": "2/3", "addr:postcode": "03172", "addr:street": "An der Lutzke", "email": "info@lutzke-heuhotel.de", "fax": "+49 35693 60666", "name": "Lutzke Heuhotel Lausch\u00fctz", "operator": "Familie M\u00fcller", "phone": "+49 35693 609933", "tourism": "hotel", "website": "http://www.lutzke-heuhotel.de"}}, {"type": "node", "id": 2396273959, "lat": 51.9511286, "lon": 14.7188783}, {"type": "node", "id": 2396273961, "lat": 51.9511384, "lon": 14.7189396}, {"type": "node", "id": 2396273972, "lat": 51.9512025, "lon": 14.7188899}, {"type": "node", "id": 2396273980, "lat": 51.9512383, "lon": 14.7188377, "tags": {"entrance": "main"}}, {"type": "node", "id": 2399720552, "lat": 52.0918849, "lon": 14.6486981}, {"type": "node", "id": 2872281848, "lat": 52.0483749, "lon": 15.0970835}, {"type": "node", "id": 2872281852, "lat": 52.0486396, "lon": 15.0972231}, {"type": "node", "id": 2872281856, "lat": 52.0483221, "lon": 15.0972713}, {"type": "node", "id": 2909843700, "lat": 52.0796944, "lon": 14.6276151}, {"type": "node", "id": 2909847501, "lat": 52.0796907, "lon": 14.6276787}, {"type": "node", "id": 3077601424, "lat": 52.0648009, "lon": 15.0729156}, {"type": "node", "id": 3077601425, "lat": 52.0647243, "lon": 15.0729087}, {"type": "node", "id": 3077601426, "lat": 52.0647275, "lon": 15.0728131}, {"type": "node", "id": 3077601427, "lat": 52.0647007, "lon": 15.0728107}, {"type": "node", "id": 3077601428, "lat": 52.064703, "lon": 15.0727408}, {"type": "node", "id": 3077601429, "lat": 52.0646842, "lon": 15.0727391}, {"type": "node", "id": 3077601430, "lat": 52.0646859, "lon": 15.0726892}, {"type": "node", "id": 3077601431, "lat": 52.0647019, "lon": 15.0726906}, {"type": "node", "id": 3077601432, "lat": 52.0647068, "lon": 15.0725456}, {"type": "node", "id": 3474187219, "lat": 51.9496816, "lon": 14.7221516, "tags": {"name": "Retro", "tourism": "hotel", "url": "https://polska-org.pl/7479319,Gubin,Restauracja_Retro.html"}}, {"type": "node", "id": 3725152653, "lat": 51.9510786, "lon": 14.7224872, "tags": {"addr:city": "Gubin", "addr:city:simc": "0988394", "addr:country": "PL", "addr:housenumber": "18", "addr:postcode": "66-620", "addr:street": "Obro\u0144c\u00f3w Pokoju", "image": "https://images.mapillary.com/9gDwrW02TOUwNLKkpcXBJI/thumb-2048.jpg", "mapillary": "158128556257194", "name": "PTTK Dom Turysty", "tourism": "hotel", "url": "https://polska-org.pl/8875252,Gubin,Dom_Turysty_PTTK.html"}}, {"type": "node", "id": 3861691081, "lat": 51.9435992, "lon": 14.7246223, "tags": {"name": "Noclegi Lawenda", "tourism": "hotel"}}, {"type": "node", "id": 3864201875, "lat": 52.122071, "lon": 14.9606159, "tags": {"name": "Villa Kolus", "tourism": "hotel"}}, {"type": "node", "id": 4272017237, "lat": 51.9573406, "lon": 14.764444}, {"type": "node", "id": 4272017245, "lat": 51.9573677, "lon": 14.7645971}, {"type": "node", "id": 4272017248, "lat": 51.9573773, "lon": 14.764593}, {"type": "node", "id": 4272017254, "lat": 51.9573861, "lon": 14.764637}, {"type": "node", "id": 4272017256, "lat": 51.9573952, "lon": 14.7646324}, {"type": "node", "id": 4272017260, "lat": 51.9574083, "lon": 14.76464}, {"type": "node", "id": 4272017261, "lat": 51.9574108, "lon": 14.7646512}, {"type": "node", "id": 4272017270, "lat": 51.9574256, "lon": 14.7644032}, {"type": "node", "id": 4272017272, "lat": 51.9574277, "lon": 14.764643}, {"type": "node", "id": 4272017276, "lat": 51.9574371, "lon": 14.7644277}, {"type": "node", "id": 4272017279, "lat": 51.9574525, "lon": 14.7644459}, {"type": "node", "id": 4272017282, "lat": 51.9574636, "lon": 14.7648079}, {"type": "node", "id": 4272017283, "lat": 51.9574711, "lon": 14.7644568}, {"type": "node", "id": 4272017390, "lat": 51.9574939, "lon": 14.7644572}, {"type": "node", "id": 4272017397, "lat": 51.957524, "lon": 14.7645956}, {"type": "node", "id": 4272017403, "lat": 51.9575387, "lon": 14.7646636}, {"type": "node", "id": 4272017404, "lat": 51.9575402, "lon": 14.7646254}, {"type": "node", "id": 4272017412, "lat": 51.9575584, "lon": 14.7647541}, {"type": "node", "id": 4579080179, "lat": 52.0090294, "lon": 15.1552934}, {"type": "node", "id": 4579080180, "lat": 52.0089849, "lon": 15.1546422}, {"type": "node", "id": 4579080181, "lat": 52.0090527, "lon": 15.1551223}, {"type": "node", "id": 5078026025, "lat": 52.090113, "lon": 14.6492708, "tags": {"addr:city": "Neuzelle", "addr:country": "DE", "addr:housenumber": "34", "addr:postcode": "15898", "addr:street": "Frankfurter Stra\u00dfe", "email": "info@hotel-prinz-albrecht.de", "internet_access": "yes", "name": "Landhaushotel Prinz Albrecht", "operator": "Manja Reschke", "payment:cash": "yes", "payment:credit_cards": "yes", "phone": "+49 33652 81322", "reservation": "yes", "rooms": "34", "stars": "3", "tourism": "hotel", "website": "https://www.hotel-prinz-albrecht.de", "wheelchair": "yes"}}, {"type": "node", "id": 5309487135, "lat": 52.0090659, "lon": 15.1551301}, {"type": "node", "id": 5309487136, "lat": 52.0089418, "lon": 15.1548351}, {"type": "node", "id": 5309487137, "lat": 52.0089842, "lon": 15.1548602}, {"type": "node", "id": 5309487138, "lat": 52.0089039, "lon": 15.1552192}, {"type": "node", "id": 6835329156, "lat": 52.0090815, "lon": 15.1549938}, {"type": "node", "id": 6835329157, "lat": 52.009092, "lon": 15.155}, {"type": "node", "id": 6835329158, "lat": 52.009106, "lon": 15.1549376}, {"type": "node", "id": 6835329159, "lat": 52.0090973, "lon": 15.1549325}, {"type": "node", "id": 6835329160, "lat": 52.0091177, "lon": 15.1548413}, {"type": "node", "id": 6835329161, "lat": 52.0091287, "lon": 15.1548478}, {"type": "node", "id": 6835329162, "lat": 52.0091526, "lon": 15.1547413}, {"type": "node", "id": 7185081279, "lat": 52.0485071, "lon": 15.0971888}, {"type": "node", "id": 7185081280, "lat": 52.048523, "lon": 15.0971315}, {"type": "node", "id": 7185081281, "lat": 52.0483359, "lon": 15.0972227}, {"type": "node", "id": 7185081284, "lat": 52.0486052, "lon": 15.0971961}, {"type": "node", "id": 7185082286, "lat": 52.0485817, "lon": 15.0974151}, {"type": "node", "id": 7185082287, "lat": 52.048565, "lon": 15.0974706}, {"type": "node", "id": 7185082292, "lat": 52.0484382, "lon": 15.0974856}, {"type": "node", "id": 7185082293, "lat": 52.0485178, "lon": 15.0975017}, {"type": "node", "id": 7185082294, "lat": 52.0484973, "lon": 15.0975119}, {"type": "node", "id": 7185082295, "lat": 52.0484736, "lon": 15.0974935}, {"type": "node", "id": 7185082296, "lat": 52.0484594, "lon": 15.0975005}, {"type": "node", "id": 7185082297, "lat": 52.0485499, "lon": 15.0975249}, {"type": "node", "id": 7185082298, "lat": 52.0482946, "lon": 15.097369}, {"type": "node", "id": 7185082299, "lat": 52.0483939, "lon": 15.0974203}, {"type": "node", "id": 7185082300, "lat": 52.0483738, "lon": 15.0974344}, {"type": "node", "id": 7185082301, "lat": 52.0484334, "lon": 15.097454}, {"type": "node", "id": 7419204533, "lat": 51.9511796, "lon": 14.7189242}, {"type": "node", "id": 7902278285, "lat": 52.017592, "lon": 15.0910161, "tags": {"internet_access": "wlan", "tourism": "hotel"}}, {"type": "node", "id": 8295023767, "lat": 51.9500492, "lon": 14.7239957, "tags": {"addr:city": "Gubin", "addr:city:simc": "0988394", "addr:housenumber": "19", "addr:postcode": "66-620", "addr:street": "Obro\u0144c\u00f3w Pokoju", "addr:street:sym_ul": "14642", "name": "U Lecha", "source:addr": "emuia.gugik.gov.pl", "tourism": "hotel"}}, {"type": "node", "id": 10054192831, "lat": 52.0919227, "lon": 14.6487113}, {"type": "node", "id": 10054192832, "lat": 52.0918372, "lon": 14.6486848}, {"type": "node", "id": 10978590224, "lat": 52.1421909, "lon": 14.6677753, "tags": {"addr:city": "Eisenh\u00fcttenstadt", "addr:country": "DE", "addr:housenumber": "11-12", "addr:postcode": "15890", "addr:street": "Gubener Stra\u00dfe", "addr:suburb": "F\u00fcrstenberg (Oder)", "beds": "52", "email": "info@hotel-fuerstenberg-oder.de", "fax": "+49 3364 75444", "internet_access": "wlan", "internet_access:fee": "no", "name": "Hotel F\u00fcrstenberg", "operator": "A&F Petzold GbR", "phone": "+49 3364 75440", "rooms": "34", "smoking": "no", "tourism": "hotel", "website": "https://www.hotel-fuerstenberg-oder.de/", "wheelchair": "yes"}}, {"type": "node", "id": 12403341765, "lat": 52.0147796, "lon": 14.738539, "tags": {"addr:city": "\u017bytowa\u0144", "addr:housenumber": "35", "addr:postcode": "66-620", "addr:street": "\u017bytowa\u0144", "name": "Agrolech", "tourism": "hotel", "website": "https://www.facebook.com/agrolech/"}}, {"type": "way", "id": 107424091, "nodes": [1234657259, 1234657273, 1234657233, 2909847501, 2909843700, 1234657274, 1234657259], "tags": {"addr:city": "Neuzelle", "addr:country": "DE", "addr:housenumber": "41", "addr:postcode": "15898", "addr:street": "Kummroer Stra\u00dfe", "addr:suburb": "Kummro", "building": "hotel", "email": "bierbad@t-online.de", "fax": "+49 33652 81113", "internet_access": "wlan", "name": "Kummerower Hof", "operator": "Walter Taschner", "phone": "+49 33652 8110", "toilets:wheelchair": "no", "tourism": "hotel", "website": "https://www.kummerower-hof.de/", "wheelchair": "no"}}, {"type": "way", "id": 107424530, "nodes": [1234661693, 1234661652, 1234661697, 1234661668, 1373662820, 1373662821, 1373662822, 1373662818, 1373662817, 1373662814, 1373662813, 1373662816, 1373662815, 1234661693], "tags": {"addr:city": "Neuzelle", "addr:country": "DE", "addr:housenumber": "1a", "addr:postcode": "15898", "addr:street": "Frankfurter Stra\u00dfe", "building": "hotel", "internet_access": "wlan", "name": "Residenz \"Prinz Albrecht\"", "toilets:wheelchair": "yes", "tourism": "hotel", "website": "https://www.hotel-prinz-albrecht.de/", "wheelchair": "yes"}}, {"type": "way", "id": 107424927, "nodes": [1234664332, 1234664330, 1234664336, 1234664335, 1234664333, 1234664331, 1234664334, 1234664329, 1234664332], "tags": {"amenity": "restaurant", "building": "hotel", "indoor_seating": "yes", "name": "Landhaushotel \"Prinz Albrecht\"", "opening_hours": "Mo-Su 11:30-23:00", "outdoor_seating": "yes", "smoking": "outside", "tourism": "hotel", "website": "https://www.hotel-prinz-albrecht.de/", "website:menu": "https://www.hotel-prinz-albrecht.de/user/pages/03.restaurant/_text_restaurant/karte.pdf", "wheelchair": "limited"}}, {"type": "way", "id": 121436621, "nodes": [1359560656, 1359560780, 1359560402, 2396273972, 7419204533, 2396273961, 2396273959, 2396273980, 1359560735, 1359560656], "tags": {"addr:city": "Guben", "addr:country": "DE", "addr:housenumber": "34", "addr:postcode": "03172", "addr:street": "Frankfurter Stra\u00dfe", "building": "hotel", "building:levels": "4", "email": "info@hermanns-stilhotel.de", "fax": "+49 3561 5472799", "image": "https://images.mapillary.com/8JTmeRS06A0kRh0CVhqqUe/thumb-2048.jpg", "mapillary": "3596729687218943", "name": "Hermann`s Stilhotel", "operator": "Anne Hensel", "phone": "+49 3561 5472790", "roof:levels": "1", "roof:shape": "gambrel", "tourism": "hotel", "website": "https://www.hermanns-stilhotel.de/", "wheelchair": "no"}}, {"type": "way", "id": 121436633, "nodes": [1359560849, 1359560357, 1359560410, 1359560555, 1359560619, 1359560802, 1359560792, 1359560405, 1359560442, 1359560613, 1359560664, 1359560831, 1359560849], "tags": {"addr:city": "Gubin", "addr:city:simc": "0988394", "addr:country": "PL", "addr:housenumber": "18", "addr:postcode": "66-620", "addr:street": "Obro\u0144c\u00f3w Pokoju", "addr:street:sym_ul": "14642", "building": "yes", "image": "https://images.mapillary.com/9gDwrW02TOUwNLKkpcXBJI/thumb-2048.jpg", "mapillary": "158128556257194", "name": "Pokoje Go\u015bcinne Atena", "source:addr": "mgubin.e-mapa.net", "tourism": "hotel", "url": "https://polska-org.pl/8875252,Gubin,Dom_Turysty_PTTK.html"}}, {"type": "way", "id": 128991319, "nodes": [1424051991, 10054192831, 2399720552, 1424051980, 10054192832, 1424051979, 1424051989, 1424051991], "tags": {"building": "hotel", "building:levels": "2", "email": "info@hotel-neuzelle.de", "internet_access": "wlan", "name": "Klosterhotel Neuzelle", "operator": "Klosterhotel Neuzelle GbR", "phone": "+49 700 15891589", "tourism": "hotel", "website": "http://www.klosterhotel-neuzelle.de/", "wikidata": "Q111852245"}}, {"type": "way", "id": 171869763, "nodes": [1828382296, 1828382218, 1828382222, 1828382308, 1828382297, 1828382309, 1828382296], "tags": {"leisure": "park"}}, {"type": "way", "id": 171869764, "nodes": [1828382658, 1828382657, 1828382654, 1828382295, 1828382217, 1828382356, 1828382426, 1828382575, 1828382658]}, {"type": "way", "id": 303404077, "nodes": [996444616, 3077601424, 3077601425, 3077601426, 3077601427, 3077601428, 3077601429, 3077601430, 3077601431, 3077601432, 996444616], "tags": {"addr:city": "Marcinowice", "addr:city:simc": "0910630", "addr:housenumber": "3", "addr:postcode": "66-600", "addr:street": "Zacisze", "addr:street:sym_ul": "25314", "building": "commercial", "name": "Jurewiczowka", "source:addr": "krosnoodrzanskie.e-mapa.net", "tourism": "hotel"}}, {"type": "way", "id": 428047847, "nodes": [4272017404, 4272017397, 4272017390, 4272017283, 4272017279, 4272017276, 4272017270, 4272017237, 4272017245, 4272017248, 4272017254, 4272017256, 4272017260, 4272017261, 4272017272, 4272017282, 4272017412, 4272017403, 4272017404], "tags": {"addr:city": "Gubin", "addr:city:simc": "0988394", "addr:housenumber": "122", "addr:postcode": "66-620", "addr:street": "Kresowa", "addr:street:sym_ul": "09911", "building": "yes", "name": "Onyx", "source:addr": "emuia.gugik.gov.pl", "tourism": "hotel"}}, {"type": "way", "id": 462525550, "nodes": [6835329162, 4579080180, 5309487136, 5309487137, 5309487138, 4579080179, 5309487135, 4579080181, 6835329156, 6835329157, 6835329158, 6835329159, 6835329160, 6835329161, 6835329162], "tags": {"building": "yes", "image": "https://images.mapillary.com/FTVI4HZcd-R6LrT8qnhBPg/thumb-2048.jpg", "mapillary": "317497016408427", "tourism": "hotel"}}, {"type": "way", "id": 712436384, "nodes": [567956538, 567956552, 1763300835, 1763300819, 567956358, 1763300777, 1763300793, 1763300801, 1763300815, 567956377, 1763300908, 1763300948, 567956538], "tags": {"addr:city": "Eisenh\u00fcttenstadt", "addr:country": "DE", "addr:housenumber": "114", "addr:postcode": "15890", "addr:street": "Beeskower Stra\u00dfe", "building": "hotel", "building:levels": "5", "contact:email": "info@lathotel.de", "contact:fax": "+49 3364 426 200", "contact:phone": "+49 3364 426 0", "contact:website": "https://www.lathotel.de/", "internet_access": "wlan", "internet_access:fee": "no", "name": "LAT Hotel & Apartmenthaus Berlin", "operator": "LAT Hotel & Apartmenthaus Berlin GmbH", "rooms": "103", "smoking": "separated", "stars": "3", "tourism": "hotel"}}, {"type": "way", "id": 769898902, "nodes": [2872281848, 7185081279, 7185081280, 7185081284, 2872281852, 7185082286, 7185082287, 7185082297, 7185082293, 7185082294, 7185082295, 7185082296, 7185082292, 7185082301, 7185082299, 7185082300, 7185082298, 2872281856, 7185081281, 2872281848], "tags": {"addr:city": "Krosno Odrza\u0144skie", "addr:housenumber": "27", "addr:postcode": "66-600", "addr:street": "Grobla", "building": "yes", "description": "https://polska-org.pl/6631182,Krosno_Odrzanskie,Hotel_ODRA.html", "name": "Odra", "tourism": "hotel", "url": "https://fotopolska.eu/55514,obiekt.html?map_z=19"}}, {"type": "relation", "id": 2289047, "members": [{"type": "way", "ref": 171869764, "role": "outer"}, {"type": "way", "ref": 171869763, "role": "inner"}], "tags": {"tourism": "hotel", "type": "multipolygon"}}]}